{
  "type": "FeatureCollection",
  "features": [
    {
      "type": "Feature",
      "id": "FS-01",
      "geometry": {
        "type": "Point",
        "coordinates": [
          114.072,
          22.238
        ]
      },
      "properties": {
        "name": "Fire Station 01",
        "station_id": "FS-01",
        "status": "active",
        "staff": 23
      }
    },
    {
      "type": "Feature",
      "id": "FS-02",
      "geometry": {
        "type": "Point",
        "coordinates": [
          114.094,
          22.256
        ]
      },
      "properties": {
        "name": "Fire Station 02",
        "station_id": "FS-02",
        "status": "active",
        "staff": 26
      }
    },
    {
      "type": "Feature",
      "id": "FS-03",
      "geometry": {
        "type": "Point",
        "coordinates": [
          114.116,
          22.274
        ]
      },
      "properties": {
        "name": "Fire Station 03",
        "station_id": "FS-03",
        "status": "planned",
        "staff": 29
      }
    },
    {
      "type": "Feature",
      "id": "FS-04",
      "geometry": {
        "type": "Point",
        "coordinates": [
          114.138,
          22.292
        ]
      },
      "properties": {
        "name": "Fire Station 04",
        "station_id": "FS-04",
        "status": "active",
        "staff": 32
      }
    },
    {
      "type": "Feature",
      "id": "FS-05",
      "geometry": {
        "type": "Point",
        "coordinates": [
          114.16,
          22.31
        ]
      },
      "properties": {
        "name": "Fire Station 05",
        "station_id": "FS-05",
        "status": "active",
        "staff": 35
      }
    },
    {
      "type": "Feature",
      "id": "FS-06",
      "geometry": {
        "type": "Point",
        "coordinates": [
          114.182,
          22.328
        ]
      },
      "properties": {
        "name": "Fire Station 06",
        "station_id": "FS-06",
        "status": "active",
        "staff": 38
      }
    },
    {
      "type": "Feature",
      "id": "FS-07",
      "geometry": {
        "type": "Point",
        "coordinates": [
          114.204,
          22.346
        ]
      },
      "properties": {
        "name": "Fire Station 07",
        "station_id": "FS-07",
        "status": "planned",
        "staff": 41
      }
    },
    {
      "type": "Feature",
      "id": "FS-08",
      "geometry": {
        "type": "Point",
        "coordinates": [
          114.226,
          22.364
        ]
      },
      "properties": {
        "name": "Fire Station 08",
        "station_id": "FS-08",
        "status": "active",
        "staff": 44
      }
    },
    {
      "type": "Feature",
      "id": "FS-09",
      "geometry": {
        "type": "Point",
        "coordinates": [
          114.248,
          22.382
        ]
      },
      "properties": {
        "name": "Fire Station 09",
        "station_id": "FS-09",
        "status": "active",
        "staff": 47
      }
    },
    {
      "type": "Feature",
      "id": "FS-10",
      "geometry": {
        "type": "Point",
        "coordinates": [
          114.27,
          22.4
        ]
      },
      "properties": {
        "name": "Fire Station 10",
        "station_id": "FS-10",
        "status": "active",
        "staff": 50
      }
    },
    {
      "type": "Feature",
      "id": "FS-11",
      "geometry": {
        "type": "Point",
        "coordinates": [
          114.292,
          22.418
        ]
      },
      "properties": {
        "name": "Fire Station 11",
        "station_id": "FS-11",
        "status": "planned",
        "staff": 53
      }
    },
    {
      "type": "Feature",
      "id": "FS-12",
      "geometry": {
        "type": "Point",
        "coordinates": [
          114.314,
          22.436
        ]
      },
      "properties": {
        "name": "Fire Station 12",
        "station_id": "FS-12",
        "status": "active",
        "staff": 56
      }
    }
  ]
}
