{
  "type": "FeatureCollection",
  "features": [
    {
      "type": "Feature",
      "id": "FRZ-01",
      "geometry": {
        "type": "Polygon",
        "coordinates": [
          [
            [
              114.1,
              22.25
            ],
            [
              114.15,
              22.25
            ],
            [
              114.15,
              22.29
            ],
            [
              114.1,
              22.29
            ],
            [
              114.1,
              22.25
            ]
          ]
        ]
      },
      "properties": {
        "name": "Flood Zone 01",
        "zone_id": "FRZ-01",
        "risk_level": "medium",
        "area_km2": 0.9
      }
    },
    {
      "type": "Feature",
      "id": "FRZ-02",
      "geometry": {
        "type": "Polygon",
        "coordinates": [
          [
            [
              114.12,
              22.27
            ],
            [
              114.17,
              22.27
            ],
            [
              114.17,
              22.31
            ],
            [
              114.12,
              22.31
            ],
            [
              114.12,
              22.27
            ]
          ]
        ]
      },
      "properties": {
        "name": "Flood Zone 02",
        "zone_id": "FRZ-02",
        "risk_level": "high",
        "area_km2": 1.3
      }
    },
    {
      "type": "Feature",
      "id": "FRZ-03",
      "geometry": {
        "type": "Polygon",
        "coordinates": [
          [
            [
              114.14,
              22.29
            ],
            [
              114.19,
              22.29
            ],
            [
              114.19,
              22.33
            ],
            [
              114.14,
              22.33
            ],
            [
              114.14,
              22.29
            ]
          ]
        ]
      },
      "properties": {
        "name": "Flood Zone 03",
        "zone_id": "FRZ-03",
        "risk_level": "low",
        "area_km2": 1.7
      }
    },
    {
      "type": "Feature",
      "id": "FRZ-04",
      "geometry": {
        "type": "Polygon",
        "coordinates": [
          [
            [
              114.16,
              22.31
            ],
            [
              114.21,
              22.31
            ],
            [
              114.21,
              22.35
            ],
            [
              114.16,
              22.35
            ],
            [
              114.16,
              22.31
            ]
          ]
        ]
      },
      "properties": {
        "name": "Flood Zone 04",
        "zone_id": "FRZ-04",
        "risk_level": "medium",
        "area_km2": 2.1
      }
    },
    {
      "type": "Feature",
      "id": "FRZ-05",
      "geometry": {
        "type": "Polygon",
        "coordinates": [
          [
            [
              114.18,
              22.33
            ],
            [
              114.23,
              22.33
            ],
            [
              114.23,
              22.37
            ],
            [
              114.18,
              22.37
            ],
            [
              114.18,
              22.33
            ]
          ]
        ]
      },
      "properties": {
        "name": "Flood Zone 05",
        "zone_id": "FRZ-05",
        "risk_level": "high",
        "area_km2": 0.5
      }
    },
    {
      "type": "Feature",
      "id": "FRZ-06",
      "geometry": {
        "type": "Polygon",
        "coordinates": [
          [
            [
              114.2,
              22.35
            ],
            [
              114.25,
              22.35
            ],
            [
              114.25,
              22.39
            ],
            [
              114.2,
              22.39
            ],
            [
              114.2,
              22.35
            ]
          ]
        ]
      },
      "properties": {
        "name": "Flood Zone 06",
        "zone_id": "FRZ-06",
        "risk_level": "low",
        "area_km2": 0.9
      }
    },
    {
      "type": "Feature",
      "id": "FRZ-07",
      "geometry": {
        "type": "Polygon",
        "coordinates": [
          [
            [
              114.22,
              22.37
            ],
            [
              114.27,
              22.37
            ],
            [
              114.27,
              22.41
            ],
            [
              114.22,
              22.41
            ],
            [
              114.22,
              22.37
            ]
          ]
        ]
      },
      "properties": {
        "name": "Flood Zone 07",
        "zone_id": "FRZ-07",
        "risk_level": "medium",
        "area_km2": 1.3
      }
    },
    {
      "type": "Feature",
      "id": "FRZ-08",
      "geometry": {
        "type": "Polygon",
        "coordinates": [
          [
            [
              114.24,
              22.39
            ],
            [
              114.29,
              22.39
            ],
            [
              114.29,
              22.43
            ],
            [
              114.24,
              22.43
            ],
            [
              114.24,
              22.39
            ]
          ]
        ]
      },
      "properties": {
        "name": "Flood Zone 08",
        "zone_id": "FRZ-08",
        "risk_level": "high",
        "area_km2": 1.7
      }
    }
  ]
}
