{
	"type" : "FeatureCollection",
	"name" : "GOVT_PRS",
	"features" : [
		{
			"type" : "Feature",
			"geometry" : {
				"type" : "Point",
				"coordinates" : [ 114.2339728843, 22.3152630459 ]
			},
			"properties" : {
				"OBJECTID" : 1,
				"DATASET_EN" : "Government Primary Schools",
				"DATASET_TC" : "官立小學",
				"NAME_EN" : "KWUN TONG GOVERNMENT PRIMARY SCHOOL (SAU MING ROAD)",
				"ADDRESS_EN" : "130 SAU MING RD SAU MAU PING KWUN TONG KLN",
				"NAME_TC" : "觀塘官立小學<秀明道>",
				"ADDRESS_TC" : "九龍官塘秀茂坪秀明道一百三十號",
				"SEARCH01_EN" : "CO-ED",
				"SEARCH01_TC" : "男女",
				"SEARCH02_EN" : "WHOLE DAY",
				"SEARCH02_TC" : "全日",
				"SEARCH03_EN" : "KWUN TONG",
				"SEARCH03_TC" : "觀塘區",
				"SEARCH04_EN" : "PRIMARY",
				"SEARCH04_TC" : "小學",
				"SEARCH05_EN" : "GOVERNMENT",
				"SEARCH05_TC" : "官立",
				"NSEARCH01_EN" : null,
				"NSEARCH01_TC" : "無",
				"NSEARCH02_EN" : "27092220",
				"NSEARCH02_TC" : "27092220",
				"NSEARCH03_EN" : "27092660",
				"NSEARCH03_TC" : "27092660",
				"NSEARCH04_EN" : "http://www.ktgps-smr.edu.hk",
				"NSEARCH04_TC" : "http://www.ktgps-smr.edu.hk",
				"NSEARCH05_EN" : "572373000123",
				"NSEARCH05_TC" : "572373000123",
				"NORTHING" : 819587,
				"EASTING" : 842151,
				"LATITUDE" : 22.31526275,
				"LONGITUDE" : 114.23397288,
				"LASTUPDATE" : "20260429123329"
			}
		},
		{
			"type" : "Feature",
			"geometry" : {
				"type" : "Point",
				"coordinates" : [ 114.2341089858, 22.3259650689 ]
			},
			"properties" : {
				"OBJECTID" : 2,
				"DATASET_EN" : "Government Primary Schools",
				"DATASET_TC" : "官立小學",
				"NAME_EN" : "ERUDITE GOVERNMENT PRIMARY SCHOOL",
				"ADDRESS_EN" : "8 ON HEI STREET, SAI KUNG, NT",
				"NAME_TC" : "安博官立小學",
				"ADDRESS_TC" : "新界西貢安禧街8號",
				"SEARCH01_EN" : "CO-ED",
				"SEARCH01_TC" : "男女",
				"SEARCH02_EN" : "WHOLE DAY",
				"SEARCH02_TC" : "全日",
				"SEARCH03_EN" : "SAI KUNG",
				"SEARCH03_TC" : "西貢區",
				"SEARCH04_EN" : "PRIMARY",
				"SEARCH04_TC" : "小學",
				"SEARCH05_EN" : "GOVERNMENT",
				"SEARCH05_TC" : "官立",
				"NSEARCH01_EN" : null,
				"NSEARCH01_TC" : "無",
				"NSEARCH02_EN" : "23661530",
				"NSEARCH02_TC" : "23661530",
				"NSEARCH03_EN" : "23141850",
				"NSEARCH03_TC" : "23141850",
				"NSEARCH04_EN" : "https://egps.edu.hk",
				"NSEARCH04_TC" : "https://egps.edu.hk",
				"NSEARCH05_EN" : "510742000223",
				"NSEARCH05_TC" : "510742000223",
				"NORTHING" : 820772.0909518,
				"EASTING" : 842164.57293375,
				"LATITUDE" : 22.32596478,
				"LONGITUDE" : 114.23410898,
				"LASTUPDATE" : "20251031135631"
			}
		},
		{
			"type" : "Feature",
			"geometry" : {
				"type" : "Point",
				"coordinates" : [ 114.0196788819, 22.438454342 ]
			},
			"properties" : {
				"OBJECTID" : 3,
				"DATASET_EN" : "Government Primary Schools",
				"DATASET_TC" : "官立小學",
				"NAME_EN" : "SOUTH YUEN LONG GOVERNMENT PRIMARY SCHOOL",
				"ADDRESS_EN" : "NO 21, LAM HAU TSUEN RD, YUEN LONG NT",
				"NAME_TC" : "南元朗官立小學",
				"ADDRESS_TC" : "欖口村路二十一號",
				"SEARCH01_EN" : "CO-ED",
				"SEARCH01_TC" : "男女",
				"SEARCH02_EN" : "WHOLE DAY",
				"SEARCH02_TC" : "全日",
				"SEARCH03_EN" : "YUEN LONG",
				"SEARCH03_TC" : "元朗區",
				"SEARCH04_EN" : "PRIMARY",
				"SEARCH04_TC" : "小學",
				"SEARCH05_EN" : "GOVERNMENT",
				"SEARCH05_TC" : "官立",
				"NSEARCH01_EN" : null,
				"NSEARCH01_TC" : "無",
				"NSEARCH02_EN" : "24781230",
				"NSEARCH02_TC" : "24781230",
				"NSEARCH03_EN" : "24780323",
				"NSEARCH03_TC" : "24780323",
				"NSEARCH04_EN" : "http://www.sylgps.edu.hk",
				"NSEARCH04_TC" : "http://www.sylgps.edu.hk",
				"NSEARCH05_EN" : "572403000123",
				"NSEARCH05_TC" : "572403000123",
				"NORTHING" : 833236,
				"EASTING" : 820086,
				"LATITUDE" : 22.43845405,
				"LONGITUDE" : 114.01967888,
				"LASTUPDATE" : "20231124150216"
			}
		},
		{
			"type" : "Feature",
			"geometry" : {
				"type" : "Point",
				"coordinates" : [ 114.1476468112, 22.3332323276 ]
			},
			"properties" : {
				"OBJECTID" : 4,
				"DATASET_EN" : "Government Primary Schools",
				"DATASET_TC" : "官立小學",
				"NAME_EN" : "SHAM SHUI PO GOVERNMENT PRIMARY SCHOOL",
				"ADDRESS_EN" : "101 SHAM MONG ROAD, SHAM SHUI PO, KOWLOON",
				"NAME_TC" : "深水埗官立小學",
				"ADDRESS_TC" : "九龍深水埗深旺道101號",
				"SEARCH01_EN" : "CO-ED",
				"SEARCH01_TC" : "男女",
				"SEARCH02_EN" : "WHOLE DAY",
				"SEARCH02_TC" : "全日",
				"SEARCH03_EN" : "SHAM SHUI PO",
				"SEARCH03_TC" : "深水埗區",
				"SEARCH04_EN" : "PRIMARY",
				"SEARCH04_TC" : "小學",
				"SEARCH05_EN" : "GOVERNMENT",
				"SEARCH05_TC" : "官立",
				"NSEARCH01_EN" : null,
				"NSEARCH01_TC" : "無",
				"NSEARCH02_EN" : "29590555",
				"NSEARCH02_TC" : "29590555",
				"NSEARCH03_EN" : "29590566",
				"NSEARCH03_TC" : "29590566",
				"NSEARCH04_EN" : "http://www.sspgps.edu.hk",
				"NSEARCH04_TC" : "http://www.sspgps.edu.hk",
				"NSEARCH05_EN" : "543551000123",
				"NSEARCH05_TC" : "543551000123",
				"NORTHING" : 821576,
				"EASTING" : 833257,
				"LATITUDE" : 22.33323203,
				"LONGITUDE" : 114.14764681,
				"LASTUPDATE" : "20231124150216"
			}
		},
		{
			"type" : "Feature",
			"geometry" : {
				"type" : "Point",
				"coordinates" : [ 114.1688773893, 22.306188131 ]
			},
			"properties" : {
				"OBJECTID" : 5,
				"DATASET_EN" : "Government Primary Schools",
				"DATASET_TC" : "官立小學",
				"NAME_EN" : "JORDAN ROAD GOVERNMENT PRIMARY SCHOOL",
				"ADDRESS_EN" : "1B NANKING STREET JORDAN ROAD KOWLOON",
				"NAME_TC" : "佐敦道官立小學",
				"ADDRESS_TC" : "九龍佐敦道南京街1號B",
				"SEARCH01_EN" : "CO-ED",
				"SEARCH01_TC" : "男女",
				"SEARCH02_EN" : "WHOLE DAY",
				"SEARCH02_TC" : "全日",
				"SEARCH03_EN" : "YAU TSIM MONG",
				"SEARCH03_TC" : "油尖旺區",
				"SEARCH04_EN" : "PRIMARY",
				"SEARCH04_TC" : "小學",
				"SEARCH05_EN" : "GOVERNMENT",
				"SEARCH05_TC" : "官立",
				"NSEARCH01_EN" : null,
				"NSEARCH01_TC" : "無",
				"NSEARCH02_EN" : "23324249",
				"NSEARCH02_TC" : "23324249",
				"NSEARCH03_EN" : "27709559",
				"NSEARCH03_TC" : "27709559",
				"NSEARCH04_EN" : "http://www.jrgps.edu.hk",
				"NSEARCH04_TC" : "http://www.jrgps.edu.hk",
				"NSEARCH05_EN" : "510823000123",
				"NSEARCH05_TC" : "510823000123",
				"NORTHING" : 818581,
				"EASTING" : 835444,
				"LATITUDE" : 22.30618784,
				"LONGITUDE" : 114.16887739,
				"LASTUPDATE" : "20231124150215"
			}
		},
		{
			"type" : "Feature",
			"geometry" : {
				"type" : "Point",
				"coordinates" : [ 114.160067045, 22.4528612843 ]
			},
			"properties" : {
				"OBJECTID" : 6,
				"DATASET_EN" : "Government Primary Schools",
				"DATASET_TC" : "官立小學",
				"NAME_EN" : "TAI PO GOVERNMENT PRIMARY SCHOOL",
				"ADDRESS_EN" : "8 TAI PO TAI WO ROAD, TAI PO, NT",
				"NAME_TC" : "大埔官立小學",
				"ADDRESS_TC" : "新界大埔大埔太和路八號",
				"SEARCH01_EN" : "CO-ED",
				"SEARCH01_TC" : "男女",
				"SEARCH02_EN" : "WHOLE DAY",
				"SEARCH02_TC" : "全日",
				"SEARCH03_EN" : "TAI PO",
				"SEARCH03_TC" : "大埔區",
				"SEARCH04_EN" : "PRIMARY",
				"SEARCH04_TC" : "小學",
				"SEARCH05_EN" : "GOVERNMENT",
				"SEARCH05_TC" : "官立",
				"NSEARCH01_EN" : null,
				"NSEARCH01_TC" : "無",
				"NSEARCH02_EN" : "26562382",
				"NSEARCH02_TC" : "26562382",
				"NSEARCH03_EN" : "26507109",
				"NSEARCH03_TC" : "26507109",
				"NSEARCH04_EN" : "http://www.tpgps.edu.hk",
				"NSEARCH04_TC" : "http://www.tpgps.edu.hk",
				"NSEARCH05_EN" : "510254000223",
				"NSEARCH05_TC" : "510254000223",
				"NORTHING" : 834823,
				"EASTING" : 834538,
				"LATITUDE" : 22.45286099,
				"LONGITUDE" : 114.16006704,
				"LASTUPDATE" : "20231124150215"
			}
		},
		{
			"type" : "Feature",
			"geometry" : {
				"type" : "Point",
				"coordinates" : [ 114.1504495454, 22.2434773955 ]
			},
			"properties" : {
				"OBJECTID" : 7,
				"DATASET_EN" : "Government Primary Schools",
				"DATASET_TC" : "官立小學",
				"NAME_EN" : "HONG KONG SOUTHERN DISTRICT GOVERNMENT PRIMARY SCHOOL",
				"ADDRESS_EN" : "325, APLEICHAU BRIDGE RD, APLEICHAU, HONG KONG",
				"NAME_TC" : "香港南區官立小學",
				"ADDRESS_TC" : "香港鴨脷洲鴨脷洲橋道325號",
				"SEARCH01_EN" : "CO-ED",
				"SEARCH01_TC" : "男女",
				"SEARCH02_EN" : "WHOLE DAY",
				"SEARCH02_TC" : "全日",
				"SEARCH03_EN" : "SOUTHERN",
				"SEARCH03_TC" : "南區",
				"SEARCH04_EN" : "PRIMARY",
				"SEARCH04_TC" : "小學",
				"SEARCH05_EN" : "GOVERNMENT",
				"SEARCH05_TC" : "官立",
				"NSEARCH01_EN" : null,
				"NSEARCH01_TC" : "無",
				"NSEARCH02_EN" : "25510030",
				"NSEARCH02_TC" : "25510030",
				"NSEARCH03_EN" : "25517793",
				"NSEARCH03_TC" : "25517793",
				"NSEARCH04_EN" : "http://www.hksdgps.edu.hk",
				"NSEARCH04_TC" : "http://www.hksdgps.edu.hk",
				"NSEARCH05_EN" : "536989000123",
				"NSEARCH05_TC" : "536989000123",
				"NORTHING" : 811637,
				"EASTING" : 833544,
				"LATITUDE" : 22.2434771,
				"LONGITUDE" : 114.15044954,
				"LASTUPDATE" : "20231124150215"
			}
		},
		{
			"type" : "Feature",
			"geometry" : {
				"type" : "Point",
				"coordinates" : [ 114.2095569631, 22.2889365446 ]
			},
			"properties" : {
				"OBJECTID" : 8,
				"DATASET_EN" : "Government Primary Schools",
				"DATASET_TC" : "官立小學",
				"NAME_EN" : "NORTH POINT GOVERNMENT PRIMARY SCHOOL",
				"ADDRESS_EN" : "888 KING'S ROAD NORTH POINT HONG KONG",
				"NAME_TC" : "北角官立小學",
				"ADDRESS_TC" : "香港北角英皇道888號",
				"SEARCH01_EN" : "CO-ED",
				"SEARCH01_TC" : "男女",
				"SEARCH02_EN" : "WHOLE DAY",
				"SEARCH02_TC" : "全日",
				"SEARCH03_EN" : "EASTERN",
				"SEARCH03_TC" : "東區",
				"SEARCH04_EN" : "PRIMARY",
				"SEARCH04_TC" : "小學",
				"SEARCH05_EN" : "GOVERNMENT",
				"SEARCH05_TC" : "官立",
				"NSEARCH01_EN" : null,
				"NSEARCH01_TC" : "無",
				"NSEARCH02_EN" : "25617130",
				"NSEARCH02_TC" : "25617130",
				"NSEARCH03_EN" : "25628814",
				"NSEARCH03_TC" : "25628814",
				"NSEARCH04_EN" : "http://www.npgps.edu.hk",
				"NSEARCH04_TC" : "http://www.npgps.edu.hk",
				"NSEARCH05_EN" : "510157000123",
				"NSEARCH05_TC" : "510157000123",
				"NORTHING" : 816671,
				"EASTING" : 839636,
				"LATITUDE" : 22.28893625,
				"LONGITUDE" : 114.20955696,
				"LASTUPDATE" : "20231124150215"
			}
		},
		{
			"type" : "Feature",
			"geometry" : {
				"type" : "Point",
				"coordinates" : [ 114.2181141516, 22.3164508668 ]
			},
			"properties" : {
				"OBJECTID" : 9,
				"DATASET_EN" : "Government Primary Schools",
				"DATASET_TC" : "官立小學",
				"NAME_EN" : "KWUN TONG GOVERNMENT PRIMARY SCHOOL",
				"ADDRESS_EN" : "240 NGAU TAU KOK ROAD KWUN TONG KOWLOON",
				"NAME_TC" : "觀塘官立小學",
				"ADDRESS_TC" : "牛頭角道240號",
				"SEARCH01_EN" : "CO-ED",
				"SEARCH01_TC" : "男女",
				"SEARCH02_EN" : "WHOLE DAY",
				"SEARCH02_TC" : "全日",
				"SEARCH03_EN" : "KWUN TONG",
				"SEARCH03_TC" : "觀塘區",
				"SEARCH04_EN" : "PRIMARY",
				"SEARCH04_TC" : "小學",
				"SEARCH05_EN" : "GOVERNMENT",
				"SEARCH05_TC" : "官立",
				"NSEARCH01_EN" : null,
				"NSEARCH01_TC" : "無",
				"NSEARCH02_EN" : "27560762",
				"NSEARCH02_TC" : "27560762",
				"NSEARCH03_EN" : "23313421",
				"NSEARCH03_TC" : "23313421",
				"NSEARCH04_EN" : "http://www.ktgps.edu.hk",
				"NSEARCH04_TC" : "http://www.ktgps.edu.hk",
				"NSEARCH05_EN" : "510530000123",
				"NSEARCH05_TC" : "510530000123",
				"NORTHING" : 819718,
				"EASTING" : 840517,
				"LATITUDE" : 22.31645057,
				"LONGITUDE" : 114.21811415,
				"LASTUPDATE" : "20231124150214"
			}
		},
		{
			"type" : "Feature",
			"geometry" : {
				"type" : "Point",
				"coordinates" : [ 114.1896804001, 22.2768003561 ]
			},
			"properties" : {
				"OBJECTID" : 10,
				"DATASET_EN" : "Government Primary Schools",
				"DATASET_TC" : "官立小學",
				"NAME_EN" : "SIR ELLIS KADOORIE (SOOKUNPO) PRIMARY SCHOOL",
				"ADDRESS_EN" : "9 EASTERN HOSPITAL ROAD SOOKUNPO HONG KONG",
				"NAME_TC" : "官立嘉道理爵士小學",
				"ADDRESS_TC" : "香港掃桿埔東院道9號",
				"SEARCH01_EN" : "CO-ED",
				"SEARCH01_TC" : "男女",
				"SEARCH02_EN" : "WHOLE DAY",
				"SEARCH02_TC" : "全日",
				"SEARCH03_EN" : "WAN CHAI",
				"SEARCH03_TC" : "灣仔區",
				"SEARCH04_EN" : "PRIMARY",
				"SEARCH04_TC" : "小學",
				"SEARCH05_EN" : "GOVERNMENT",
				"SEARCH05_TC" : "官立",
				"NSEARCH01_EN" : null,
				"NSEARCH01_TC" : "無",
				"NSEARCH02_EN" : "25773489",
				"NSEARCH02_TC" : "25773489",
				"NSEARCH03_EN" : "28824520",
				"NSEARCH03_TC" : "28824520",
				"NSEARCH04_EN" : "http://www.sekps.edu.hk",
				"NSEARCH04_TC" : "http://www.sekps.edu.hk",
				"NSEARCH05_EN" : "510238000123",
				"NSEARCH05_TC" : "510238000123",
				"NORTHING" : 815326.8,
				"EASTING" : 837587.8,
				"LATITUDE" : 22.27680006,
				"LONGITUDE" : 114.1896804,
				"LASTUPDATE" : "20231124150214"
			}
		},
		{
			"type" : "Feature",
			"geometry" : {
				"type" : "Point",
				"coordinates" : [ 114.043804946, 22.4426751774 ]
			},
			"properties" : {
				"OBJECTID" : 11,
				"DATASET_EN" : "Government Primary Schools",
				"DATASET_TC" : "官立小學",
				"NAME_EN" : "YUEN LONG GOVERNMENT PRIMARY SCHOOL",
				"ADDRESS_EN" : "AU TAU YUEN LONG NT",
				"NAME_TC" : "元朗官立小學",
				"ADDRESS_TC" : "元朗坳頭",
				"SEARCH01_EN" : "CO-ED",
				"SEARCH01_TC" : "男女",
				"SEARCH02_EN" : "WHOLE DAY",
				"SEARCH02_TC" : "全日",
				"SEARCH03_EN" : "YUEN LONG",
				"SEARCH03_TC" : "元朗區",
				"SEARCH04_EN" : "PRIMARY",
				"SEARCH04_TC" : "小學",
				"SEARCH05_EN" : "GOVERNMENT",
				"SEARCH05_TC" : "官立",
				"NSEARCH01_EN" : null,
				"NSEARCH01_TC" : "無",
				"NSEARCH02_EN" : "24761160",
				"NSEARCH02_TC" : "24761160",
				"NSEARCH03_EN" : "24747316",
				"NSEARCH03_TC" : "24747316",
				"NSEARCH04_EN" : "http://www.ylgps.edu.hk",
				"NSEARCH04_TC" : "http://www.ylgps.edu.hk",
				"NSEARCH05_EN" : "510360000123",
				"NSEARCH05_TC" : "510360000123",
				"NORTHING" : 833701,
				"EASTING" : 822570,
				"LATITUDE" : 22.44267488,
				"LONGITUDE" : 114.04380494,
				"LASTUPDATE" : "20231124150214"
			}
		},
		{
			"type" : "Feature",
			"geometry" : {
				"type" : "Point",
				"coordinates" : [ 114.1755644314, 22.2773986883 ]
			},
			"properties" : {
				"OBJECTID" : 12,
				"DATASET_EN" : "Government Primary Schools",
				"DATASET_TC" : "官立小學",
				"NAME_EN" : "HENNESSY ROAD GOVERNMENT PRIMARY SCH",
				"ADDRESS_EN" : "169 THOMSON ROAD WANCHAI HONG KONG",
				"NAME_TC" : "軒尼詩道官立小學",
				"ADDRESS_TC" : "香港灣仔譚臣道169號",
				"SEARCH01_EN" : "CO-ED",
				"SEARCH01_TC" : "男女",
				"SEARCH02_EN" : "WHOLE DAY",
				"SEARCH02_TC" : "全日",
				"SEARCH03_EN" : "WAN CHAI",
				"SEARCH03_TC" : "灣仔區",
				"SEARCH04_EN" : "PRIMARY",
				"SEARCH04_TC" : "小學",
				"SEARCH05_EN" : "GOVERNMENT",
				"SEARCH05_TC" : "官立",
				"NSEARCH01_EN" : null,
				"NSEARCH01_TC" : "無",
				"NSEARCH02_EN" : "25726633",
				"NSEARCH02_TC" : "25726633",
				"NSEARCH03_EN" : "25723735",
				"NSEARCH03_TC" : "25723735",
				"NSEARCH04_EN" : "http://www.hrgps.edu.hk",
				"NSEARCH04_TC" : "http://www.hrgps.edu.hk",
				"NSEARCH05_EN" : "510084000123",
				"NSEARCH05_TC" : "510084000123",
				"NORTHING" : 815393,
				"EASTING" : 836133,
				"LATITUDE" : 22.2773984,
				"LONGITUDE" : 114.17556443,
				"LASTUPDATE" : "20231124150214"
			}
		},
		{
			"type" : "Feature",
			"geometry" : {
				"type" : "Point",
				"coordinates" : [ 114.2285644154, 22.2823753622 ]
			},
			"properties" : {
				"OBJECTID" : 13,
				"DATASET_EN" : "Government Primary Schools",
				"DATASET_TC" : "官立小學",
				"NAME_EN" : "ALDRICH BAY GOVERNMENT PRIMARY SCHOOL",
				"ADDRESS_EN" : "1 OI LAI STREET, SHAU KEI WAN, HK",
				"NAME_TC" : "愛秩序灣官立小學",
				"ADDRESS_TC" : "香港筲箕灣愛禮街1號",
				"SEARCH01_EN" : "CO-ED",
				"SEARCH01_TC" : "男女",
				"SEARCH02_EN" : "WHOLE DAY",
				"SEARCH02_TC" : "全日",
				"SEARCH03_EN" : "EASTERN",
				"SEARCH03_TC" : "東區",
				"SEARCH04_EN" : "PRIMARY",
				"SEARCH04_TC" : "小學",
				"SEARCH05_EN" : "GOVERNMENT",
				"SEARCH05_TC" : "官立",
				"NSEARCH01_EN" : null,
				"NSEARCH01_TC" : "無",
				"NSEARCH02_EN" : "25611118",
				"NSEARCH02_TC" : "25611118",
				"NSEARCH03_EN" : "25628437",
				"NSEARCH03_TC" : "25628437",
				"NSEARCH04_EN" : "http://www.abgps.edu.hk",
				"NSEARCH04_TC" : "http://www.abgps.edu.hk",
				"NSEARCH05_EN" : "534196000123",
				"NSEARCH05_TC" : "534196000123",
				"NORTHING" : 815945,
				"EASTING" : 841595,
				"LATITUDE" : 22.28237507,
				"LONGITUDE" : 114.22856441,
				"LASTUPDATE" : "20231124150213"
			}
		},
		{
			"type" : "Feature",
			"geometry" : {
				"type" : "Point",
				"coordinates" : [ 114.1947773853, 22.2842880771 ]
			},
			"properties" : {
				"OBJECTID" : 14,
				"DATASET_EN" : "Government Primary Schools",
				"DATASET_TC" : "官立小學",
				"NAME_EN" : "NORTH POINT GOVERNMENT PRIMARY SCHOOL (CLOUD VIEW ROAD)",
				"ADDRESS_EN" : "22 CLOUD VIEW ROAD",
				"NAME_TC" : "北角官立小學(雲景道)",
				"ADDRESS_TC" : "雲景道22號",
				"SEARCH01_EN" : "CO-ED",
				"SEARCH01_TC" : "男女",
				"SEARCH02_EN" : "WHOLE DAY",
				"SEARCH02_TC" : "全日",
				"SEARCH03_EN" : "WAN CHAI",
				"SEARCH03_TC" : "灣仔區",
				"SEARCH04_EN" : "PRIMARY",
				"SEARCH04_TC" : "小學",
				"SEARCH05_EN" : "GOVERNMENT",
				"SEARCH05_TC" : "官立",
				"NSEARCH01_EN" : null,
				"NSEARCH01_TC" : "無",
				"NSEARCH02_EN" : "21229494",
				"NSEARCH02_TC" : "21229494",
				"NSEARCH03_EN" : "21229422",
				"NSEARCH03_TC" : "21229422",
				"NSEARCH04_EN" : "http://www.npcvr.edu.hk",
				"NSEARCH04_TC" : "http://www.npcvr.edu.hk",
				"NSEARCH05_EN" : "571180000123",
				"NSEARCH05_TC" : "571180000123",
				"NORTHING" : 816156,
				"EASTING" : 838113,
				"LATITUDE" : 22.28428778,
				"LONGITUDE" : 114.19477738,
				"LASTUPDATE" : "20231124150213"
			}
		},
		{
			"type" : "Feature",
			"geometry" : {
				"type" : "Point",
				"coordinates" : [ 114.1150853123, 22.3720392213 ]
			},
			"properties" : {
				"OBJECTID" : 15,
				"DATASET_EN" : "Government Primary Schools",
				"DATASET_TC" : "官立小學",
				"NAME_EN" : "HOI PA STREET GOVERNMENT PRIMARY SCH",
				"ADDRESS_EN" : "1 KAI CHI CLOSE TSUEN WAN NEW TERRITORIES",
				"NAME_TC" : "海壩街官立小學",
				"ADDRESS_TC" : "新界荃灣啓志街1號",
				"SEARCH01_EN" : "CO-ED",
				"SEARCH01_TC" : "男女",
				"SEARCH02_EN" : "WHOLE DAY",
				"SEARCH02_TC" : "全日",
				"SEARCH03_EN" : "TSUEN WAN",
				"SEARCH03_TC" : "荃灣區",
				"SEARCH04_EN" : "PRIMARY",
				"SEARCH04_TC" : "小學",
				"SEARCH05_EN" : "GOVERNMENT",
				"SEARCH05_TC" : "官立",
				"NSEARCH01_EN" : null,
				"NSEARCH01_TC" : "無",
				"NSEARCH02_EN" : "24902828",
				"NSEARCH02_TC" : "24902828",
				"NSEARCH03_EN" : "24906272",
				"NSEARCH03_TC" : "24906272",
				"NSEARCH04_EN" : "http://www.hpsgps.edu.hk",
				"NSEARCH04_TC" : "http://www.hpsgps.edu.hk",
				"NSEARCH05_EN" : "510513000123",
				"NSEARCH05_TC" : "510513000123",
				"NORTHING" : 825874.3,
				"EASTING" : 829904.3,
				"LATITUDE" : 22.37203893,
				"LONGITUDE" : 114.11508531,
				"LASTUPDATE" : "20231124150213"
			}
		},
		{
			"type" : "Feature",
			"geometry" : {
				"type" : "Point",
				"coordinates" : [ 114.1935420764, 22.3409642656 ]
			},
			"properties" : {
				"OBJECTID" : 16,
				"DATASET_EN" : "Government Primary Schools",
				"DATASET_TC" : "官立小學",
				"NAME_EN" : "WONG TAI SIN GOVERNMENT PRIMARY SCH",
				"ADDRESS_EN" : "100 CHING TAK STREET WONG TAI SIN KOWLOON",
				"NAME_TC" : "黃大仙官立小學",
				"ADDRESS_TC" : "九龍黃大仙正德街100號",
				"SEARCH01_EN" : "CO-ED",
				"SEARCH01_TC" : "男女",
				"SEARCH02_EN" : "WHOLE DAY",
				"SEARCH02_TC" : "全日",
				"SEARCH03_EN" : "WONG TAI SIN",
				"SEARCH03_TC" : "黃大仙區",
				"SEARCH04_EN" : "PRIMARY",
				"SEARCH04_TC" : "小學",
				"SEARCH05_EN" : "GOVERNMENT",
				"SEARCH05_TC" : "官立",
				"NSEARCH01_EN" : null,
				"NSEARCH01_TC" : "無",
				"NSEARCH02_EN" : "23202437",
				"NSEARCH02_TC" : "23202437",
				"NSEARCH03_EN" : "23202440",
				"NSEARCH03_TC" : "23202440",
				"NSEARCH04_EN" : "http://www.wtsgps.edu.hk",
				"NSEARCH04_TC" : "http://www.wtsgps.edu.hk",
				"NSEARCH05_EN" : "510718000123",
				"NSEARCH05_TC" : "510718000123",
				"NORTHING" : 822432,
				"EASTING" : 837985,
				"LATITUDE" : 22.34096397,
				"LONGITUDE" : 114.19354207,
				"LASTUPDATE" : "20231124150213"
			}
		},
		{
			"type" : "Feature",
			"geometry" : {
				"type" : "Point",
				"coordinates" : [ 114.1600322504, 22.3382189626 ]
			},
			"properties" : {
				"OBJECTID" : 17,
				"DATASET_EN" : "Government Primary Schools",
				"DATASET_TC" : "官立小學",
				"NAME_EN" : "LI CHENG UK GOVERNMENT PRIMARY SCHOOL",
				"ADDRESS_EN" : "43 TONKIN STREET SHAMSHUIPO KOWLOON",
				"NAME_TC" : "李鄭屋官立小學",
				"ADDRESS_TC" : "九龍深水埗東京街43號",
				"SEARCH01_EN" : "CO-ED",
				"SEARCH01_TC" : "男女",
				"SEARCH02_EN" : "WHOLE DAY",
				"SEARCH02_TC" : "全日",
				"SEARCH03_EN" : "SHAM SHUI PO",
				"SEARCH03_TC" : "深水埗區",
				"SEARCH04_EN" : "PRIMARY",
				"SEARCH04_TC" : "小學",
				"SEARCH05_EN" : "GOVERNMENT",
				"SEARCH05_TC" : "官立",
				"NSEARCH01_EN" : null,
				"NSEARCH01_TC" : "無",
				"NSEARCH02_EN" : "23868486,23868049",
				"NSEARCH02_TC" : "23868486,23868049",
				"NSEARCH03_EN" : "27089950",
				"NSEARCH03_TC" : "27089950",
				"NSEARCH04_EN" : "http://www.lcu.edu.hk",
				"NSEARCH04_TC" : "http://www.lcu.edu.hk",
				"NSEARCH05_EN" : "510874000123",
				"NSEARCH05_TC" : "510874000123",
				"NORTHING" : 822128,
				"EASTING" : 834533,
				"LATITUDE" : 22.33821867,
				"LONGITUDE" : 114.16003225,
				"LASTUPDATE" : "20231124150212"
			}
		},
		{
			"type" : "Feature",
			"geometry" : {
				"type" : "Point",
				"coordinates" : [ 114.1010132492, 22.371904104 ]
			},
			"properties" : {
				"OBJECTID" : 18,
				"DATASET_EN" : "Government Primary Schools",
				"DATASET_TC" : "官立小學",
				"NAME_EN" : "TSUEN WAN GOVERNMENT PRIMARY SCHOOL",
				"ADDRESS_EN" : "600 CASTLE PEAK ROAD, AREA 2, TSUEN WAN",
				"NAME_TC" : "荃灣官立小學",
				"ADDRESS_TC" : "荃灣青山公路六佰號",
				"SEARCH01_EN" : "CO-ED",
				"SEARCH01_TC" : "男女",
				"SEARCH02_EN" : "WHOLE DAY",
				"SEARCH02_TC" : "全日",
				"SEARCH03_EN" : "TSUEN WAN",
				"SEARCH03_TC" : "荃灣區",
				"SEARCH04_EN" : "PRIMARY",
				"SEARCH04_TC" : "小學",
				"SEARCH05_EN" : "GOVERNMENT",
				"SEARCH05_TC" : "官立",
				"NSEARCH01_EN" : null,
				"NSEARCH01_TC" : "無",
				"NSEARCH02_EN" : "24156313",
				"NSEARCH02_TC" : "24156313",
				"NSEARCH03_EN" : "24156013",
				"NSEARCH03_TC" : "24156013",
				"NSEARCH04_EN" : "http://www.twgps.edu.hk",
				"NSEARCH04_TC" : "http://www.twgps.edu.hk",
				"NSEARCH05_EN" : "528773000123",
				"NSEARCH05_TC" : "528773000123",
				"NORTHING" : 825860,
				"EASTING" : 828455,
				"LATITUDE" : 22.37190381,
				"LONGITUDE" : 114.10101325,
				"LASTUPDATE" : "20231124150212"
			}
		},
		{
			"type" : "Feature",
			"geometry" : {
				"type" : "Point",
				"coordinates" : [ 114.1439113729, 22.2844573144 ]
			},
			"properties" : {
				"OBJECTID" : 19,
				"DATASET_EN" : "Government Primary Schools",
				"DATASET_TC" : "官立小學",
				"NAME_EN" : "BONHAM ROAD GOVERNMENT PRIMARY SCHOOL",
				"ADDRESS_EN" : "9A BONHAM ROAD, HONG KONG",
				"NAME_TC" : "般咸道官立小學",
				"ADDRESS_TC" : "香港般咸道9號A",
				"SEARCH01_EN" : "CO-ED",
				"SEARCH01_TC" : "男女",
				"SEARCH02_EN" : "WHOLE DAY",
				"SEARCH02_TC" : "全日",
				"SEARCH03_EN" : "CENTRAL AND WESTERN",
				"SEARCH03_TC" : "中西區",
				"SEARCH04_EN" : "PRIMARY",
				"SEARCH04_TC" : "小學",
				"SEARCH05_EN" : "GOVERNMENT",
				"SEARCH05_TC" : "官立",
				"NSEARCH01_EN" : null,
				"NSEARCH01_TC" : "無",
				"NSEARCH02_EN" : "25171216",
				"NSEARCH02_TC" : "25171216",
				"NSEARCH03_EN" : "28576743",
				"NSEARCH03_TC" : "28576743",
				"NSEARCH04_EN" : "http://www.brgps.edu.hk",
				"NSEARCH04_TC" : "http://www.brgps.edu.hk",
				"NSEARCH05_EN" : "528781000123",
				"NSEARCH05_TC" : "528781000123",
				"NORTHING" : 816175,
				"EASTING" : 832871,
				"LATITUDE" : 22.28445702,
				"LONGITUDE" : 114.14391137,
				"LASTUPDATE" : "20231124150212"
			}
		},
		{
			"type" : "Feature",
			"geometry" : {
				"type" : "Point",
				"coordinates" : [ 114.1860497557, 22.3689234632 ]
			},
			"properties" : {
				"OBJECTID" : 20,
				"DATASET_EN" : "Government Primary Schools",
				"DATASET_TC" : "官立小學",
				"NAME_EN" : "SHA TIN GOVERNMENT PRIMARY SCHOOL",
				"ADDRESS_EN" : "SUN TIN WAI ESTATE SHATIN NEW TERRITORIES",
				"NAME_TC" : "沙田官立小學",
				"ADDRESS_TC" : "沙田新田圍邨",
				"SEARCH01_EN" : "CO-ED",
				"SEARCH01_TC" : "男女",
				"SEARCH02_EN" : "WHOLE DAY",
				"SEARCH02_TC" : "全日",
				"SEARCH03_EN" : "SHA TIN",
				"SEARCH03_TC" : "沙田區",
				"SEARCH04_EN" : "PRIMARY",
				"SEARCH04_TC" : "小學",
				"SEARCH05_EN" : "GOVERNMENT",
				"SEARCH05_TC" : "官立",
				"NSEARCH01_EN" : null,
				"NSEARCH01_TC" : "無",
				"NSEARCH02_EN" : "26053304",
				"NSEARCH02_TC" : "26053304",
				"NSEARCH03_EN" : "26022489",
				"NSEARCH03_TC" : "26022489",
				"NSEARCH04_EN" : "http://www.stgps.edu.hk",
				"NSEARCH04_TC" : "http://www.stgps.edu.hk",
				"NSEARCH05_EN" : "510602000123",
				"NSEARCH05_TC" : "510602000123",
				"NORTHING" : 825528,
				"EASTING" : 837213,
				"LATITUDE" : 22.36892317,
				"LONGITUDE" : 114.18604975,
				"LASTUPDATE" : "20231124150211"
			}
		},
		{
			"type" : "Feature",
			"geometry" : {
				"type" : "Point",
				"coordinates" : [ 113.9987093092, 22.4586245872 ]
			},
			"properties" : {
				"OBJECTID" : 21,
				"DATASET_EN" : "Government Primary Schools",
				"DATASET_TC" : "官立小學",
				"NAME_EN" : "TIN SHUI WAI GOVERNMENT PRIMARY SCHOOL",
				"ADDRESS_EN" : "10 TIN SHUI ROAD, TIN SHUI WAI, YUEN LONG",
				"NAME_TC" : "天水圍官立小學",
				"ADDRESS_TC" : "元朗天水圍天瑞路10號",
				"SEARCH01_EN" : "CO-ED",
				"SEARCH01_TC" : "男女",
				"SEARCH02_EN" : "WHOLE DAY",
				"SEARCH02_TC" : "全日",
				"SEARCH03_EN" : "YUEN LONG",
				"SEARCH03_TC" : "元朗區",
				"SEARCH04_EN" : "PRIMARY",
				"SEARCH04_TC" : "小學",
				"SEARCH05_EN" : "GOVERNMENT",
				"SEARCH05_TC" : "官立",
				"NSEARCH01_EN" : null,
				"NSEARCH01_TC" : "無",
				"NSEARCH02_EN" : "24474288",
				"NSEARCH02_TC" : "24474288",
				"NSEARCH03_EN" : "24488579",
				"NSEARCH03_TC" : "24488579",
				"NSEARCH04_EN" : "http://www.tswgps.edu.hk",
				"NSEARCH04_TC" : "http://www.tswgps.edu.hk",
				"NSEARCH05_EN" : "516848000123",
				"NSEARCH05_TC" : "516848000123",
				"NORTHING" : 835472,
				"EASTING" : 817930,
				"LATITUDE" : 22.45862429,
				"LONGITUDE" : 113.99870931,
				"LASTUPDATE" : "20231124150211"
			}
		},
		{
			"type" : "Feature",
			"geometry" : {
				"type" : "Point",
				"coordinates" : [ 113.9773274178, 22.4095643461 ]
			},
			"properties" : {
				"OBJECTID" : 22,
				"DATASET_EN" : "Government Primary Schools",
				"DATASET_TC" : "官立小學",
				"NAME_EN" : "TUEN MUN GOVERNMENT PRIMARY SCHOOL",
				"ADDRESS_EN" : "SIU HONG COURT TUEN MUN NEW TERRITORIES",
				"NAME_TC" : "屯門官立小學",
				"ADDRESS_TC" : "新界屯門兆康苑",
				"SEARCH01_EN" : "CO-ED",
				"SEARCH01_TC" : "男女",
				"SEARCH02_EN" : "WHOLE DAY",
				"SEARCH02_TC" : "全日",
				"SEARCH03_EN" : "TUEN MUN",
				"SEARCH03_TC" : "屯門區",
				"SEARCH04_EN" : "PRIMARY",
				"SEARCH04_TC" : "小學",
				"SEARCH05_EN" : "GOVERNMENT",
				"SEARCH05_TC" : "官立",
				"NSEARCH01_EN" : null,
				"NSEARCH01_TC" : "無",
				"NSEARCH02_EN" : "24651662",
				"NSEARCH02_TC" : "24651662",
				"NSEARCH03_EN" : "24643083",
				"NSEARCH03_TC" : "24643083",
				"NSEARCH04_EN" : "http://www.tmgps.edu.hk",
				"NSEARCH04_TC" : "http://www.tmgps.edu.hk",
				"NSEARCH05_EN" : "510289000123",
				"NSEARCH05_TC" : "510289000123",
				"NORTHING" : 830042,
				"EASTING" : 815722,
				"LATITUDE" : 22.40956405,
				"LONGITUDE" : 113.97732741,
				"LASTUPDATE" : "20231124150211"
			}
		},
		{
			"type" : "Feature",
			"geometry" : {
				"type" : "Point",
				"coordinates" : [ 114.2634052437, 22.3182355171 ]
			},
			"properties" : {
				"OBJECTID" : 23,
				"DATASET_EN" : "Government Primary Schools",
				"DATASET_TC" : "官立小學",
				"NAME_EN" : "TSEUNG KWAN O GOVERNMENT PRI. SCHOOL",
				"ADDRESS_EN" : "HAU TAK ESTATE PHASE II AREA 41 TSEUNG KWAN O NT",
				"NAME_TC" : "將軍澳官立小學",
				"ADDRESS_TC" : "將軍澳厚德邨",
				"SEARCH01_EN" : "CO-ED",
				"SEARCH01_TC" : "男女",
				"SEARCH02_EN" : "WHOLE DAY",
				"SEARCH02_TC" : "全日",
				"SEARCH03_EN" : "SAI KUNG",
				"SEARCH03_TC" : "西貢區",
				"SEARCH04_EN" : "PRIMARY",
				"SEARCH04_TC" : "小學",
				"SEARCH05_EN" : "GOVERNMENT",
				"SEARCH05_TC" : "官立",
				"NSEARCH01_EN" : null,
				"NSEARCH01_TC" : "無",
				"NSEARCH02_EN" : "27013194,27013249",
				"NSEARCH02_TC" : "27013194,27013249",
				"NSEARCH03_EN" : "27060884",
				"NSEARCH03_TC" : "27060884",
				"NSEARCH04_EN" : "http://www.tkogps.edu.hk",
				"NSEARCH04_TC" : "http://www.tkogps.edu.hk",
				"NSEARCH05_EN" : "510696000123",
				"NSEARCH05_TC" : "510696000123",
				"NORTHING" : 819917.6,
				"EASTING" : 845183.3,
				"LATITUDE" : 22.31823522,
				"LONGITUDE" : 114.26340524,
				"LASTUPDATE" : "20231124150211"
			}
		},
		{
			"type" : "Feature",
			"geometry" : {
				"type" : "Point",
				"coordinates" : [ 114.1396998091, 22.2852962546 ]
			},
			"properties" : {
				"OBJECTID" : 24,
				"DATASET_EN" : "Government Primary Schools",
				"DATASET_TC" : "官立小學",
				"NAME_EN" : "LI SING PRIMARY SCHOOL",
				"ADDRESS_EN" : "119 HIGH STREET SAI YING PUN HONG KONG",
				"NAME_TC" : "李陞小學",
				"ADDRESS_TC" : "香港西營盤高街119號",
				"SEARCH01_EN" : "CO-ED",
				"SEARCH01_TC" : "男女",
				"SEARCH02_EN" : "WHOLE DAY",
				"SEARCH02_TC" : "全日",
				"SEARCH03_EN" : "CENTRAL AND WESTERN",
				"SEARCH03_TC" : "中西區",
				"SEARCH04_EN" : "PRIMARY",
				"SEARCH04_TC" : "小學",
				"SEARCH05_EN" : "GOVERNMENT",
				"SEARCH05_TC" : "官立",
				"NSEARCH01_EN" : null,
				"NSEARCH01_TC" : "無",
				"NSEARCH02_EN" : "25408966",
				"NSEARCH02_TC" : "25408966",
				"NSEARCH03_EN" : "25405819",
				"NSEARCH03_TC" : "25405819",
				"NSEARCH04_EN" : "http://www.lsps.edu.hk",
				"NSEARCH04_TC" : "http://www.lsps.edu.hk",
				"NSEARCH05_EN" : "510882000123",
				"NSEARCH05_TC" : "510882000123",
				"NORTHING" : 816268,
				"EASTING" : 832437,
				"LATITUDE" : 22.28529596,
				"LONGITUDE" : 114.13969981,
				"LASTUPDATE" : "20231124150210"
			}
		},
		{
			"type" : "Feature",
			"geometry" : {
				"type" : "Point",
				"coordinates" : [ 114.1866677794, 22.3207905093 ]
			},
			"properties" : {
				"OBJECTID" : 25,
				"DATASET_EN" : "Government Primary Schools",
				"DATASET_TC" : "官立小學",
				"NAME_EN" : "FARM ROAD GOVERNMENT PRIMARY SCHOOL",
				"ADDRESS_EN" : "8 FARM ROAD TOKWAWAN KOWLOON",
				"NAME_TC" : "農圃道官立小學",
				"ADDRESS_TC" : "九龍土瓜灣農圃道8號",
				"SEARCH01_EN" : "CO-ED",
				"SEARCH01_TC" : "男女",
				"SEARCH02_EN" : "WHOLE DAY",
				"SEARCH02_TC" : "全日",
				"SEARCH03_EN" : "KOWLOON CITY",
				"SEARCH03_TC" : "九龍城區",
				"SEARCH04_EN" : "PRIMARY",
				"SEARCH04_TC" : "小學",
				"SEARCH05_EN" : "GOVERNMENT",
				"SEARCH05_TC" : "官立",
				"NSEARCH01_EN" : null,
				"NSEARCH01_TC" : "無",
				"NSEARCH02_EN" : "27110682",
				"NSEARCH02_TC" : "27110682",
				"NSEARCH03_EN" : "27144224",
				"NSEARCH03_TC" : "27144224",
				"NSEARCH04_EN" : "http://www.frgps.edu.hk",
				"NSEARCH04_TC" : "http://www.frgps.edu.hk",
				"NSEARCH05_EN" : "510050000123",
				"NSEARCH05_TC" : "510050000123",
				"NORTHING" : 820198,
				"EASTING" : 837277,
				"LATITUDE" : 22.32079022,
				"LONGITUDE" : 114.18666778,
				"LASTUPDATE" : "20231124150210"
			}
		},
		{
			"type" : "Feature",
			"geometry" : {
				"type" : "Point",
				"coordinates" : [ 114.1784760374, 22.3358809062 ]
			},
			"properties" : {
				"OBJECTID" : 26,
				"DATASET_EN" : "Government Primary Schools",
				"DATASET_TC" : "官立小學",
				"NAME_EN" : "KOWLOON TONG GOVERNMENT PRIMARY SCHOOL",
				"ADDRESS_EN" : "6 TIM FUK ROAD, KOWLOON TONG, KOWLOON",
				"NAME_TC" : "九龍塘官立小學",
				"ADDRESS_TC" : "九龍塘添福路六號",
				"SEARCH01_EN" : "CO-ED",
				"SEARCH01_TC" : "男女",
				"SEARCH02_EN" : "WHOLE DAY",
				"SEARCH02_TC" : "全日",
				"SEARCH03_EN" : "KOWLOON CITY",
				"SEARCH03_TC" : "九龍城區",
				"SEARCH04_EN" : "PRIMARY",
				"SEARCH04_TC" : "小學",
				"SEARCH05_EN" : "GOVERNMENT",
				"SEARCH05_TC" : "官立",
				"NSEARCH01_EN" : null,
				"NSEARCH01_TC" : "無",
				"NSEARCH02_EN" : "23360991",
				"NSEARCH02_TC" : "23360991",
				"NSEARCH03_EN" : "23374673",
				"NSEARCH03_TC" : "23374673",
				"NSEARCH04_EN" : "https://www.klntong.edu.hk",
				"NSEARCH04_TC" : "https://www.klntong.edu.hk",
				"NSEARCH05_EN" : "539180000123",
				"NSEARCH05_TC" : "539180000123",
				"NORTHING" : 821869,
				"EASTING" : 836433,
				"LATITUDE" : 22.33588061,
				"LONGITUDE" : 114.17847603,
				"LASTUPDATE" : "20231124150210"
			}
		},
		{
			"type" : "Feature",
			"geometry" : {
				"type" : "Point",
				"coordinates" : [ 114.2307859516, 22.2809568296 ]
			},
			"properties" : {
				"OBJECTID" : 27,
				"DATASET_EN" : "Government Primary Schools",
				"DATASET_TC" : "官立小學",
				"NAME_EN" : "SHAU KEI WAN GOVERNMENT PRIMARY SCHOOL",
				"ADDRESS_EN" : "19 MAIN STREET EAST SHAUKEIWAN HONG KONG",
				"NAME_TC" : "筲箕灣官立小學",
				"ADDRESS_TC" : "香港筲箕灣東大街19號",
				"SEARCH01_EN" : "CO-ED",
				"SEARCH01_TC" : "男女",
				"SEARCH02_EN" : "WHOLE DAY",
				"SEARCH02_TC" : "全日",
				"SEARCH03_EN" : "EASTERN",
				"SEARCH03_TC" : "東區",
				"SEARCH04_EN" : "PRIMARY",
				"SEARCH04_TC" : "小學",
				"SEARCH05_EN" : "GOVERNMENT",
				"SEARCH05_TC" : "官立",
				"NSEARCH01_EN" : null,
				"NSEARCH01_TC" : "無",
				"NSEARCH02_EN" : "25692532",
				"NSEARCH02_TC" : "25692532",
				"NSEARCH03_EN" : "25689504",
				"NSEARCH03_TC" : "25689504",
				"NSEARCH04_EN" : "https://www.skwgps.edu.hk",
				"NSEARCH04_TC" : "https://www.skwgps.edu.hk",
				"NSEARCH05_EN" : "510629000123",
				"NSEARCH05_TC" : "510629000123",
				"NORTHING" : 815788,
				"EASTING" : 841824,
				"LATITUDE" : 22.28095654,
				"LONGITUDE" : 114.23078595,
				"LASTUPDATE" : "20231124150210"
			}
		},
		{
			"type" : "Feature",
			"geometry" : {
				"type" : "Point",
				"coordinates" : [ 114.143026425, 22.4933149052 ]
			},
			"properties" : {
				"OBJECTID" : 28,
				"DATASET_EN" : "Government Primary Schools",
				"DATASET_TC" : "官立小學",
				"NAME_EN" : "FANLING GOVERNMENT PRIMARY SCHOOL",
				"ADDRESS_EN" : "CHEUNG WAH ESTATE FANLING NEW TERRITORIES",
				"NAME_TC" : "粉嶺官立小學",
				"ADDRESS_TC" : "新界粉嶺祥華邨",
				"SEARCH01_EN" : "CO-ED",
				"SEARCH01_TC" : "男女",
				"SEARCH02_EN" : "WHOLE DAY",
				"SEARCH02_TC" : "全日",
				"SEARCH03_EN" : "NORTH",
				"SEARCH03_TC" : "北區",
				"SEARCH04_EN" : "PRIMARY",
				"SEARCH04_TC" : "小學",
				"SEARCH05_EN" : "GOVERNMENT",
				"SEARCH05_TC" : "官立",
				"NSEARCH01_EN" : null,
				"NSEARCH01_TC" : "無",
				"NSEARCH02_EN" : "26695890",
				"NSEARCH02_TC" : "26695890",
				"NSEARCH03_EN" : "26776202",
				"NSEARCH03_TC" : "26776202",
				"NSEARCH04_EN" : "https://www.fgps.edu.hk",
				"NSEARCH04_TC" : "https://www.fgps.edu.hk",
				"NSEARCH05_EN" : "510785000123",
				"NSEARCH05_TC" : "510785000123",
				"NORTHING" : 839303,
				"EASTING" : 832785,
				"LATITUDE" : 22.49331461,
				"LONGITUDE" : 114.14302642,
				"LASTUPDATE" : "20231124150209"
			}
		},
		{
			"type" : "Feature",
			"geometry" : {
				"type" : "Point",
				"coordinates" : [ 114.1878892932, 22.302377031 ]
			},
			"properties" : {
				"OBJECTID" : 29,
				"DATASET_EN" : "Government Primary Schools",
				"DATASET_TC" : "官立小學",
				"NAME_EN" : "MA TAU CHUNG GOVERNMENT PRIMARY SCHOOL (HUNG HOM BAY)",
				"ADDRESS_EN" : "3 OI KING STREET, HUNG HOM BAY, KOWLOON",
				"NAME_TC" : "馬頭涌官立小學(紅磡灣)",
				"ADDRESS_TC" : "九龍紅磡灣愛景街3號",
				"SEARCH01_EN" : "CO-ED",
				"SEARCH01_TC" : "男女",
				"SEARCH02_EN" : "WHOLE DAY",
				"SEARCH02_TC" : "全日",
				"SEARCH03_EN" : "KOWLOON CITY",
				"SEARCH03_TC" : "九龍城區",
				"SEARCH04_EN" : "PRIMARY",
				"SEARCH04_TC" : "小學",
				"SEARCH05_EN" : "GOVERNMENT",
				"SEARCH05_TC" : "官立",
				"NSEARCH01_EN" : null,
				"NSEARCH01_TC" : "無",
				"NSEARCH02_EN" : "23638989",
				"NSEARCH02_TC" : "23638989",
				"NSEARCH03_EN" : "27731919",
				"NSEARCH03_TC" : "27731919",
				"NSEARCH04_EN" : "https://www.mtchhb.edu.hk",
				"NSEARCH04_TC" : "https://www.mtchhb.edu.hk",
				"NSEARCH05_EN" : "539171000123",
				"NSEARCH05_TC" : "539171000123",
				"NORTHING" : 818159,
				"EASTING" : 837403,
				"LATITUDE" : 22.30237674,
				"LONGITUDE" : 114.18788929,
				"LASTUPDATE" : "20231124150209"
			}
		},
		{
			"type" : "Feature",
			"geometry" : {
				"type" : "Point",
				"coordinates" : [ 114.1887703599, 22.2780213682 ]
			},
			"properties" : {
				"OBJECTID" : 30,
				"DATASET_EN" : "Government Primary Schools",
				"DATASET_TC" : "官立小學",
				"NAME_EN" : "HENNESSY ROAD GOVERNMENT PRIMARY SCHOOL (CAUSEWAY BAY)",
				"ADDRESS_EN" : "3 EASTERN HOSPITAL ROAD CAUSEWAY BAY",
				"NAME_TC" : "軒尼詩道官立小學(銅鑼灣)",
				"ADDRESS_TC" : "銅鑼灣東院道3號",
				"SEARCH01_EN" : "CO-ED",
				"SEARCH01_TC" : "男女",
				"SEARCH02_EN" : "WHOLE DAY",
				"SEARCH02_TC" : "全日",
				"SEARCH03_EN" : "WAN CHAI",
				"SEARCH03_TC" : "灣仔區",
				"SEARCH04_EN" : "PRIMARY",
				"SEARCH04_TC" : "小學",
				"SEARCH05_EN" : "GOVERNMENT",
				"SEARCH05_TC" : "官立",
				"NSEARCH01_EN" : null,
				"NSEARCH01_TC" : "無",
				"NSEARCH02_EN" : "21572788",
				"NSEARCH02_TC" : "21572788",
				"NSEARCH03_EN" : "21572789",
				"NSEARCH03_TC" : "21572789",
				"NSEARCH04_EN" : "https://www.hrgpscwb.edu.hk",
				"NSEARCH04_TC" : "https://www.hrgpscwb.edu.hk",
				"NSEARCH05_EN" : "601667000123",
				"NSEARCH05_TC" : "601667000123",
				"NORTHING" : 815462,
				"EASTING" : 837494,
				"LATITUDE" : 22.27802108,
				"LONGITUDE" : 114.18877036,
				"LASTUPDATE" : "20231124150209"
			}
		},
		{
			"type" : "Feature",
			"geometry" : {
				"type" : "Point",
				"coordinates" : [ 114.1594406231, 22.3340558049 ]
			},
			"properties" : {
				"OBJECTID" : 31,
				"DATASET_EN" : "Government Primary Schools",
				"DATASET_TC" : "官立小學",
				"NAME_EN" : "FUK WING STREET GOVERNMENT PRIM SCH",
				"ADDRESS_EN" : "231 FUK WING STREET SHAMSHUIPO KOWLOON",
				"NAME_TC" : "福榮街官立小學",
				"ADDRESS_TC" : "九龍深水埗福榮街231號",
				"SEARCH01_EN" : "CO-ED",
				"SEARCH01_TC" : "男女",
				"SEARCH02_EN" : "WHOLE DAY",
				"SEARCH02_TC" : "全日",
				"SEARCH03_EN" : "SHAM SHUI PO",
				"SEARCH03_TC" : "深水埗區",
				"SEARCH04_EN" : "PRIMARY",
				"SEARCH04_TC" : "小學",
				"SEARCH05_EN" : "GOVERNMENT",
				"SEARCH05_TC" : "官立",
				"NSEARCH01_EN" : null,
				"NSEARCH01_TC" : "無",
				"NSEARCH02_EN" : "23869426",
				"NSEARCH02_TC" : "23869426",
				"NSEARCH03_EN" : "27089854",
				"NSEARCH03_TC" : "27089854",
				"NSEARCH04_EN" : "https://www.fwsgps.edu.hk",
				"NSEARCH04_TC" : "https://www.fwsgps.edu.hk",
				"NSEARCH05_EN" : "510505000123",
				"NSEARCH05_TC" : "510505000123",
				"NORTHING" : 821667,
				"EASTING" : 834472,
				"LATITUDE" : 22.33405551,
				"LONGITUDE" : 114.15944062,
				"LASTUPDATE" : "20231124150209"
			}
		},
		{
			"type" : "Feature",
			"geometry" : {
				"type" : "Point",
				"coordinates" : [ 114.1868136414, 22.3246014097 ]
			},
			"properties" : {
				"OBJECTID" : 32,
				"DATASET_EN" : "Government Primary Schools",
				"DATASET_TC" : "官立小學",
				"NAME_EN" : "MA TAU CHUNG GOVERNMENT PRIMARY SCH",
				"ADDRESS_EN" : "1 FUK CHEUNG STREET TOKWAWAN KOWLOON",
				"NAME_TC" : "馬頭涌官立小學",
				"ADDRESS_TC" : "九龍土瓜灣福祥街一號",
				"SEARCH01_EN" : "CO-ED",
				"SEARCH01_TC" : "男女",
				"SEARCH02_EN" : "WHOLE DAY",
				"SEARCH02_TC" : "全日",
				"SEARCH03_EN" : "KOWLOON CITY",
				"SEARCH03_TC" : "九龍城區",
				"SEARCH04_EN" : "PRIMARY",
				"SEARCH04_TC" : "小學",
				"SEARCH05_EN" : "GOVERNMENT",
				"SEARCH05_TC" : "官立",
				"NSEARCH01_EN" : null,
				"NSEARCH01_TC" : "無",
				"NSEARCH02_EN" : "27115548",
				"NSEARCH02_TC" : "27115548",
				"NSEARCH03_EN" : "27144258",
				"NSEARCH03_TC" : "27144258",
				"NSEARCH04_EN" : "https://www.mtcgps.edu.hk",
				"NSEARCH04_TC" : "https://www.mtcgps.edu.hk",
				"NSEARCH05_EN" : "510130000123",
				"NSEARCH05_TC" : "510130000123",
				"NORTHING" : 820620,
				"EASTING" : 837292,
				"LATITUDE" : 22.32460112,
				"LONGITUDE" : 114.18681364,
				"LASTUPDATE" : "20231124150208"
			}
		},
		{
			"type" : "Feature",
			"geometry" : {
				"type" : "Point",
				"coordinates" : [ 114.1657025164, 22.3228403702 ]
			},
			"properties" : {
				"OBJECTID" : 33,
				"DATASET_EN" : "Government Primary Schools",
				"DATASET_TC" : "官立小學",
				"NAME_EN" : "TONG MEI ROAD GOVERNMENT PRIMARY SCHOOL",
				"ADDRESS_EN" : "170 TONG MI ROAD KOWLOON",
				"NAME_TC" : "塘尾道官立小學",
				"ADDRESS_TC" : "九龍塘尾道170號",
				"SEARCH01_EN" : "CO-ED",
				"SEARCH01_TC" : "男女",
				"SEARCH02_EN" : "WHOLE DAY",
				"SEARCH02_TC" : "全日",
				"SEARCH03_EN" : "YAU TSIM MONG",
				"SEARCH03_TC" : "油尖旺區",
				"SEARCH04_EN" : "PRIMARY",
				"SEARCH04_TC" : "小學",
				"SEARCH05_EN" : "GOVERNMENT",
				"SEARCH05_TC" : "官立",
				"NSEARCH01_EN" : null,
				"NSEARCH01_TC" : "無",
				"NSEARCH02_EN" : "23930800",
				"NSEARCH02_TC" : "23930800",
				"NSEARCH03_EN" : "23914777",
				"NSEARCH03_TC" : "23914777",
				"NSEARCH04_EN" : "https://www.tmr.edu.hk",
				"NSEARCH04_TC" : "https://www.tmr.edu.hk",
				"NSEARCH05_EN" : "510688000123",
				"NSEARCH05_TC" : "510688000123",
				"NORTHING" : 820425,
				"EASTING" : 835117,
				"LATITUDE" : 22.32284008,
				"LONGITUDE" : 114.16570251,
				"LASTUPDATE" : "20231124150208"
			}
		}
	]
}