{
	"type" : "FeatureCollection",
	"name" : "FireStations",
	"features" : [
		{
			"type" : "Feature",
			"geometry" : {
				"type" : "Point",
				"coordinates" : [ 114.1738669628, 22.2503699129 ]
			},
			"properties" : {
				"OBJECTID" : 1,
				"FSDID" : "ABD",
				"Name_ENG" : "Aberdeen Fire Station ",
				"Name_TC" : "香港仔消防局",
				"Name_SC" : "香港仔消防局",
				"Address_ENG" : "1 Nam Fung Road, Aberdeen, Hong Kong",
				"Address_TC" : "香港香港仔南風道1號",
				"Address_SC" : "香港香港仔南风道1号",
				"District_ENG" : "SOUTHERN",
				"District_TC" : "南區",
				"District_SC" : "南区",
				"Telephone" : "2552 5280",
				"Northing" : 812400,
				"Easting" : 835958,
				"Latitude" : 22.25036991,
				"Longitude" : 114.17386696
			}
		},
		{
			"type" : "Feature",
			"geometry" : {
				"type" : "Point",
				"coordinates" : [ 114.1486831, 22.248046621 ]
			},
			"properties" : {
				"OBJECTID" : 2,
				"FSDID" : "ADP",
				"Name_ENG" : "Aberdeen Fireboat Station ",
				"Name_TC" : "香港仔滅火輪消防局",
				"Name_SC" : "香港仔灭火轮消防局",
				"Address_ENG" : "100A Shek Pai Wan Road, Aberdeen, Hong Kong",
				"Address_TC" : "香港香港仔石排灣道100號A",
				"Address_SC" : "香港香港仔石排湾道100号A",
				"District_ENG" : "SOUTHERN",
				"District_TC" : "南區",
				"District_SC" : "南区",
				"Telephone" : "2534 7250",
				"Northing" : 812143,
				"Easting" : 833362,
				"Latitude" : 22.24804662,
				"Longitude" : 114.1486831
			}
		},
		{
			"type" : "Feature",
			"geometry" : {
				"type" : "Point",
				"coordinates" : [ 113.9142121148, 22.2986339183 ]
			},
			"properties" : {
				"OBJECTID" : 3,
				"FSDID" : "AFC",
				"Name_ENG" : "Airport South Fire Station ",
				"Name_TC" : "機場南消防局",
				"Name_SC" : "机场南消防局",
				"Address_ENG" : "23 South Runway Road, Hong Kong International Airport, Lantau Island",
				"Address_TC" : "大嶼山香港國際機場跑道南路23號",
				"Address_SC" : "大屿山香港国际机场跑道南路23号",
				"District_ENG" : "ISLANDS",
				"District_TC" : "離島區",
				"District_SC" : "離岛区",
				"Telephone" : "2183 5302",
				"Northing" : 817768,
				"Easting" : 809202,
				"Latitude" : 22.29863,
				"Longitude" : 113.91421
			}
		},
		{
			"type" : "Feature",
			"geometry" : {
				"type" : "Point",
				"coordinates" : [ 113.924216378, 22.3261839129 ]
			},
			"properties" : {
				"OBJECTID" : 4,
				"FSDID" : "AFC1",
				"Name_ENG" : "Airport East Fire Station",
				"Name_TC" : "機場東消防局",
				"Name_SC" : "机场东消防局",
				"Address_ENG" : "Lot No.4, Chek Lap Kok, Lantau Island (Hong Kong International Airport)",
				"Address_TC" : "大嶼山赤鱲角地段第4號(香港國際機場)",
				"Address_SC" : "大屿山赤鱲角地段第4号(香港国际机场机场)",
				"District_ENG" : "ISLANDS",
				"District_TC" : "離島區",
				"District_SC" : "離岛区",
				"Telephone" : "2188 2962",
				"Northing" : 820817,
				"Easting" : 810238,
				"Latitude" : 22.32618,
				"Longitude" : 113.92422
			}
		},
		{
			"type" : "Feature",
			"geometry" : {
				"type" : "Point",
				"coordinates" : [ 113.9003073441, 22.322406259 ]
			},
			"properties" : {
				"OBJECTID" : 5,
				"FSDID" : "AFC4",
				"Name_ENG" : "Airport North Fire Station",
				"Name_TC" : "機場北消防局",
				"Name_SC" : "机场北消防局",
				"Address_ENG" : "Lot No.4, Hong Kong International Airport, Lantau Island",
				"Address_TC" : "大嶼山香港國際機場赤鱲角地段第4號",
				"Address_SC" : "大屿山香港国际机场赤鱲角地段第4号",
				"District_ENG" : "ISLANDS",
				"District_TC" : "離島區",
				"District_SC" : "離岛区",
				"Telephone" : "2188 9532",
				"Northing" : 820403,
				"Easting" : 807774,
				"Latitude" : 22.32242,
				"Longitude" : 113.90031
			}
		},
		{
			"type" : "Feature",
			"geometry" : {
				"type" : "Point",
				"coordinates" : [ 113.8971494717, 22.3046197427 ]
			},
			"properties" : {
				"OBJECTID" : 6,
				"FSDID" : "WSR",
				"Name_ENG" : "West Sea Rescue Berth",
				"Name_TC" : "海上救援西局",
				"Name_SC" : "海上救援西局",
				"Address_ENG" : "1 North Perimeter Road, Hong Kong International Airport, Chek Lap Kok",
				"Address_TC" : "赤鱲角香港國際機場北環路1號",
				"Address_SC" : "赤鱲角香港国际机场北环路1号",
				"District_ENG" : "ISLANDS",
				"District_TC" : "離島區",
				"District_SC" : "離岛区",
				"Telephone" : "2183 5478",
				"Northing" : 818434,
				"Easting" : 807445,
				"Latitude" : 22.30462,
				"Longitude" : 113.89715
			}
		},
		{
			"type" : "Feature",
			"geometry" : {
				"type" : "Point",
				"coordinates" : [ 113.9456087394, 22.3205898138 ]
			},
			"properties" : {
				"OBJECTID" : 7,
				"FSDID" : "ESR",
				"Name_ENG" : "East Sea Rescue Berth",
				"Name_TC" : "海上救援東局",
				"Name_SC" : "海上救援东局",
				"Address_ENG" : "Airport-Expo Boulevard (near Asia World-Expo, Chek Lap Kok)",
				"Address_TC" : "赤鱲角航展道(近亞洲博覽館)",
				"Address_SC" : "赤鱲角航展道(近亚洲博览馆)",
				"District_ENG" : "ISLANDS",
				"District_TC" : "離島區",
				"District_SC" : "離岛区",
				"Telephone" : "2183 7448",
				"Northing" : 820194,
				"Easting" : 812441,
				"Latitude" : 22.32059,
				"Longitude" : 113.94561
			}
		},
		{
			"type" : "Feature",
			"geometry" : {
				"type" : "Point",
				"coordinates" : [ 113.9203472222, 22.3135441284 ]
			},
			"properties" : {
				"OBJECTID" : 8,
				"FSDID" : "AFC2",
				"Name_ENG" : "Airport Central Fire Station ",
				"Name_TC" : "機場中消防局",
				"Name_SC" : "机场中消防局",
				"Address_ENG" : "33 Chung Cheung Road, Hong Kong International Airport, Lantau Island",
				"Address_TC" : "大嶼山香港國際機場中翔路33號",
				"Address_SC" : "大屿山香港国际机场中翔路33号",
				"District_ENG" : "ISLANDS",
				"District_TC" : "離島區",
				"District_SC" : "離岛区",
				"Telephone" : "2183 6207",
				"Northing" : 819418,
				"Easting" : 809837,
				"Latitude" : 22.31354413,
				"Longitude" : 113.92034722
			}
		},
		{
			"type" : "Feature",
			"geometry" : {
				"type" : "Point",
				"coordinates" : [ 114.152224812, 22.2432880296 ]
			},
			"properties" : {
				"OBJECTID" : 9,
				"FSDID" : "ALC",
				"Name_ENG" : "Ap Lei Chau Fire Station ",
				"Name_TC" : "鴨脷洲消防局",
				"Name_SC" : "鸭脷洲消防局",
				"Address_ENG" : "300 Ap Lei Chau Bridge Road, Ap Lei Chau, Hong Kong",
				"Address_TC" : "香港鴨脷洲橋道300號",
				"Address_SC" : "香港鸭脷洲桥道300号",
				"District_ENG" : "SOUTHERN",
				"District_TC" : "南區",
				"District_SC" : "南区",
				"Telephone" : "2814 8836",
				"Northing" : 811616,
				"Easting" : 833727,
				"Latitude" : 22.24328803,
				"Longitude" : 114.15222481
			}
		},
		{
			"type" : "Feature",
			"geometry" : {
				"type" : "Point",
				"coordinates" : [ 114.2017063956, 22.2881342118 ]
			},
			"properties" : {
				"OBJECTID" : 10,
				"FSDID" : "BHL",
				"Name_ENG" : "Braemar Hill Fire Station ",
				"Name_TC" : "寶馬山消防局",
				"Name_SC" : "宝马山消防局",
				"Address_ENG" : "170 Tin Hau Temple Road, North Point, Hong Kong",
				"Address_TC" : "香港北角天后廟道170號",
				"Address_SC" : "香港北角天后庙道170号",
				"District_ENG" : "EASTERN",
				"District_TC" : "東區",
				"District_SC" : "東区",
				"Telephone" : "2571 5063",
				"Northing" : 816582,
				"Easting" : 838827,
				"Latitude" : 22.28813421,
				"Longitude" : 114.2017064
			}
		},
		{
			"type" : "Feature",
			"geometry" : {
				"type" : "Point",
				"coordinates" : [ 114.0241196598, 22.2052532133 ]
			},
			"properties" : {
				"OBJECTID" : 11,
				"FSDID" : "CCP",
				"Name_ENG" : "Cheung Chau Fireboat Station ",
				"Name_TC" : "長洲滅火輪消防局",
				"Name_SC" : "长洲灭火轮消防局",
				"Address_ENG" : "8 Cheung Chau Sai Tai Road, Cheung Chau",
				"Address_TC" : "長洲長洲西堤道8號",
				"Address_SC" : "长洲长洲西堤道8号",
				"District_ENG" : "ISLANDS",
				"District_TC" : "離島區",
				"District_SC" : "離岛区",
				"Telephone" : "2534 7250",
				"Northing" : 807412,
				"Easting" : 820517,
				"Latitude" : 22.20525321,
				"Longitude" : 114.02411966
			}
		},
		{
			"type" : "Feature",
			"geometry" : {
				"type" : "Point",
				"coordinates" : [ 114.0262458065, 22.2122178587 ]
			},
			"properties" : {
				"OBJECTID" : 12,
				"FSDID" : "CCU",
				"Name_ENG" : "Cheung Chau Fire Station ",
				"Name_TC" : "長洲消防局",
				"Name_SC" : "长洲消防局",
				"Address_ENG" : "1 Ping Chong Road, Cheung Chau, Hong Kong",
				"Address_TC" : "長洲冰廠路1號",
				"Address_SC" : "长洲冰厂路1号",
				"District_ENG" : "ISLANDS",
				"District_TC" : "離島區",
				"District_SC" : "離岛区",
				"Telephone" : "2981 9158",
				"Northing" : 808183,
				"Easting" : 820737,
				"Latitude" : 22.21221786,
				"Longitude" : 114.02624581
			}
		},
		{
			"type" : "Feature",
			"geometry" : {
				"type" : "Point",
				"coordinates" : [ 114.1613881571, 22.2782378088 ]
			},
			"properties" : {
				"OBJECTID" : 13,
				"FSDID" : "CEN",
				"Name_ENG" : "Central Fire Station ",
				"Name_TC" : "中區消防局",
				"Name_SC" : "中区消防局",
				"Address_ENG" : "15 Cotton Tree Drive, Admiralty, Hong Kong",
				"Address_TC" : "香港金鐘紅棉路15號",
				"Address_SC" : "香港金钟红棉路15号",
				"District_ENG" : "CENTRAL AND WESTERN",
				"District_TC" : "中西區",
				"District_SC" : "中西区",
				"Telephone" : "2522 0367",
				"Northing" : 815486,
				"Easting" : 834672,
				"Latitude" : 22.27823781,
				"Longitude" : 114.16138816
			}
		},
		{
			"type" : "Feature",
			"geometry" : {
				"type" : "Point",
				"coordinates" : [ 114.1556423559, 22.2885320834 ]
			},
			"properties" : {
				"OBJECTID" : 14,
				"FSDID" : "CGP",
				"Name_ENG" : "Central Fireboat Station ",
				"Name_TC" : "中區滅火輪消防局",
				"Name_SC" : "中区灭火轮消防局",
				"Address_ENG" : "Central Government Pier, 32 Man Fai Street, Central, Hong Kong",
				"Address_TC" : "香港中環民輝街32號中區政府碼頭",
				"Address_SC" : "香港中环民辉街32号中区政府码头",
				"District_ENG" : "CENTRAL AND WESTERN",
				"District_TC" : "中西區",
				"District_SC" : "中西区",
				"Telephone" : "2534 7250",
				"Northing" : 816626,
				"Easting" : 834080,
				"Latitude" : 22.28853208,
				"Longitude" : 114.15564236
			}
		},
		{
			"type" : "Feature",
			"geometry" : {
				"type" : "Point",
				"coordinates" : [ 114.2034305303, 22.2201510834 ]
			},
			"properties" : {
				"OBJECTID" : 15,
				"FSDID" : "CHK",
				"Name_ENG" : "Chung Hom Kok Fire Station ",
				"Name_TC" : "舂坎角消防局",
				"Name_SC" : "舂坎角消防局",
				"Address_ENG" : "37 Chung Hom Kok Road, Chung Hom Kok, Hong Kong",
				"Address_TC" : "香港舂坎角舂坎角道37號",
				"Address_SC" : "香港舂坎角舂坎角道37号",
				"District_ENG" : "SOUTHERN",
				"District_TC" : "南區",
				"District_SC" : "南区",
				"Telephone" : "2813 2496",
				"Northing" : 809054,
				"Easting" : 839006,
				"Latitude" : 22.22015108,
				"Longitude" : 114.20343053
			}
		},
		{
			"type" : "Feature",
			"geometry" : {
				"type" : "Point",
				"coordinates" : [ 113.9305373959, 22.3249474273 ]
			},
			"properties" : {
				"OBJECTID" : 16,
				"FSDID" : "CLN",
				"Name_ENG" : "Chek Lap Kok North Fire Station",
				"Name_TC" : "赤鱲角北消防局",
				"Name_SC" : "赤鱲角北消防局",
				"Address_ENG" : "Hong Kong International Airport, Chek Lap Kok",
				"Address_TC" : "赤鱲角香港國際機場",
				"Address_SC" : "赤鱲角香港国际机场",
				"District_ENG" : "ISLANDS",
				"District_TC" : "離島區",
				"District_SC" : "離岛区",
				"Telephone" : "2183 9934",
				"Northing" : 820679,
				"Easting" : 810889,
				"Latitude" : 22.32495,
				"Longitude" : 113.93054
			}
		},
		{
			"type" : "Feature",
			"geometry" : {
				"type" : "Point",
				"coordinates" : [ 113.9339387257, 22.300118566 ]
			},
			"properties" : {
				"OBJECTID" : 17,
				"FSDID" : "CLK",
				"Name_ENG" : "Chek Lap Kok South Fire Station ",
				"Name_TC" : "赤鱲角南消防局",
				"Name_SC" : "赤鱲角南消防局",
				"Address_ENG" : "10 Catering Road East, Chek Lap Kok, Lantau",
				"Address_TC" : "赤鱲角航膳東路10號",
				"Address_SC" : "赤鱲角航膳东路10号",
				"District_ENG" : "ISLANDS",
				"District_TC" : "離島區",
				"District_SC" : "離岛区",
				"Telephone" : "2949 9081",
				"Northing" : 817929,
				"Easting" : 811235,
				"Latitude" : 22.30011857,
				"Longitude" : 113.93393873
			}
		},
		{
			"type" : "Feature",
			"geometry" : {
				"type" : "Point",
				"coordinates" : [ 113.9698593567, 22.3829150801 ]
			},
			"properties" : {
				"OBJECTID" : 18,
				"FSDID" : "CPB",
				"Name_ENG" : "Castle Peak Bay Fire Station ",
				"Name_TC" : "青山灣消防局",
				"Name_SC" : "青山湾消防局",
				"Address_ENG" : "6 Tuen Yee Street, Tuen Mun, New Territories",
				"Address_TC" : "新界屯門屯義街6號",
				"Address_SC" : "新界屯门屯义街6号",
				"District_ENG" : "TUEN MUN",
				"District_TC" : "屯門區",
				"District_SC" : "屯门区",
				"Telephone" : "2451 5101",
				"Northing" : 827092,
				"Easting" : 814949,
				"Latitude" : 22.38291508,
				"Longitude" : 113.96985936
			}
		},
		{
			"type" : "Feature",
			"geometry" : {
				"type" : "Point",
				"coordinates" : [ 113.9556600932, 22.2367818958 ]
			},
			"properties" : {
				"OBJECTID" : 19,
				"FSDID" : "CSA",
				"Name_ENG" : "Cheung Sha Fire Station ",
				"Name_TC" : "長沙消防局",
				"Name_SC" : "长沙消防局",
				"Address_ENG" : "33 South Lantau Road, Lantau Island",
				"Address_TC" : "大嶼山嶼南道33號",
				"Address_SC" : "大屿山屿南道33号",
				"District_ENG" : "ISLANDS",
				"District_TC" : "離島區",
				"District_SC" : "離岛区",
				"Telephone" : "2980 2254",
				"Northing" : 810912,
				"Easting" : 813463,
				"Latitude" : 22.2367819,
				"Longitude" : 113.95566009
			}
		},
		{
			"type" : "Feature",
			"geometry" : {
				"type" : "Point",
				"coordinates" : [ 114.1551207225, 22.3359517048 ]
			},
			"properties" : {
				"OBJECTID" : 20,
				"FSDID" : "CSW",
				"Name_ENG" : "Cheung Sha Wan Fire Station ",
				"Name_TC" : "長沙灣消防局",
				"Name_SC" : "长沙湾消防局",
				"Address_ENG" : "429 Cheung Sha Wan Road, Cheung Sha Wan, Kowloon",
				"Address_TC" : "九龍長沙灣道429號",
				"Address_SC" : "九龙长沙湾道429号",
				"District_ENG" : "SHAM SHUI PO",
				"District_TC" : "深水埗區",
				"District_SC" : "深水埗区",
				"Telephone" : "2729 5807",
				"Northing" : 821877,
				"Easting" : 834027,
				"Latitude" : 22.33595171,
				"Longitude" : 114.15512072
			}
		},
		{
			"type" : "Feature",
			"geometry" : {
				"type" : "Point",
				"coordinates" : [ 114.2434228469, 22.267189442 ]
			},
			"properties" : {
				"OBJECTID" : 21,
				"FSDID" : "CWN",
				"Name_ENG" : "Chai Wan Fire Station ",
				"Name_TC" : "柴灣消防局",
				"Name_SC" : "柴湾消防局",
				"Address_ENG" : "80 Sheung On Street, Chai Wan, Hong Kong",
				"Address_TC" : "香港柴灣常安街80號",
				"Address_SC" : "香港柴湾常安街80号",
				"District_ENG" : "EASTERN",
				"District_TC" : "東區",
				"District_SC" : "東区",
				"Telephone" : "2558 7178",
				"Northing" : 814264,
				"Easting" : 843127,
				"Latitude" : 22.26718944,
				"Longitude" : 114.24342285
			}
		},
		{
			"type" : "Feature",
			"geometry" : {
				"type" : "Point",
				"coordinates" : [ 114.0165894315, 22.2945048762 ]
			},
			"properties" : {
				"OBJECTID" : 22,
				"FSDID" : "DBY",
				"Name_ENG" : "Discovery Bay Fire Station ",
				"Name_TC" : "愉景灣消防局",
				"Name_SC" : "愉景湾消防局",
				"Address_ENG" : "1 Discovery Bay Road, Lantau Island",
				"Address_TC" : "大嶼山愉景灣道1號",
				"Address_SC" : "大屿山愉景湾道1号",
				"District_ENG" : "ISLANDS",
				"District_TC" : "離島區",
				"District_SC" : "離岛区",
				"Telephone" : "2987 7502",
				"Northing" : 817296,
				"Easting" : 819751,
				"Latitude" : 22.29450488,
				"Longitude" : 114.01658943
			}
		},
		{
			"type" : "Feature",
			"geometry" : {
				"type" : "Point",
				"coordinates" : [ 114.140227374, 22.4942715159 ]
			},
			"properties" : {
				"OBJECTID" : 23,
				"FSDID" : "FLG",
				"Name_ENG" : "Fanling Fire Station ",
				"Name_TC" : "粉嶺消防局",
				"Name_SC" : "粉岭消防局",
				"Address_ENG" : "2 Sha Tau Kok Road - Lung Yeuk Tau, Fanling, New Territories",
				"Address_TC" : "新界粉嶺沙頭角公路-龍躍頭段2號",
				"Address_SC" : "新界粉岭沙头角公路-龙跃头段2号",
				"District_ENG" : "NORTH",
				"District_TC" : "北區",
				"District_SC" : "北区",
				"Telephone" : "2669 5511",
				"Northing" : 839409,
				"Easting" : 832497,
				"Latitude" : 22.49427152,
				"Longitude" : 114.14022737
			}
		},
		{
			"type" : "Feature",
			"geometry" : {
				"type" : "Point",
				"coordinates" : [ 113.9797439625, 22.4108315746 ]
			},
			"properties" : {
				"OBJECTID" : 24,
				"FSDID" : "FTI",
				"Name_ENG" : "Fu Tei Fire Station ",
				"Name_TC" : "虎地消防局",
				"Name_SC" : "虎地消防局",
				"Address_ENG" : "21 Tuen Fu Road, Tuen Mun, New Territories",
				"Address_TC" : "新界屯門屯富路21號",
				"Address_SC" : "新界屯门屯富路21号",
				"District_ENG" : "TUEN MUN",
				"District_TC" : "屯門區",
				"District_SC" : "屯门区",
				"Telephone" : "2469 4710",
				"Northing" : 830182,
				"Easting" : 815971,
				"Latitude" : 22.41083158,
				"Longitude" : 113.97974396
			}
		},
		{
			"type" : "Feature",
			"geometry" : {
				"type" : "Point",
				"coordinates" : [ 114.1867154856, 22.3090868497 ]
			},
			"properties" : {
				"OBJECTID" : 25,
				"FSDID" : "HHM",
				"Name_ENG" : "Hung Hom Fire Station ",
				"Name_TC" : "紅磡消防局",
				"Name_SC" : "红磡消防局",
				"Address_ENG" : "30 Fat Kwong Street, Hung Hom, Kowloon",
				"Address_TC" : "九龍紅磡佛光街30號",
				"Address_SC" : "九龙红磡佛光街30号",
				"District_ENG" : "KOWLOON CITY",
				"District_TC" : "九龍城區",
				"District_SC" : "九龙城区",
				"Telephone" : "2363 0207",
				"Northing" : 818902,
				"Easting" : 837282,
				"Latitude" : 22.30908685,
				"Longitude" : 114.18671549
			}
		},
		{
			"type" : "Feature",
			"geometry" : {
				"type" : "Point",
				"coordinates" : [ 114.1549897915, 22.5523033313 ]
			},
			"properties" : {
				"OBJECTID" : 26,
				"FSDID" : "HYW",
				"Name_ENG" : "Heung Yuen Wai Fire Station ",
				"Name_TC" : "香園圍消防局",
				"Name_SC" : "香园围消防局",
				"Address_ENG" : "199 Lin Ma Hang Road, Ta Kwu Ling, New Territories",
				"Address_TC" : "新界打鼓嶺蓮麻坑路199號",
				"Address_SC" : "新界打鼓岭莲麻坑路199号",
				"District_ENG" : "NORTH",
				"District_TC" : "北區",
				"District_SC" : "北区",
				"Telephone" : "2986 3067",
				"Northing" : 845835,
				"Easting" : 834017,
				"Latitude" : 22.55230553,
				"Longitude" : 114.15499111
			}
		},
		{
			"type" : "Feature",
			"geometry" : {
				"type" : "Point",
				"coordinates" : [ 113.9560528175, 22.31414753 ]
			},
			"properties" : {
				"OBJECTID" : 27,
				"FSDID" : "HZM",
				"Name_ENG" : "Hong Kong-Zhuhai-Macao Bridge Fire Station ",
				"Name_TC" : "港珠澳大橋消防局",
				"Name_SC" : "港珠澳大桥消防局",
				"Address_ENG" : "10 Shun Ngon Road, Hong Kong-Zhuhai-Macao Bridge Hong Kong Port, New Territories",
				"Address_TC" : "新界港珠澳大橋香港口岸順岸路10號",
				"Address_SC" : "新界港珠澳大桥香港口岸顺岸路10号",
				"District_ENG" : "ISLANDS",
				"District_TC" : "離島區",
				"District_SC" : "離岛区",
				"Telephone" : "2516 0200",
				"Northing" : 819479,
				"Easting" : 813516,
				"Latitude" : 22.31414301,
				"Longitude" : 113.95605185
			}
		},
		{
			"type" : "Feature",
			"geometry" : {
				"type" : "Point",
				"coordinates" : [ 114.2057118101, 22.324346288 ]
			},
			"properties" : {
				"OBJECTID" : 28,
				"FSDID" : "KBY",
				"Name_ENG" : "Kowloon Bay Fire Station ",
				"Name_TC" : "九龍灣消防局",
				"Name_SC" : "九龙湾消防局",
				"Address_ENG" : "5 Lam Hing Street, Kowloon Bay, Kowloon",
				"Address_TC" : "九龍九龍灣臨興街5號",
				"Address_SC" : "九龙九龙湾临兴街5号",
				"District_ENG" : "KWUN TONG",
				"District_TC" : "觀塘區",
				"District_SC" : "观塘区",
				"Telephone" : "2799 1522",
				"Northing" : 820592,
				"Easting" : 839239,
				"Latitude" : 22.32434629,
				"Longitude" : 114.20571181
			}
		},
		{
			"type" : "Feature",
			"geometry" : {
				"type" : "Point",
				"coordinates" : [ 114.128329902, 22.3616649338 ]
			},
			"properties" : {
				"OBJECTID" : 29,
				"FSDID" : "KCG",
				"Name_ENG" : "Kwai Chung Fire Station ",
				"Name_TC" : "葵涌消防局",
				"Name_SC" : "葵涌消防局",
				"Address_ENG" : "77-79 Hing Shing Road, Kwai Chung, New Territories",
				"Address_TC" : "新界葵涌興盛路77-79號",
				"Address_SC" : "新界葵涌兴盛路77-79号",
				"District_ENG" : "KWAI TSING",
				"District_TC" : "葵青區",
				"District_SC" : "葵青区",
				"Telephone" : "2426 5694",
				"Northing" : 824725,
				"Easting" : 831268,
				"Latitude" : 22.36166493,
				"Longitude" : 114.1283299
			}
		},
		{
			"type" : "Feature",
			"geometry" : {
				"type" : "Point",
				"coordinates" : [ 114.1826306308, 22.3346887746 ]
			},
			"properties" : {
				"OBJECTID" : 30,
				"FSDID" : "KLT",
				"Name_ENG" : "Kowloon Tong Fire Station ",
				"Name_TC" : "九龍塘消防局",
				"Name_SC" : "九龙塘消防局",
				"Address_ENG" : "3 Baptist University Road, Kowloon Tong, Kowloon",
				"Address_TC" : "九龍九龍塘浸會大學道3號",
				"Address_SC" : "九龙九龙塘浸会大学道3号",
				"District_ENG" : "KOWLOON CITY",
				"District_TC" : "九龍城區",
				"District_SC" : "九龙城区",
				"Telephone" : "3793 6411",
				"Northing" : 821737,
				"Easting" : 836861,
				"Latitude" : 22.33468878,
				"Longitude" : 114.18263063
			}
		},
		{
			"type" : "Feature",
			"geometry" : {
				"type" : "Point",
				"coordinates" : [ 114.1383331056, 22.2797962803 ]
			},
			"properties" : {
				"OBJECTID" : 31,
				"FSDID" : "KOT",
				"Name_ENG" : "Kotewall Fire Station ",
				"Name_TC" : "旭龢消防局",
				"Name_SC" : "旭龢消防局",
				"Address_ENG" : "60 Kotewall Road, Mid-Levels, Hong Kong",
				"Address_TC" : "香港半山旭龢道60號",
				"Address_SC" : "香港半山旭龢道60号",
				"District_ENG" : "CENTRAL AND WESTERN",
				"District_TC" : "中西區",
				"District_SC" : "中西区",
				"Telephone" : "2858 4803",
				"Northing" : 815659,
				"Easting" : 832296,
				"Latitude" : 22.27979628,
				"Longitude" : 114.13833311
			}
		},
		{
			"type" : "Feature",
			"geometry" : {
				"type" : "Point",
				"coordinates" : [ 114.225954878, 22.3120778717 ]
			},
			"properties" : {
				"OBJECTID" : 32,
				"FSDID" : "KTG",
				"Name_ENG" : "Kwun Tong Fire Station ",
				"Name_TC" : "觀塘消防局",
				"Name_SC" : "观塘消防局",
				"Address_ENG" : "426 Kwun Tong Road, Kwun Tong, Kowloon",
				"Address_TC" : "九龍觀塘道426號",
				"Address_SC" : "九龙观塘道426号",
				"District_ENG" : "KWUN TONG",
				"District_TC" : "觀塘區",
				"District_SC" : "观塘区",
				"Telephone" : "2342 4612",
				"Northing" : 819234,
				"Easting" : 841325,
				"Latitude" : 22.31207787,
				"Longitude" : 114.22595488
			}
		},
		{
			"type" : "Feature",
			"geometry" : {
				"type" : "Point",
				"coordinates" : [ 114.2112327612, 22.3164344115 ]
			},
			"properties" : {
				"OBJECTID" : 33,
				"FSDID" : "KTK",
				"Name_ENG" : "Kai Tak Fire Station ",
				"Name_TC" : "啟德消防局",
				"Name_SC" : "启德消防局",
				"Address_ENG" : "5 Cheung Yip Street, Kowloon",
				"Address_TC" : "九龍祥業街5號",
				"Address_SC" : "九龙祥业街5号",
				"District_ENG" : "KWUN TONG",
				"District_TC" : "觀塘區",
				"District_SC" : "观塘区",
				"Telephone" : "2759 6308",
				"Northing" : 819716,
				"Easting" : 839808,
				"Latitude" : 22.31643441,
				"Longitude" : 114.21123276
			}
		},
		{
			"type" : "Feature",
			"geometry" : {
				"type" : "Point",
				"coordinates" : [ 114.1280753886, 22.2838392483 ]
			},
			"properties" : {
				"OBJECTID" : 34,
				"FSDID" : "KTN",
				"Name_ENG" : "Kennedy Town Fire Station ",
				"Name_TC" : "堅尼地城消防局",
				"Name_SC" : "坚尼地城消防局",
				"Address_ENG" : "6 New Praya street, Kennedy Town, Hong Kong",
				"Address_TC" : "香港堅尼地城新海旁6號",
				"Address_SC" : "香港坚尼地城新海旁6号",
				"District_ENG" : "CENTRAL AND WESTERN",
				"District_TC" : "中西區",
				"District_SC" : "中西区",
				"Telephone" : "2818 7046",
				"Northing" : 816107,
				"Easting" : 831239,
				"Latitude" : 22.28383925,
				"Longitude" : 114.12807539
			}
		},
		{
			"type" : "Feature",
			"geometry" : {
				"type" : "Point",
				"coordinates" : [ 114.1729736286, 22.2804510035 ]
			},
			"properties" : {
				"OBJECTID" : 35,
				"FSDID" : "KWN",
				"Name_ENG" : "Kong Wan Fire Station ",
				"Name_TC" : "港灣消防局",
				"Name_SC" : "港湾消防局",
				"Address_ENG" : "14 Harbour Road, Wan Chai, Hong Kong",
				"Address_TC" : "香港灣仔港灣道14號",
				"Address_SC" : "香港湾仔港湾道14号",
				"District_ENG" : "WAN CHAI",
				"District_TC" : "灣仔區",
				"District_SC" : "湾仔区",
				"Telephone" : "2802 0947",
				"Northing" : 815731,
				"Easting" : 835866,
				"Latitude" : 22.280451,
				"Longitude" : 114.17297363
			}
		},
		{
			"type" : "Feature",
			"geometry" : {
				"type" : "Point",
				"coordinates" : [ 114.1150206031, 22.2256502472 ]
			},
			"properties" : {
				"OBJECTID" : 36,
				"FSDID" : "LAM",
				"Name_ENG" : "Lamma Fire Station ",
				"Name_TC" : "南丫島消防局",
				"Name_SC" : "南丫岛消防局",
				"Address_ENG" : "30 Yung Shue Long Old Village, Lamma Island",
				"Address_TC" : "南丫島榕樹塱舊村30號",
				"Address_SC" : "南丫岛榕树塱旧村30号",
				"District_ENG" : "ISLANDS",
				"District_TC" : "離島區",
				"District_SC" : "離岛区",
				"Telephone" : "2982 0139",
				"Northing" : 809664,
				"Easting" : 829891,
				"Latitude" : 22.22565025,
				"Longitude" : 114.1150206
			}
		},
		{
			"type" : "Feature",
			"geometry" : {
				"type" : "Point",
				"coordinates" : [ 114.1431226662, 22.3362205705 ]
			},
			"properties" : {
				"OBJECTID" : 37,
				"FSDID" : "LCK",
				"Name_ENG" : "Lai Chi Kok Fire Station ",
				"Name_TC" : "荔枝角消防局",
				"Name_SC" : "荔枝角消防局",
				"Address_ENG" : "4 Po Lun Street, Kowloon",
				"Address_TC" : "九龍寶輪街4號",
				"Address_SC" : "九龙宝轮街4号",
				"District_ENG" : "SHAM SHUI PO",
				"District_TC" : "深水埗區",
				"District_SC" : "深水埗区",
				"Telephone" : "2742 4221",
				"Northing" : 821907,
				"Easting" : 832791,
				"Latitude" : 22.33622057,
				"Longitude" : 114.14312267
			}
		},
		{
			"type" : "Feature",
			"geometry" : {
				"type" : "Point",
				"coordinates" : [ 114.0024045111, 22.4715330686 ]
			},
			"properties" : {
				"OBJECTID" : 38,
				"FSDID" : "LFS",
				"Name_ENG" : "Lau Fau Shan Fire Station ",
				"Name_TC" : "流浮山消防局",
				"Name_SC" : "流浮山消防局",
				"Address_ENG" : "101 Tin Shui Road, Tin Shui Wai, New Territories",
				"Address_TC" : "新界天水圍天瑞路101號",
				"Address_SC" : "新界天水围天瑞路101号",
				"District_ENG" : "YUEN LONG",
				"District_TC" : "元朗區",
				"District_SC" : "元朗区",
				"Telephone" : "2146 2672",
				"Northing" : 836901,
				"Easting" : 818312,
				"Latitude" : 22.47153307,
				"Longitude" : 114.00240451
			}
		},
		{
			"type" : "Feature",
			"geometry" : {
				"type" : "Point",
				"coordinates" : [ 114.1319261052, 22.3494566647 ]
			},
			"properties" : {
				"OBJECTID" : 39,
				"FSDID" : "LKG",
				"Name_ENG" : "Lai King Fire Station ",
				"Name_TC" : "荔景消防局",
				"Name_SC" : "荔景消防局",
				"Address_ENG" : "6 Wa Tai Road, Kwai Chung, New Territories",
				"Address_TC" : "新界葵涌華泰路6號",
				"Address_SC" : "新界葵涌华泰路6号",
				"District_ENG" : "KWAI TSING",
				"District_TC" : "葵青區",
				"District_SC" : "葵青区",
				"Telephone" : "2743 2380",
				"Northing" : 823373,
				"Easting" : 831638,
				"Latitude" : 22.34945667,
				"Longitude" : 114.13192611
			}
		},
		{
			"type" : "Feature",
			"geometry" : {
				"type" : "Point",
				"coordinates" : [ 114.1365981051, 22.3747976027 ]
			},
			"properties" : {
				"OBJECTID" : 40,
				"FSDID" : "LMS",
				"Name_ENG" : "Lei Muk Shue Fire Station ",
				"Name_TC" : "梨木樹消防局",
				"Name_SC" : "梨木树消防局",
				"Address_ENG" : "300 Wo Yi Hop Road, Kwai Chung, New Territories",
				"Address_TC" : "新界葵涌和宜合道300號",
				"Address_SC" : "新界葵涌和宜合道300号",
				"District_ENG" : "KWAI TSING",
				"District_TC" : "葵青區",
				"District_SC" : "葵青区",
				"Telephone" : "2421 2428",
				"Northing" : 826179,
				"Easting" : 832120,
				"Latitude" : 22.3747976,
				"Longitude" : 114.13659811
			}
		},
		{
			"type" : "Feature",
			"geometry" : {
				"type" : "Point",
				"coordinates" : [ 114.2348643621, 22.3117678879 ]
			},
			"properties" : {
				"OBJECTID" : 41,
				"FSDID" : "LTN",
				"Name_ENG" : "Lam Tin Fire Station ",
				"Name_TC" : "藍田消防局",
				"Name_SC" : "蓝田消防局",
				"Address_ENG" : "125 Kai Tin Road, Lam Tin, Kowloon",
				"Address_TC" : "九龍藍田啟田道125號",
				"Address_SC" : "九龙蓝田启田道125号",
				"District_ENG" : "KWUN TONG",
				"District_TC" : "觀塘區",
				"District_SC" : "观塘区",
				"Telephone" : "2772 5313",
				"Northing" : 819200,
				"Easting" : 842243,
				"Latitude" : 22.31176789,
				"Longitude" : 114.23486436
			}
		},
		{
			"type" : "Feature",
			"geometry" : {
				"type" : "Point",
				"coordinates" : [ 114.1648482816, 22.3238788272 ]
			},
			"properties" : {
				"OBJECTID" : 42,
				"FSDID" : "MKK",
				"Name_ENG" : "Mongkok Fire Station ",
				"Name_TC" : "旺角消防局",
				"Name_SC" : "旺角消防局",
				"Address_ENG" : "181 Tong Mei Road, Kowloon",
				"Address_TC" : "九龍塘尾道181號",
				"Address_SC" : "九龙塘尾道181号",
				"District_ENG" : "YAU TSIM MONG",
				"District_TC" : "油尖旺區",
				"District_SC" : "油尖旺区",
				"Telephone" : "2396 6409",
				"Northing" : 820540,
				"Easting" : 835029,
				"Latitude" : 22.32387883,
				"Longitude" : 114.16484828
			}
		},
		{
			"type" : "Feature",
			"geometry" : {
				"type" : "Point",
				"coordinates" : [ 114.2329080517, 22.4192229761 ]
			},
			"properties" : {
				"OBJECTID" : 43,
				"FSDID" : "MOS",
				"Name_ENG" : "Ma On Shan Fire Station ",
				"Name_TC" : "馬鞍山消防局",
				"Name_SC" : "马鞍山消防局",
				"Address_ENG" : "1 On Shan Lane, Ma On Shan, New Territories",
				"Address_TC" : "新界馬鞍山鞍山里1號",
				"Address_SC" : "新界马鞍山鞍山里1号",
				"District_ENG" : "SHA TIN",
				"District_TC" : "沙田區",
				"District_SC" : "沙田区",
				"Telephone" : "2640 3222",
				"Northing" : 831099,
				"Easting" : 842037,
				"Latitude" : 22.41922298,
				"Longitude" : 114.23290805
			}
		},
		{
			"type" : "Feature",
			"geometry" : {
				"type" : "Point",
				"coordinates" : [ 114.0474146225, 22.4785017896 ]
			},
			"properties" : {
				"OBJECTID" : 44,
				"FSDID" : "MPO",
				"Name_ENG" : "Mai Po Fire Station ",
				"Name_TC" : "米埔消防局",
				"Name_SC" : "米埔消防局",
				"Address_ENG" : "31 Golden Bamboo Road North, Fairview Park, New Territories",
				"Address_TC" : "新界錦繡花園金竹北路31號",
				"Address_SC" : "新界锦绣花园金竹北路31号",
				"District_ENG" : "YUEN LONG",
				"District_TC" : "元朗區",
				"District_SC" : "元朗区",
				"Telephone" : "2488 7282",
				"Northing" : 837668,
				"Easting" : 822945,
				"Latitude" : 22.47850179,
				"Longitude" : 114.04741462
			}
		},
		{
			"type" : "Feature",
			"geometry" : {
				"type" : "Point",
				"coordinates" : [ 114.1884734251, 22.3246193602 ]
			},
			"properties" : {
				"OBJECTID" : 45,
				"FSDID" : "MTC",
				"Name_ENG" : "Ma Tau Chung Fire Station ",
				"Name_TC" : "馬頭涌消防局",
				"Name_SC" : "马头涌消防局",
				"Address_ENG" : "109 Ma Tau Chung Road, Ma Tau Wai, Kowloon",
				"Address_TC" : "九龍馬頭涌馬頭涌道109號",
				"Address_SC" : "九龙马头涌马头涌道109号",
				"District_ENG" : "KOWLOON CITY",
				"District_TC" : "九龍城區",
				"District_SC" : "九龙城区",
				"Telephone" : "2711 0292",
				"Northing" : 820622,
				"Easting" : 837463,
				"Latitude" : 22.32461936,
				"Longitude" : 114.18847343
			}
		},
		{
			"type" : "Feature",
			"geometry" : {
				"type" : "Point",
				"coordinates" : [ 114.0600104627, 22.3476236821 ]
			},
			"properties" : {
				"OBJECTID" : 46,
				"FSDID" : "MWN",
				"Name_ENG" : "Ma Wan Fire Station ",
				"Name_TC" : "馬灣消防局",
				"Name_SC" : "马湾消防局",
				"Address_ENG" : "36 Pak Yan Road, Ma Wan Island, New Territories",
				"Address_TC" : "新界馬灣島珀欣路36號",
				"Address_SC" : "新界马湾岛珀欣路36号",
				"District_ENG" : "TSUEN WAN",
				"District_TC" : "荃灣區",
				"District_SC" : "荃湾区",
				"Telephone" : "2986 3289",
				"Northing" : 823174,
				"Easting" : 824230,
				"Latitude" : 22.34762368,
				"Longitude" : 114.06001046
			}
		},
		{
			"type" : "Feature",
			"geometry" : {
				"type" : "Point",
				"coordinates" : [ 113.9959377517, 22.2651878873 ]
			},
			"properties" : {
				"OBJECTID" : 47,
				"FSDID" : "MWO",
				"Name_ENG" : "Mui Wo Fire Station ",
				"Name_TC" : "梅窩消防局",
				"Name_SC" : "梅窝消防局",
				"Address_ENG" : "12 Ngan Kwong Wan Road, Mui Wo, Lantau Island",
				"Address_TC" : "大嶼山梅窩銀礦灣道12號",
				"Address_SC" : "大屿山梅窝银矿湾道12号",
				"District_ENG" : "ISLANDS",
				"District_TC" : "離島區",
				"District_SC" : "離岛区",
				"Telephone" : "2984 1570",
				"Northing" : 814052,
				"Easting" : 817619,
				"Latitude" : 22.26518789,
				"Longitude" : 113.99593775
			}
		},
		{
			"type" : "Feature",
			"geometry" : {
				"type" : "Point",
				"coordinates" : [ 114.208509562, 22.3346857822 ]
			},
			"properties" : {
				"OBJECTID" : 48,
				"FSDID" : "NCW",
				"Name_ENG" : "Ngau Chi Wan Fire Station ",
				"Name_TC" : "牛池灣消防局",
				"Name_SC" : "牛池湾消防局",
				"Address_ENG" : "1 Clear Water Bay Road, Ngau Chi Wan, Kowloon",
				"Address_TC" : "九龍牛池灣清水灣道1號",
				"Address_SC" : "九龙牛池湾清水湾道1号",
				"District_ENG" : "WONG TAI SIN",
				"District_TC" : "黃大仙區",
				"District_SC" : "黃大仙区",
				"Telephone" : "2320 0292",
				"Northing" : 821737,
				"Easting" : 839527,
				"Latitude" : 22.33468578,
				"Longitude" : 114.20850956
			}
		},
		{
			"type" : "Feature",
			"geometry" : {
				"type" : "Point",
				"coordinates" : [ 114.2079372035, 22.2924858989 ]
			},
			"properties" : {
				"OBJECTID" : 49,
				"FSDID" : "NPP",
				"Name_ENG" : "North Point Fireboat Base",
				"Name_TC" : "北角滅火輪基地",
				"Name_SC" : "北角灭火轮基地",
				"Address_ENG" : "38 Healthy Street East, North Point, Hong Kong",
				"Address_TC" : "香港北角健康東街38號",
				"Address_SC" : "香港北角健康东街38号",
				"District_ENG" : "EASTERN",
				"District_TC" : "東區",
				"District_SC" : "東区",
				"Telephone" : "2534 7250",
				"Northing" : 817064,
				"Easting" : 839469,
				"Latitude" : 22.2924859,
				"Longitude" : 114.2079372
			}
		},
		{
			"type" : "Feature",
			"geometry" : {
				"type" : "Point",
				"coordinates" : [ 114.2075781752, 22.2925943348 ]
			},
			"properties" : {
				"OBJECTID" : 50,
				"FSDID" : "NPT",
				"Name_ENG" : "North Point Fire Station ",
				"Name_TC" : "北角消防局",
				"Name_SC" : "北角消防局",
				"Address_ENG" : "38 Healthy Street East, North Point, Hong Kong",
				"Address_TC" : "香港北角健康東街38號",
				"Address_SC" : "香港北角健康东街38号",
				"District_ENG" : "EASTERN",
				"District_TC" : "東區",
				"District_SC" : "東区",
				"Telephone" : "2561 5260",
				"Northing" : 817076,
				"Easting" : 839432,
				"Latitude" : 22.29259434,
				"Longitude" : 114.20757818
			}
		},
		{
			"type" : "Feature",
			"geometry" : {
				"type" : "Point",
				"coordinates" : [ 114.0396048763, 22.3174185155 ]
			},
			"properties" : {
				"OBJECTID" : 51,
				"FSDID" : "PBY",
				"Name_ENG" : "Penny's Bay Fire Station ",
				"Name_TC" : "竹篙灣消防局",
				"Name_SC" : "竹篙湾消防局",
				"Address_ENG" : "8 Long Yan Road, North Lantau Island, New Territories",
				"Address_TC" : "新界北大嶼山朗欣路8號",
				"Address_SC" : "新界北大屿山朗欣路8号",
				"District_ENG" : "TSUEN WAN",
				"District_TC" : "荃灣區",
				"District_SC" : "荃湾区",
				"Telephone" : "2983 6451",
				"Northing" : 819831,
				"Easting" : 822125,
				"Latitude" : 22.31741852,
				"Longitude" : 114.03960488
			}
		},
		{
			"type" : "Feature",
			"geometry" : {
				"type" : "Point",
				"coordinates" : [ 114.0370934959, 22.2857099537 ]
			},
			"properties" : {
				"OBJECTID" : 52,
				"FSDID" : "PCU",
				"Name_ENG" : "Peng Chau Fire Station ",
				"Name_TC" : "坪洲消防局",
				"Name_SC" : "坪洲消防局",
				"Address_ENG" : "16 Po Peng Street, Peng Chau",
				"Address_TC" : "坪洲寶坪街16號",
				"Address_SC" : "坪洲宝坪街16号",
				"District_ENG" : "ISLANDS",
				"District_TC" : "離島區",
				"District_SC" : "離岛区",
				"Telephone" : "2983 2179",
				"Northing" : 816320,
				"Easting" : 821863,
				"Latitude" : 22.28570995,
				"Longitude" : 114.0370935
			}
		},
		{
			"type" : "Feature",
			"geometry" : {
				"type" : "Point",
				"coordinates" : [ 114.1391746848, 22.2532553928 ]
			},
			"properties" : {
				"OBJECTID" : 53,
				"FSDID" : "PFL",
				"Name_ENG" : "Pok Fu Lam Fire Station ",
				"Name_TC" : "薄扶林消防局",
				"Name_SC" : "薄扶林消防局",
				"Address_ENG" : "789 Pok Fu Lam Road, Hong Kong",
				"Address_TC" : "香港薄扶林道789號",
				"Address_SC" : "香港薄扶林道789号",
				"District_ENG" : "SOUTHERN",
				"District_TC" : "南區",
				"District_SC" : "南区",
				"Telephone" : "2551 8301",
				"Northing" : 812720,
				"Easting" : 832382,
				"Latitude" : 22.25325539,
				"Longitude" : 114.13917469
			}
		},
		{
			"type" : "Feature",
			"geometry" : {
				"type" : "Point",
				"coordinates" : [ 114.0900373457, 22.4409908688 ]
			},
			"properties" : {
				"OBJECTID" : 54,
				"FSDID" : "PHG",
				"Name_ENG" : "Pat Heung Fire Station ",
				"Name_TC" : "八鄉消防局",
				"Name_SC" : "八乡消防局",
				"Address_ENG" : "4A Yau Uk Tsuen, Pat Heung, Yuen Long, New Territories",
				"Address_TC" : "新界元朗錦田公路邱屋村4號A",
				"Address_SC" : "新界元朗锦田公路邱屋村4号A",
				"District_ENG" : "YUEN LONG",
				"District_TC" : "元朗區",
				"District_SC" : "元朗区",
				"Telephone" : "2488 7282",
				"Northing" : 833511,
				"Easting" : 827329,
				"Latitude" : 22.44099087,
				"Longitude" : 114.09003735
			}
		},
		{
			"type" : "Feature",
			"geometry" : {
				"type" : "Point",
				"coordinates" : [ 114.2531189716, 22.3272026358 ]
			},
			"properties" : {
				"OBJECTID" : 55,
				"FSDID" : "PLM",
				"Name_ENG" : "Po Lam Fire Station ",
				"Name_TC" : "寶林消防局",
				"Name_SC" : "宝林消防局",
				"Address_ENG" : "15 Po Lam Road North, New Territories",
				"Address_TC" : "新界寶琳北路15號",
				"Address_SC" : "新界宝琳北路15号",
				"District_ENG" : "SAI KUNG",
				"District_TC" : "西貢區",
				"District_SC" : "西贡区",
				"Telephone" : "2701 0989",
				"Northing" : 820910,
				"Easting" : 844123,
				"Latitude" : 22.32720264,
				"Longitude" : 114.25311897
			}
		},
		{
			"type" : "Feature",
			"geometry" : {
				"type" : "Point",
				"coordinates" : [ 113.9471057848, 22.3665662925 ]
			},
			"properties" : {
				"OBJECTID" : 56,
				"FSDID" : "PPT",
				"Name_ENG" : "Pillar Point Fire Station ",
				"Name_TC" : "望后石消防局",
				"Name_SC" : "望后石消防局",
				"Address_ENG" : "3 Ho Wan Street, Tuen Mun, New Territories",
				"Address_TC" : "新界屯門浩運街3號",
				"Address_SC" : "新界屯门浩运街3号",
				"District_ENG" : "TUEN MUN",
				"District_TC" : "屯門區",
				"District_SC" : "屯门区",
				"Telephone" : "2404 0766",
				"Northing" : 825285,
				"Easting" : 812603,
				"Latitude" : 22.36656629,
				"Longitude" : 113.94710579
			}
		},
		{
			"type" : "Feature",
			"geometry" : {
				"type" : "Point",
				"coordinates" : [ 114.1270813215, 22.2685861963 ]
			},
			"properties" : {
				"OBJECTID" : 57,
				"FSDID" : "SBY",
				"Name_ENG" : "Sandy Bay Fire Station ",
				"Name_TC" : "沙灣消防局",
				"Name_SC" : "沙湾消防局",
				"Address_ENG" : "313 Victoria Road, Hong Kong",
				"Address_TC" : "香港域多利道313號",
				"Address_SC" : "香港域多利道313号",
				"District_ENG" : "SOUTHERN",
				"District_TC" : "南區",
				"District_SC" : "南区",
				"Telephone" : "2904 9672",
				"Northing" : 814418,
				"Easting" : 831136,
				"Latitude" : 22.2685862,
				"Longitude" : 114.12708132
			}
		},
		{
			"type" : "Feature",
			"geometry" : {
				"type" : "Point",
				"coordinates" : [ 114.2649631757, 22.3771265441 ]
			},
			"properties" : {
				"OBJECTID" : 58,
				"FSDID" : "SKG",
				"Name_ENG" : "Sai Kung Fire Station ",
				"Name_TC" : "西貢消防局",
				"Name_SC" : "西贡消防局",
				"Address_ENG" : "1 Hong Kin Road, Sai Kung, New Territories",
				"Address_TC" : "新界西貢康健路1號",
				"Address_SC" : "新界西贡康健路1号",
				"District_ENG" : "SAI KUNG",
				"District_TC" : "西貢區",
				"District_SC" : "西贡区",
				"Telephone" : "2792 1553",
				"Northing" : 826439,
				"Easting" : 845340,
				"Latitude" : 22.37712654,
				"Longitude" : 114.26496318
			}
		},
		{
			"type" : "Feature",
			"geometry" : {
				"type" : "Point",
				"coordinates" : [ 114.1668855264, 22.3390232492 ]
			},
			"properties" : {
				"OBJECTID" : 59,
				"FSDID" : "SKM",
				"Name_ENG" : "Shek Kip Mei Fire Station ",
				"Name_TC" : "石硤尾消防局",
				"Name_SC" : "石硖尾消防局",
				"Address_ENG" : "380 Nam Cheong Street, Shek Kip Mei, Kowloon",
				"Address_TC" : "九龍石硤尾南昌街380號",
				"Address_SC" : "九龙石硖尾南昌街380号",
				"District_ENG" : "SHAM SHUI PO",
				"District_TC" : "深水埗區",
				"District_SC" : "深水埗区",
				"Telephone" : "2778 1098",
				"Northing" : 822217,
				"Easting" : 835239,
				"Latitude" : 22.33902325,
				"Longitude" : 114.16688553
			}
		},
		{
			"type" : "Feature",
			"geometry" : {
				"type" : "Point",
				"coordinates" : [ 114.2744479875, 22.3745203099 ]
			},
			"properties" : {
				"OBJECTID" : 60,
				"FSDID" : "SKP",
				"Name_ENG" : "Sai Kung Fireboat Base",
				"Name_TC" : "西貢滅火輪基地",
				"Name_SC" : "西贡灭火轮基地",
				"Address_ENG" : "Wa Fuk Street, Sai Kung, New Territories",
				"Address_TC" : "新界西貢華福街",
				"Address_SC" : "新界西贡华福街",
				"District_ENG" : "SAI KUNG",
				"District_TC" : "西貢區",
				"District_SC" : "西贡区",
				"Telephone" : "2696 2135",
				"Northing" : 826151,
				"Easting" : 846317,
				"Latitude" : 22.37452,
				"Longitude" : 114.27445
			}
		},
		{
			"type" : "Feature",
			"geometry" : {
				"type" : "Point",
				"coordinates" : [ 114.2317920962, 22.2732804493 ]
			},
			"properties" : {
				"OBJECTID" : 61,
				"FSDID" : "SKW",
				"Name_ENG" : "Shau Kei Wan Fire Station ",
				"Name_TC" : "筲箕灣消防局",
				"Name_SC" : "筲箕湾消防局",
				"Address_ENG" : "34 Chai Wan Road, Hong Kong",
				"Address_TC" : "香港柴灣道34號",
				"Address_SC" : "香港柴湾道34号",
				"District_ENG" : "EASTERN",
				"District_TC" : "東區",
				"District_SC" : "東区",
				"Telephone" : "2884 3197",
				"Northing" : 814938,
				"Easting" : 841928,
				"Latitude" : 22.27328045,
				"Longitude" : 114.2317921
			}
		},
		{
			"type" : "Feature",
			"geometry" : {
				"type" : "Point",
				"coordinates" : [ 114.2227098425, 22.33133204 ]
			},
			"properties" : {
				"OBJECTID" : 62,
				"FSDID" : "SLE",
				"Name_ENG" : "Shun Lee Fire Station ",
				"Name_TC" : "順利消防局",
				"Name_SC" : "顺利消防局",
				"Address_ENG" : "33 Lee On Road, Kwun Tong, Kowloon",
				"Address_TC" : "九龍觀塘利安道33號",
				"Address_SC" : "九龙观塘利安道33号",
				"District_ENG" : "KWUN TONG",
				"District_TC" : "觀塘區",
				"District_SC" : "观塘区",
				"Telephone" : "2341 9420",
				"Northing" : 821366,
				"Easting" : 840990,
				"Latitude" : 22.33133204,
				"Longitude" : 114.22270984
			}
		},
		{
			"type" : "Feature",
			"geometry" : {
				"type" : "Point",
				"coordinates" : [ 114.2051995957, 22.3832707535 ]
			},
			"properties" : {
				"OBJECTID" : 63,
				"FSDID" : "SLY",
				"Name_ENG" : "Siu Lek Yuen Fire Station ",
				"Name_TC" : "小瀝源消防局",
				"Name_SC" : "小沥源消防局",
				"Address_ENG" : "1 Yuen Shun Circuit, Shatin, New Territories",
				"Address_TC" : "新界沙田源順圍1號",
				"Address_SC" : "新界沙田源顺围1号",
				"District_ENG" : "SHA TIN",
				"District_TC" : "沙田區",
				"District_SC" : "沙田区",
				"Telephone" : "2647 7515",
				"Northing" : 827117,
				"Easting" : 839185,
				"Latitude" : 22.38327075,
				"Longitude" : 114.2051996
			}
		},
		{
			"type" : "Feature",
			"geometry" : {
				"type" : "Point",
				"coordinates" : [ 114.127248329, 22.5092946114 ]
			},
			"properties" : {
				"OBJECTID" : 64,
				"FSDID" : "SSI",
				"Name_ENG" : "Sheung Shui Fire Station ",
				"Name_TC" : "上水消防局",
				"Name_SC" : "上水消防局",
				"Address_ENG" : "8 Tin Ping Road, Sheung Shui, New Territories",
				"Address_TC" : "新界上水天平路8號",
				"Address_SC" : "新界上水天平路8号",
				"District_ENG" : "NORTH",
				"District_TC" : "北區",
				"District_SC" : "北区",
				"Telephone" : "2670 7682",
				"Northing" : 841073,
				"Easting" : 831162,
				"Latitude" : 22.50929461,
				"Longitude" : 114.12724833
			}
		},
		{
			"type" : "Feature",
			"geometry" : {
				"type" : "Point",
				"coordinates" : [ 114.0631298161, 22.3677098201 ]
			},
			"properties" : {
				"OBJECTID" : 65,
				"FSDID" : "STG",
				"Name_ENG" : "Sham Tseng Fire Station ",
				"Name_TC" : "深井消防局",
				"Name_SC" : "深井消防局",
				"Address_ENG" : "32 Castle Peak Road - Sham Tseng, Sham Tseng, New Territories",
				"Address_TC" : "新界深井青山公路-深井段32號",
				"Address_SC" : "新界深井青山公路-深井段32号",
				"District_ENG" : "TSUEN WAN",
				"District_TC" : "荃灣區",
				"District_SC" : "荃湾区",
				"Telephone" : "2496 4167",
				"Northing" : 825398,
				"Easting" : 824553,
				"Latitude" : 22.36770982,
				"Longitude" : 114.06312982
			}
		},
		{
			"type" : "Feature",
			"geometry" : {
				"type" : "Point",
				"coordinates" : [ 114.2212346959, 22.5459503641 ]
			},
			"properties" : {
				"OBJECTID" : 66,
				"FSDID" : "STK",
				"Name_ENG" : "Sha Tau Kok Fire Station ",
				"Name_TC" : "沙頭角消防局",
				"Name_SC" : "沙头角消防局",
				"Address_ENG" : "60 Shun Hing Street, Sha Tau Kok, New Territories",
				"Address_TC" : "新界沙頭角順興街60號",
				"Address_SC" : "新界沙头角顺兴街60号",
				"District_ENG" : "NORTH",
				"District_TC" : "北區",
				"District_SC" : "北区",
				"Telephone" : "2674 0679",
				"Northing" : 845132,
				"Easting" : 840831,
				"Latitude" : 22.54595036,
				"Longitude" : 114.2212347
			}
		},
		{
			"type" : "Feature",
			"geometry" : {
				"type" : "Point",
				"coordinates" : [ 114.2000348888, 22.3906404801 ]
			},
			"properties" : {
				"OBJECTID" : 67,
				"FSDID" : "STN",
				"Name_ENG" : "Shatin Fire Station ",
				"Name_TC" : "沙田消防局",
				"Name_SC" : "沙田消防局",
				"Address_ENG" : "26-28 Yuen Wo Road, Shatin, New Territories",
				"Address_TC" : "新界沙田源禾路26-28號",
				"Address_SC" : "新界沙田源禾路26-28号",
				"District_ENG" : "SHA TIN",
				"District_TC" : "沙田區",
				"District_SC" : "沙田区",
				"Telephone" : "2691 0596",
				"Northing" : 827933,
				"Easting" : 838653,
				"Latitude" : 22.39064048,
				"Longitude" : 114.20003489
			}
		},
		{
			"type" : "Feature",
			"geometry" : {
				"type" : "Point",
				"coordinates" : [ 114.2193560474, 22.2829289041 ]
			},
			"properties" : {
				"OBJECTID" : 68,
				"FSDID" : "SWH",
				"Name_ENG" : "Sai Wan Ho Fire Station ",
				"Name_TC" : "西灣河消防局",
				"Name_SC" : "西湾河消防局",
				"Address_ENG" : "20 Wai Hang Street, Sai Wan Ho, Hong Kong",
				"Address_TC" : "香港西灣河惠亨街20號",
				"Address_SC" : "香港西湾河惠亨街20号",
				"District_ENG" : "EASTERN",
				"District_TC" : "東區",
				"District_SC" : "東区",
				"Telephone" : "2569 3165",
				"Northing" : 816006,
				"Easting" : 840646,
				"Latitude" : 22.2829289,
				"Longitude" : 114.21935605
			}
		},
		{
			"type" : "Feature",
			"geometry" : {
				"type" : "Point",
				"coordinates" : [ 114.1480053376, 22.2890185609 ]
			},
			"properties" : {
				"OBJECTID" : 69,
				"FSDID" : "SWN",
				"Name_ENG" : "Sheung Wan Fire Station ",
				"Name_TC" : "上環消防局",
				"Name_SC" : "上环消防局",
				"Address_ENG" : "2 Western Fire Services Street, Sheung Wan, Hong Kong",
				"Address_TC" : "香港上環西消防街2號",
				"Address_SC" : "香港上环西消防街2号",
				"District_ENG" : "CENTRAL AND WESTERN",
				"District_TC" : "中西區",
				"District_SC" : "中西区",
				"Telephone" : "2559 2417",
				"Northing" : 816680,
				"Easting" : 833293,
				"Latitude" : 22.28901856,
				"Longitude" : 114.14800534
			}
		},
		{
			"type" : "Feature",
			"geometry" : {
				"type" : "Point",
				"coordinates" : [ 113.9428474646, 22.4916676015 ]
			},
			"properties" : {
				"OBJECTID" : 70,
				"FSDID" : "SZB",
				"Name_ENG" : "Shenzhen Bay Fire Station ",
				"Name_TC" : "深圳灣消防局",
				"Name_SC" : "深圳湾消防局",
				"Address_ENG" : "Cargo Examination Area, Shenzhen Bay Port",
				"Address_TC" : "深圳灣口岸貨檢區",
				"Address_SC" : "深圳湾口岸货检区",
				"District_ENG" : "SHENZHEN",
				"District_TC" : "深圳",
				"District_SC" : "深圳",
				"Telephone" : "3543 3636",
				"Northing" : 839139,
				"Easting" : 812186,
				"Latitude" : 22.4916676,
				"Longitude" : 113.94284747
			}
		},
		{
			"type" : "Feature",
			"geometry" : {
				"type" : "Point",
				"coordinates" : [ 113.941736935, 22.2852657363 ]
			},
			"properties" : {
				"OBJECTID" : 71,
				"FSDID" : "TCG",
				"Name_ENG" : "Tung Chung Fire Station ",
				"Name_TC" : "東涌消防局",
				"Name_SC" : "东涌消防局",
				"Address_ENG" : "3 Shun Tung Road, Tung Chung, Lantau Island",
				"Address_TC" : "大嶼山東涌順東路3號",
				"Address_SC" : "大屿山东涌顺东路3号",
				"District_ENG" : "ISLANDS",
				"District_TC" : "離島區",
				"District_SC" : "離岛区",
				"Telephone" : "2988 1898",
				"Northing" : 816283,
				"Easting" : 812036,
				"Latitude" : 22.28526574,
				"Longitude" : 113.94173694
			}
		},
		{
			"type" : "Feature",
			"geometry" : {
				"type" : "Point",
				"coordinates" : [ 114.2744860846, 22.2897954672 ]
			},
			"properties" : {
				"OBJECTID" : 72,
				"FSDID" : "TCS",
				"Name_ENG" : "Tai Chik Sha Fire Station ",
				"Name_TC" : "大赤沙消防局",
				"Name_SC" : "大赤沙消防局",
				"Address_ENG" : "321 Wan Po Road, Tseung Kwan O, New Territories",
				"Address_TC" : "新界將軍澳環保大道321號",
				"Address_SC" : "新界将军澳环保大道321号",
				"District_ENG" : "SAI KUNG",
				"District_TC" : "西貢區",
				"District_SC" : "西贡区",
				"Telephone" : "2623 9613",
				"Northing" : 816769,
				"Easting" : 846327,
				"Latitude" : 22.28979547,
				"Longitude" : 114.27448609
			}
		},
		{
			"type" : "Feature",
			"geometry" : {
				"type" : "Point",
				"coordinates" : [ 114.2550280258, 22.3041646837 ]
			},
			"properties" : {
				"OBJECTID" : 73,
				"FSDID" : "TKG",
				"Name_ENG" : "Tiu Keng Leng Fire Station ",
				"Name_TC" : "調景嶺消防局",
				"Name_SC" : "调景岭消防局",
				"Address_ENG" : "6 Chui Shin Street, Tseung Kwan O, New Territories",
				"Address_TC" : "新界將軍澳翠善街6號",
				"Address_SC" : "新界将军澳翠善街6号",
				"District_ENG" : "SAI KUNG",
				"District_TC" : "西貢區",
				"District_SC" : "西贡区",
				"Telephone" : "2357 8104",
				"Northing" : 818359,
				"Easting" : 844321,
				"Latitude" : 22.30417,
				"Longitude" : 114.25503
			}
		},
		{
			"type" : "Feature",
			"geometry" : {
				"type" : "Point",
				"coordinates" : [ 114.0210052977, 22.3640173887 ]
			},
			"properties" : {
				"OBJECTID" : 74,
				"FSDID" : "TLC",
				"Name_ENG" : "Tai Lam Chung Fire Station ",
				"Name_TC" : "大欖涌消防局",
				"Name_SC" : "大榄涌消防局",
				"Address_ENG" : "16 Tai Lam Chung Road, Tuen Mun, New Territories",
				"Address_TC" : "新界屯門大欖涌道16號",
				"Address_SC" : "新界屯门大榄涌道16号",
				"District_ENG" : "TUEN MUN",
				"District_TC" : "屯門區",
				"District_SC" : "屯门区",
				"Telephone" : "2450 6210",
				"Northing" : 824993,
				"Easting" : 820214,
				"Latitude" : 22.36401739,
				"Longitude" : 114.0210053
			}
		},
		{
			"type" : "Feature",
			"geometry" : {
				"type" : "Point",
				"coordinates" : [ 114.1902944548, 22.2853992787 ]
			},
			"properties" : {
				"OBJECTID" : 75,
				"FSDID" : "TLW",
				"Name_ENG" : "Tung Lo Wan Fire Station ",
				"Name_TC" : "銅鑼灣消防局",
				"Name_SC" : "铜锣湾消防局",
				"Address_ENG" : "111 Victoria Park Road, Hong Kong",
				"Address_TC" : "香港維園道111號",
				"Address_SC" : "香港维园道111号",
				"District_ENG" : "WAN CHAI",
				"District_TC" : "灣仔區",
				"District_SC" : "湾仔区",
				"Telephone" : "2571 8760",
				"Northing" : 816279,
				"Easting" : 837651,
				"Latitude" : 22.28539928,
				"Longitude" : 114.19029446
			}
		},
		{
			"type" : "Feature",
			"geometry" : {
				"type" : "Point",
				"coordinates" : [ 113.9708708852, 22.3949810852 ]
			},
			"properties" : {
				"OBJECTID" : 76,
				"FSDID" : "TMN",
				"Name_ENG" : "Tuen Mun Fire Station ",
				"Name_TC" : "屯門消防局",
				"Name_SC" : "屯门消防局",
				"Address_ENG" : "102 Pui To Road, Tuen Mun, New Territories",
				"Address_TC" : "新界屯門杯渡路102號",
				"Address_SC" : "新界屯门杯渡路102号",
				"District_ENG" : "TUEN MUN",
				"District_TC" : "屯門區",
				"District_SC" : "屯门区",
				"Telephone" : "2462 5717",
				"Northing" : 828428,
				"Easting" : 815055,
				"Latitude" : 22.39498109,
				"Longitude" : 113.97087089
			}
		},
		{
			"type" : "Feature",
			"geometry" : {
				"type" : "Point",
				"coordinates" : [ 113.9520310112, 22.3588521334 ]
			},
			"properties" : {
				"OBJECTID" : 77,
				"FSDID" : "TMP",
				"Name_ENG" : "Tuen Mun Fireboat Station ",
				"Name_TC" : "屯門滅火輪消防局",
				"Name_SC" : "屯门灭火轮消防局",
				"Address_ENG" : "27 Ho Wo Street, Tuen Mun, New Territories",
				"Address_TC" : "新界屯門浩和街27號",
				"Address_SC" : "新界屯门浩和街27号",
				"District_ENG" : "TUEN MUN",
				"District_TC" : "屯門區",
				"District_SC" : "屯门区",
				"Telephone" : "2529 9820",
				"Northing" : 824430,
				"Easting" : 813109,
				"Latitude" : 22.35885446,
				"Longitude" : 113.95203556
			}
		},
		{
			"type" : "Feature",
			"geometry" : {
				"type" : "Point",
				"coordinates" : [ 113.8602754747, 22.255227182 ]
			},
			"properties" : {
				"OBJECTID" : 78,
				"FSDID" : "TOO",
				"Name_ENG" : "Tai O (Old) Fire Station ",
				"Name_TC" : "舊大澳消防局",
				"Name_SC" : "旧大澳消防局",
				"Address_ENG" : "102 Shek Tsai Po Street, Tai O, Lautau Island",
				"Address_TC" : "大澳石仔街102號",
				"Address_SC" : "大澳石仔埗街102号",
				"District_ENG" : "ISLANDS",
				"District_TC" : "離島區",
				"District_SC" : "離岛区",
				"Telephone" : "2985 7254",
				"Northing" : 812972,
				"Easting" : 803634,
				"Latitude" : 22.25522718,
				"Longitude" : 113.86027548
			}
		},
		{
			"type" : "Feature",
			"geometry" : {
				"type" : "Point",
				"coordinates" : [ 113.866558603, 22.2523675777 ]
			},
			"properties" : {
				"OBJECTID" : 79,
				"FSDID" : "TOS",
				"Name_ENG" : "Tai O Fire Station ",
				"Name_TC" : "大澳消防局",
				"Name_SC" : "大澳消防局",
				"Address_ENG" : "120 Tai O Road, Tai O, Lantau Island",
				"Address_TC" : "大澳道120號",
				"Address_SC" : "大澳道120号",
				"District_ENG" : "ISLANDS",
				"District_TC" : "離島區",
				"District_SC" : "離岛区",
				"Telephone" : "2985 6613",
				"Northing" : 812654,
				"Easting" : 804281,
				"Latitude" : 22.25236758,
				"Longitude" : 113.8665586
			}
		},
		{
			"type" : "Feature",
			"geometry" : {
				"type" : "Point",
				"coordinates" : [ 114.1905640534, 22.4619371653 ]
			},
			"properties" : {
				"OBJECTID" : 80,
				"FSDID" : "TPE",
				"Name_ENG" : "Tai Po East Fire Station ",
				"Name_TC" : "大埔東消防局",
				"Name_SC" : "大埔东消防局",
				"Address_ENG" : "68 Ting Kok Road, Tai Po, New Territories",
				"Address_TC" : "新界大埔汀角路68號",
				"Address_SC" : "新界大埔汀角路68号",
				"District_ENG" : "TAI PO",
				"District_TC" : "大埔區",
				"District_SC" : "大埔区",
				"Telephone" : "2664 2511",
				"Northing" : 835828,
				"Easting" : 837677,
				"Latitude" : 22.46193717,
				"Longitude" : 114.19056405
			}
		},
		{
			"type" : "Feature",
			"geometry" : {
				"type" : "Point",
				"coordinates" : [ 114.1647013452, 22.451317493 ]
			},
			"properties" : {
				"OBJECTID" : 81,
				"FSDID" : "TPO",
				"Name_ENG" : "Tai Po Fire Station ",
				"Name_TC" : "大埔消防局",
				"Name_SC" : "大埔消防局",
				"Address_ENG" : "3 Ting Kok Road, Tai Po, New Territories",
				"Address_TC" : "新界大埔汀角路3號",
				"Address_SC" : "新界大埔汀角路3号",
				"District_ENG" : "TAI PO",
				"District_TC" : "大埔區",
				"District_SC" : "大埔区",
				"Telephone" : "2651 2951",
				"Northing" : 834652,
				"Easting" : 835015,
				"Latitude" : 22.45131749,
				"Longitude" : 114.16470135
			}
		},
		{
			"type" : "Feature",
			"geometry" : {
				"type" : "Point",
				"coordinates" : [ 114.1762335636, 22.366711242 ]
			},
			"properties" : {
				"OBJECTID" : 82,
				"FSDID" : "TSM",
				"Name_ENG" : "Tin Sum Fire Station ",
				"Name_TC" : "田心消防局",
				"Name_SC" : "田心消防局",
				"Address_ENG" : "2 Fu Kin Street, Shatin, New Territories",
				"Address_TC" : "新界沙田富健街2號",
				"Address_SC" : "新界沙田富健街2号",
				"District_ENG" : "SHA TIN",
				"District_TC" : "沙田區",
				"District_SC" : "沙田区",
				"Telephone" : "2694 8639",
				"Northing" : 825283,
				"Easting" : 836202,
				"Latitude" : 22.36671124,
				"Longitude" : 114.17623356
			}
		},
		{
			"type" : "Feature",
			"geometry" : {
				"type" : "Point",
				"coordinates" : [ 114.1676160459, 22.3014018401 ]
			},
			"properties" : {
				"OBJECTID" : 83,
				"FSDID" : "TST",
				"Name_ENG" : "Tsim Sha Tsui Fire Station ",
				"Name_TC" : "尖沙咀消防局",
				"Name_SC" : "尖沙咀消防局",
				"Address_ENG" : "333 Canton Road, Tsim Sha Tsui, Kowloon",
				"Address_TC" : "九龍尖沙咀廣東道333號",
				"Address_SC" : "九龙尖沙咀广东道333号",
				"District_ENG" : "YAU TSIM MONG",
				"District_TC" : "油尖旺區",
				"District_SC" : "油尖旺区",
				"Telephone" : "2366 2389",
				"Northing" : 818051,
				"Easting" : 835314,
				"Latitude" : 22.30140184,
				"Longitude" : 114.16761605
			}
		},
		{
			"type" : "Feature",
			"geometry" : {
				"type" : "Point",
				"coordinates" : [ 114.0018869932, 22.4503381444 ]
			},
			"properties" : {
				"OBJECTID" : 84,
				"FSDID" : "TSW",
				"Name_ENG" : "Tin Shui Wai Fire Station ",
				"Name_TC" : "天水圍消防局",
				"Name_SC" : "天水围消防局",
				"Address_ENG" : "1 Tin Ho Road, Tin Shui Wai, New Territories",
				"Address_TC" : "新界天水圍天河路1號",
				"Address_SC" : "新界天水围天河路1号",
				"District_ENG" : "YUEN LONG",
				"District_TC" : "元朗區",
				"District_SC" : "元朗区",
				"Telephone" : "2448 0664",
				"Northing" : 834554,
				"Easting" : 818256,
				"Latitude" : 22.45033814,
				"Longitude" : 114.00188699
			}
		},
		{
			"type" : "Feature",
			"geometry" : {
				"type" : "Point",
				"coordinates" : [ 114.1800477732, 22.3002913041 ]
			},
			"properties" : {
				"OBJECTID" : 85,
				"FSDID" : "TTG",
				"Name_ENG" : "Tsim Tung Fire Station ",
				"Name_TC" : "尖東消防局",
				"Name_SC" : "尖东消防局",
				"Address_ENG" : "1 Hong Chong Road, Tsim Sha Tsui East, Kowloon",
				"Address_TC" : "九龍康莊道1號",
				"Address_SC" : "九龙康庄道1号",
				"District_ENG" : "YAU TSIM MONG",
				"District_TC" : "油尖旺區",
				"District_SC" : "油尖旺区",
				"Telephone" : "2722 4871",
				"Northing" : 817928,
				"Easting" : 836595,
				"Latitude" : 22.3002913,
				"Longitude" : 114.18004777
			}
		},
		{
			"type" : "Feature",
			"geometry" : {
				"type" : "Point",
				"coordinates" : [ 114.1115369574, 22.3751145301 ]
			},
			"properties" : {
				"OBJECTID" : 86,
				"FSDID" : "TWN",
				"Name_ENG" : "Tsuen Wan Fire Station ",
				"Name_TC" : "荃灣消防局",
				"Name_SC" : "荃湾消防局",
				"Address_ENG" : "453 Castle Peak Road - Tsuen Wan, Tsuen Wan, New Territories",
				"Address_TC" : "新界荃灣青山公路-荃灣段453號",
				"Address_SC" : "新界荃湾青山公路 - 荃湾段453号",
				"District_ENG" : "TSUEN WAN",
				"District_TC" : "荃灣區",
				"District_SC" : "荃湾区",
				"Telephone" : "2499 5044",
				"Northing" : 826215,
				"Easting" : 829539,
				"Latitude" : 22.37511453,
				"Longitude" : 114.11153696
			}
		},
		{
			"type" : "Feature",
			"geometry" : {
				"type" : "Point",
				"coordinates" : [ 114.1079658946, 22.3509924747 ]
			},
			"properties" : {
				"OBJECTID" : 87,
				"FSDID" : "TYI",
				"Name_ENG" : "Tsing Yi Fire Station ",
				"Name_TC" : "青衣消防局",
				"Name_SC" : "青衣消防局",
				"Address_ENG" : "11 Tsing Yi Heung Sze Wui Road, Tsing Yi, New Territories",
				"Address_TC" : "新界青衣青衣鄉事會路11號",
				"Address_SC" : "新界青衣青衣乡事会路11号",
				"District_ENG" : "KWAI TSING",
				"District_TC" : "葵青區",
				"District_SC" : "葵青区",
				"Telephone" : "2495 0451",
				"Northing" : 823544,
				"Easting" : 829170,
				"Latitude" : 22.35099248,
				"Longitude" : 114.1079659
			}
		},
		{
			"type" : "Feature",
			"geometry" : {
				"type" : "Point",
				"coordinates" : [ 114.1109075953, 22.3507137515 ]
			},
			"properties" : {
				"OBJECTID" : 88,
				"FSDID" : "TYP",
				"Name_ENG" : "Tsing Yi Fireboat Station ",
				"Name_TC" : "青衣滅火輪消防局",
				"Name_SC" : "青衣灭火轮消防局",
				"Address_ENG" : "Cheung Fai Road, Tsing Yi, New Territories",
				"Address_TC" : "新界青衣長輝路",
				"Address_SC" : "新界青衣长辉路",
				"District_ENG" : "KWAI TSING",
				"District_TC" : "葵青區",
				"District_SC" : "葵青区",
				"Telephone" : "2534 7250",
				"Northing" : 823513,
				"Easting" : 829473,
				"Latitude" : 22.35071375,
				"Longitude" : 114.1109076
			}
		},
		{
			"type" : "Feature",
			"geometry" : {
				"type" : "Point",
				"coordinates" : [ 114.0937906379, 22.3368981533 ]
			},
			"properties" : {
				"OBJECTID" : 89,
				"FSDID" : "TYS",
				"Name_ENG" : "Tsing Yi South Fire Station ",
				"Name_TC" : "青衣南消防局",
				"Name_SC" : "青衣南消防局",
				"Address_ENG" : "100 Tsing Yi Road, Tsing Yi, New Territories",
				"Address_TC" : "新界青衣青衣路100號",
				"Address_SC" : "新界青衣青衣路100号",
				"District_ENG" : "KWAI TSING",
				"District_TC" : "葵青區",
				"District_SC" : "葵青区",
				"Telephone" : "2432 7823",
				"Northing" : 821984,
				"Easting" : 827709,
				"Latitude" : 22.33689815,
				"Longitude" : 114.09379064
			}
		},
		{
			"type" : "Feature",
			"geometry" : {
				"type" : "Point",
				"coordinates" : [ 114.1523180019, 22.2652235313 ]
			},
			"properties" : {
				"OBJECTID" : 90,
				"FSDID" : "VPK",
				"Name_ENG" : "Victoria Peak Fire Station ",
				"Name_TC" : "山頂消防局",
				"Name_SC" : "山顶消防局",
				"Address_ENG" : "7 Gough Hill Path, The Peak, Hong Kong",
				"Address_TC" : "香港山頂歌賦山里7號",
				"Address_SC" : "香港山顶歌赋山里7号",
				"District_ENG" : "CENTRAL AND WESTERN",
				"District_TC" : "中西區",
				"District_SC" : "中西区",
				"Telephone" : "2849 7313",
				"Northing" : 814045,
				"Easting" : 833737,
				"Latitude" : 22.26522353,
				"Longitude" : 114.152318
			}
		},
		{
			"type" : "Feature",
			"geometry" : {
				"type" : "Point",
				"coordinates" : [ 114.1813960481, 22.2796382276 ]
			},
			"properties" : {
				"OBJECTID" : 91,
				"FSDID" : "WAN",
				"Name_ENG" : "Wan Chai Fire Station ",
				"Name_TC" : "灣仔消防局",
				"Name_SC" : "湾仔消防局",
				"Address_ENG" : "435 Hennessy Road, Wan Chai, Hong Kong",
				"Address_TC" : "香港灣仔軒尼詩道435號",
				"Address_SC" : "香港湾仔轩尼诗道435号",
				"District_ENG" : "WAN CHAI",
				"District_TC" : "灣仔區",
				"District_SC" : "湾仔区",
				"Telephone" : "2891 2587",
				"Northing" : 815641,
				"Easting" : 836734,
				"Latitude" : 22.27963823,
				"Longitude" : 114.18139605
			}
		},
		{
			"type" : "Feature",
			"geometry" : {
				"type" : "Point",
				"coordinates" : [ 114.1969302739, 22.3430138199 ]
			},
			"properties" : {
				"OBJECTID" : 92,
				"FSDID" : "WTS",
				"Name_ENG" : "Wong Tai Sin Fire Station ",
				"Name_TC" : "黃大仙消防局",
				"Name_SC" : "黄大仙消防局",
				"Address_ENG" : "28 Fung Tak Road, Wong Tai Sin, Kowloon",
				"Address_TC" : "九龍鳳德道28號",
				"Address_SC" : "九龙凤德道28号",
				"District_ENG" : "WONG TAI SIN",
				"District_TC" : "黃大仙區",
				"District_SC" : "黃大仙区",
				"Telephone" : "2329 5733",
				"Northing" : 822659,
				"Easting" : 838334,
				"Latitude" : 22.34301382,
				"Longitude" : 114.19693027
			}
		},
		{
			"type" : "Feature",
			"geometry" : {
				"type" : "Point",
				"coordinates" : [ 114.0325280536, 22.4410851646 ]
			},
			"properties" : {
				"OBJECTID" : 93,
				"FSDID" : "YLG",
				"Name_ENG" : "Yuen Long Fire Station ",
				"Name_TC" : "元朗消防局",
				"Name_SC" : "元朗消防局",
				"Address_ENG" : "2 Fung Kam Street, Yuen Long, New Territories",
				"Address_TC" : "新界元朗鳳琴街2號",
				"Address_SC" : "新界元朗凤琴街2号",
				"District_ENG" : "YUEN LONG",
				"District_TC" : "元朗區",
				"District_SC" : "元朗区",
				"Telephone" : "2474 6732",
				"Northing" : 833526,
				"Easting" : 821409,
				"Latitude" : 22.44108517,
				"Longitude" : 114.03252805
			}
		},
		{
			"type" : "Feature",
			"geometry" : {
				"type" : "Point",
				"coordinates" : [ 114.1712936843, 22.31287991 ]
			},
			"properties" : {
				"OBJECTID" : 94,
				"FSDID" : "YMT",
				"Name_ENG" : "Yau Ma Tei Fire Station ",
				"Name_TC" : "油麻地消防局",
				"Name_SC" : "油麻地消防局",
				"Address_ENG" : "42 Waterloo Road, Yau Ma Tei, Kowloon",
				"Address_TC" : "九龍窩打老道42號",
				"Address_SC" : "九龙窝打老道42号",
				"District_ENG" : "YAU TSIM MONG",
				"District_TC" : "油尖旺區",
				"District_SC" : "油尖旺区",
				"Telephone" : "2385 0307",
				"Northing" : 819322,
				"Easting" : 835693,
				"Latitude" : 22.31287991,
				"Longitude" : 114.17129368
			}
		},
		{
			"type" : "Feature",
			"geometry" : {
				"type" : "Point",
				"coordinates" : [ 114.2373520482, 22.2964239756 ]
			},
			"properties" : {
				"OBJECTID" : 95,
				"FSDID" : "YTG",
				"Name_ENG" : "Yau Tong Fire Station ",
				"Name_TC" : "油塘消防局",
				"Name_SC" : "油塘消防局",
				"Address_ENG" : "1 Ko Fai Road, Yau Tong, Kowloon",
				"Address_TC" : "九龍高輝道1號",
				"Address_SC" : "九龙油塘高辉道1号",
				"District_ENG" : "KWUN TONG",
				"District_TC" : "觀塘區",
				"District_SC" : "观塘区",
				"Telephone" : "2340 6316",
				"Northing" : 817501,
				"Easting" : 842500,
				"Latitude" : 22.29642,
				"Longitude" : 114.23735
			}
		}
	]
}