{
	"type" : "FeatureCollection",
	"name" : "PRI_PRS",
	"features" : [
		{
			"type" : "Feature",
			"geometry" : {
				"type" : "Point",
				"coordinates" : [ 114.1868030105, 22.3115883217 ]
			},
			"properties" : {
				"OBJECTID" : 1,
				"DATASET_EN" : "Private Primary Schools",
				"DATASET_TC" : "私立小學",
				"NAME_EN" : "OXBRIDGE BRITISH SCHOOL",
				"ADDRESS_EN" : "SHOP B ON G/F. & THE WHOLE OF 1/F., STAR RUBY, 1 SAN WAI STREET, HUNG HOM, KOWLOON",
				"NAME_TC" : "劍津英國學校",
				"ADDRESS_TC" : "九龍紅磡新圍街1號寶御地下B舖及一樓全層",
				"SEARCH01_EN" : "CO-ED",
				"SEARCH01_TC" : "男女",
				"SEARCH02_EN" : "WHOLE DAY",
				"SEARCH02_TC" : "全日",
				"SEARCH03_EN" : "KOWLOON CITY",
				"SEARCH03_TC" : "九龍城區",
				"SEARCH04_EN" : "PRIMARY",
				"SEARCH04_TC" : "小學",
				"SEARCH05_EN" : "PRIVATE",
				"SEARCH05_TC" : "私立",
				"NSEARCH01_EN" : "NOT APPLICABLE",
				"NSEARCH01_TC" : "不適用",
				"NSEARCH02_EN" : "26121888",
				"NSEARCH02_TC" : "26121888",
				"NSEARCH03_EN" : "26122828",
				"NSEARCH03_TC" : "26122828",
				"NSEARCH04_EN" : "https://www.oxbridgeschool.hk",
				"NSEARCH04_TC" : "https://www.oxbridgeschool.hk",
				"NSEARCH05_EN" : "617334000123",
				"NSEARCH05_TC" : "617334000123",
				"NORTHING" : 819179,
				"EASTING" : 837291,
				"LATITUDE" : 22.31158803,
				"LONGITUDE" : 114.18680301,
				"LASTUPDATE" : "20260831121052"
			}
		},
		{
			"type" : "Feature",
			"geometry" : {
				"type" : "Point",
				"coordinates" : [ 114.1867287329, 22.3113539839 ]
			},
			"properties" : {
				"OBJECTID" : 2,
				"DATASET_EN" : "Private Primary Schools",
				"DATASET_TC" : "私立小學",
				"NAME_EN" : "OXBRIDGE BRITISH SCHOOL",
				"ADDRESS_EN" : "SHOP 6, G/F. & 1/F., THE MET. FOCUS, 8 PAK KUNG STREET, HUNG HOM, KOWLOON",
				"NAME_TC" : "劍津英國學校",
				"ADDRESS_TC" : "九龍紅磡北拱街8號薈點地下及1樓6號舖",
				"SEARCH01_EN" : "CO-ED",
				"SEARCH01_TC" : "男女",
				"SEARCH02_EN" : "WHOLE DAY",
				"SEARCH02_TC" : "全日",
				"SEARCH03_EN" : "KOWLOON CITY",
				"SEARCH03_TC" : "九龍城區",
				"SEARCH04_EN" : "PRIMARY",
				"SEARCH04_TC" : "小學",
				"SEARCH05_EN" : "PRIVATE",
				"SEARCH05_TC" : "私立",
				"NSEARCH01_EN" : "NOT APPLICABLE",
				"NSEARCH01_TC" : "不適用",
				"NSEARCH02_EN" : "26121888",
				"NSEARCH02_TC" : "26121888",
				"NSEARCH03_EN" : "26122828",
				"NSEARCH03_TC" : "26122828",
				"NSEARCH04_EN" : "https://www.oxbridgeschool.hk",
				"NSEARCH04_TC" : "https://www.oxbridgeschool.hk",
				"NSEARCH05_EN" : "617334000223",
				"NSEARCH05_TC" : "617334000223",
				"NORTHING" : 819153.05015677,
				"EASTING" : 837283.34854959,
				"LATITUDE" : 22.31135369,
				"LONGITUDE" : 114.18672873,
				"LASTUPDATE" : "20260831121029"
			}
		},
		{
			"type" : "Feature",
			"geometry" : {
				"type" : "Point",
				"coordinates" : [ 114.0612980954, 22.4927713311 ]
			},
			"properties" : {
				"OBJECTID" : 3,
				"DATASET_EN" : "Private Primary Schools",
				"DATASET_TC" : "私立小學",
				"NAME_EN" : "ANFIELD ST. BOSCO KOON YING SCHOOL",
				"ADDRESS_EN" : "D.D. 105, MAI PO SAN TSUEN, MAI PO, YUEN LONG, NEW TERRITORIES",
				"NAME_TC" : "安菲爾聖鮑思高冠英學校",
				"ADDRESS_TC" : "新界元朗米埔米埔新村第105約",
				"SEARCH01_EN" : "CO-ED",
				"SEARCH01_TC" : "男女",
				"SEARCH02_EN" : "WHOLE DAY",
				"SEARCH02_TC" : "全日",
				"SEARCH03_EN" : "YUEN LONG",
				"SEARCH03_TC" : "元朗區",
				"SEARCH04_EN" : "PRIMARY",
				"SEARCH04_TC" : "小學",
				"SEARCH05_EN" : "PRIVATE",
				"SEARCH05_TC" : "私立",
				"NSEARCH01_EN" : "CATHOLICISM",
				"NSEARCH01_TC" : "天主教",
				"NSEARCH02_EN" : null,
				"NSEARCH02_TC" : null,
				"NSEARCH03_EN" : null,
				"NSEARCH03_TC" : null,
				"NSEARCH04_EN" : "https://anfield.edu.hk/sbky-campus",
				"NSEARCH04_TC" : "https://anfield.edu.hk/sbky-campus",
				"NSEARCH05_EN" : "620785000123",
				"NSEARCH05_TC" : "620785000123",
				"NORTHING" : 839247,
				"EASTING" : 824375,
				"LATITUDE" : 22.49277103,
				"LONGITUDE" : 114.06129809,
				"LASTUPDATE" : "20260831114449"
			}
		},
		{
			"type" : "Feature",
			"geometry" : {
				"type" : "Point",
				"coordinates" : [ 114.1795443807, 22.3648870508 ]
			},
			"properties" : {
				"OBJECTID" : 4,
				"DATASET_EN" : "Private Primary Schools",
				"DATASET_TC" : "私立小學",
				"NAME_EN" : "ANFIELD SCHOOL",
				"ADDRESS_EN" : "NO.1 AND 3 LUNG PAK STREET TAI WAI SHA TIN NEW TERRITORIES",
				"NAME_TC" : "安菲爾學校",
				"ADDRESS_TC" : "新界沙田大圍龍柏街1號及3號",
				"SEARCH01_EN" : "CO-ED",
				"SEARCH01_TC" : "男女",
				"SEARCH02_EN" : "WHOLE DAY",
				"SEARCH02_TC" : "全日",
				"SEARCH03_EN" : "SHA TIN",
				"SEARCH03_TC" : "沙田區",
				"SEARCH04_EN" : "PRIMARY",
				"SEARCH04_TC" : "小學",
				"SEARCH05_EN" : "PRIVATE",
				"SEARCH05_TC" : "私立",
				"NSEARCH01_EN" : "NOT APPLICABLE",
				"NSEARCH01_TC" : "不適用",
				"NSEARCH02_EN" : "26928823",
				"NSEARCH02_TC" : "26928823",
				"NSEARCH03_EN" : "26928678",
				"NSEARCH03_TC" : "26928678",
				"NSEARCH04_EN" : "https://anfield.edu.hk",
				"NSEARCH04_TC" : "https://anfield.edu.hk",
				"NSEARCH05_EN" : "587567000123",
				"NSEARCH05_TC" : "587567000123",
				"NORTHING" : 825081,
				"EASTING" : 836543,
				"LATITUDE" : 22.36488676,
				"LONGITUDE" : 114.17954438,
				"LASTUPDATE" : "20260803184156"
			}
		},
		{
			"type" : "Feature",
			"geometry" : {
				"type" : "Point",
				"coordinates" : [ 114.1981743493, 22.2890558388 ]
			},
			"properties" : {
				"OBJECTID" : 5,
				"DATASET_EN" : "Private Primary Schools",
				"DATASET_TC" : "私立小學",
				"NAME_EN" : "KIANGSU & CHEKIANG PRIMARY SCHOOL",
				"ADDRESS_EN" : "30 CHING WAH STREET NORTH POINT HONG KONG (EXCLUDING THE AREA OF CHILD CARE CENTRE)",
				"NAME_TC" : "蘇浙小學校",
				"ADDRESS_TC" : "香港北角清華街30號(幼兒中心專用範圍除外)",
				"SEARCH01_EN" : "CO-ED",
				"SEARCH01_TC" : "男女",
				"SEARCH02_EN" : "A.M.",
				"SEARCH02_TC" : "上午",
				"SEARCH03_EN" : "EASTERN",
				"SEARCH03_TC" : "東區",
				"SEARCH04_EN" : "PRIMARY",
				"SEARCH04_TC" : "小學",
				"SEARCH05_EN" : "PRIVATE",
				"SEARCH05_TC" : "私立",
				"NSEARCH01_EN" : "NOT APPLICABLE",
				"NSEARCH01_TC" : "不適用",
				"NSEARCH02_EN" : "25704436,25713291",
				"NSEARCH02_TC" : "25704436,25713291",
				"NSEARCH03_EN" : "28072739",
				"NSEARCH03_TC" : "28072739",
				"NSEARCH04_EN" : "http://www.kcis.edu.hk",
				"NSEARCH04_TC" : "http://www.kcis.edu.hk",
				"NSEARCH05_EN" : "132730000121",
				"NSEARCH05_TC" : "132730000121",
				"NORTHING" : 816684,
				"EASTING" : 838463,
				"LATITUDE" : 22.28905555,
				"LONGITUDE" : 114.19817435,
				"LASTUPDATE" : "20260803181915"
			}
		},
		{
			"type" : "Feature",
			"geometry" : {
				"type" : "Point",
				"coordinates" : [ 114.1981743493, 22.2890558388 ]
			},
			"properties" : {
				"OBJECTID" : 6,
				"DATASET_EN" : "Private Primary Schools",
				"DATASET_TC" : "私立小學",
				"NAME_EN" : "KIANGSU & CHEKIANG PRIMARY SCHOOL",
				"ADDRESS_EN" : "30 CHING WAH STREET NORTH POINT HONG KONG (EXCLUDING THE AREA OF CHILD CARE CENTRE)",
				"NAME_TC" : "蘇浙小學校",
				"ADDRESS_TC" : "香港北角清華街30號(幼兒中心專用範圍除外)",
				"SEARCH01_EN" : "CO-ED",
				"SEARCH01_TC" : "男女",
				"SEARCH02_EN" : "WHOLE DAY",
				"SEARCH02_TC" : "全日",
				"SEARCH03_EN" : "EASTERN",
				"SEARCH03_TC" : "東區",
				"SEARCH04_EN" : "PRIMARY",
				"SEARCH04_TC" : "小學",
				"SEARCH05_EN" : "PRIVATE",
				"SEARCH05_TC" : "私立",
				"NSEARCH01_EN" : "NOT APPLICABLE",
				"NSEARCH01_TC" : "不適用",
				"NSEARCH02_EN" : "25704436,25713291",
				"NSEARCH02_TC" : "25704436,25713291",
				"NSEARCH03_EN" : "28072739",
				"NSEARCH03_TC" : "28072739",
				"NSEARCH04_EN" : "https://www.kcs.edu.hk",
				"NSEARCH04_TC" : "https://www.kcs.edu.hk",
				"NSEARCH05_EN" : "132730000123",
				"NSEARCH05_TC" : "132730000123",
				"NORTHING" : 816684,
				"EASTING" : 838463,
				"LATITUDE" : 22.28905555,
				"LONGITUDE" : 114.19817435,
				"LASTUPDATE" : "20260626094217"
			}
		},
		{
			"type" : "Feature",
			"geometry" : {
				"type" : "Point",
				"coordinates" : [ 114.1790292532, 22.3301735735 ]
			},
			"properties" : {
				"OBJECTID" : 7,
				"DATASET_EN" : "Private Primary Schools",
				"DATASET_TC" : "私立小學",
				"NAME_EN" : "ALLIANCE PRIMARY SCHOOL KOWLOON TONG",
				"ADDRESS_EN" : "PORTION OF G/F. - 2/F. & WHOLE FLOOR OF 3/F. - 8/F., 2 LANCASHIRE ROAD, KOWLOON TONG, KOWLOON",
				"NAME_TC" : "九龍塘宣道小學",
				"ADDRESS_TC" : "九龍九龍塘蘭開夏道2號地下至2樓部份及3樓至8樓全層",
				"SEARCH01_EN" : "CO-ED",
				"SEARCH01_TC" : "男女",
				"SEARCH02_EN" : "WHOLE DAY",
				"SEARCH02_TC" : "全日",
				"SEARCH03_EN" : "KOWLOON CITY",
				"SEARCH03_TC" : "九龍城區",
				"SEARCH04_EN" : "PRIMARY",
				"SEARCH04_TC" : "小學",
				"SEARCH05_EN" : "PRIVATE",
				"SEARCH05_TC" : "私立",
				"NSEARCH01_EN" : "PROTESTANTISM / CHRISTIANITY",
				"NSEARCH01_TC" : "基督教",
				"NSEARCH02_EN" : "34430100",
				"NSEARCH02_TC" : "34430100",
				"NSEARCH03_EN" : "23381124",
				"NSEARCH03_TC" : "23381124",
				"NSEARCH04_EN" : "http://www.apskt.edu.hk",
				"NSEARCH04_TC" : "http://www.apskt.edu.hk",
				"NSEARCH05_EN" : "133442000123",
				"NSEARCH05_TC" : "133442000123",
				"NORTHING" : 821237,
				"EASTING" : 836490,
				"LATITUDE" : 22.33017328,
				"LONGITUDE" : 114.17902925,
				"LASTUPDATE" : "20260429123118"
			}
		},
		{
			"type" : "Feature",
			"geometry" : {
				"type" : "Point",
				"coordinates" : [ 114.1941262093, 22.2758445014 ]
			},
			"properties" : {
				"OBJECTID" : 8,
				"DATASET_EN" : "Private Primary Schools",
				"DATASET_TC" : "私立小學",
				"NAME_EN" : "THE TRUE LIGHT SCHOOL OF HONG KONG, PRIMARY AND KINDERGARTEN SECTION",
				"ADDRESS_EN" : "PRIMARY/KINDERGARTEN SECTION, PRIMARY SECTION AND KINDERGARTEN PLAYGROUND, COVERED PLAYGROUND, SWIMMING POOL, BLOCK 1 (6/F-7/F), BLOCK 2 (EXCLUDING G21-G23, G23A), CENTENNIAL HALL BUILDING (PRIMARY SECTION CLASSROOMS), FUK KWAN AVENUE ENTRANCE, 50 TAI HANG ROAD, HONG KONG",
				"NAME_TC" : "香港真光中學附屬小學暨幼稚園",
				"ADDRESS_TC" : "香港大坑道50號小學及幼稚園部，小學部和幼稚園操場、有蓋操場、游泳池、1座(6樓和7樓)、2座(G21-23及G23A室除外)、百齡堂 (小學課室)、福群道入口",
				"SEARCH01_EN" : "CO-ED",
				"SEARCH01_TC" : "男女",
				"SEARCH02_EN" : "WHOLE DAY",
				"SEARCH02_TC" : "全日",
				"SEARCH03_EN" : "WAN CHAI",
				"SEARCH03_TC" : "灣仔區",
				"SEARCH04_EN" : "PRIMARY",
				"SEARCH04_TC" : "小學",
				"SEARCH05_EN" : "PRIVATE",
				"SEARCH05_TC" : "私立",
				"NSEARCH01_EN" : "PROTESTANTISM / CHRISTIANITY",
				"NSEARCH01_TC" : "基督教",
				"NSEARCH02_EN" : "25765716",
				"NSEARCH02_TC" : "25765716",
				"NSEARCH03_EN" : "28824557",
				"NSEARCH03_TC" : "28824557",
				"NSEARCH04_EN" : "http://www.tlmshkps.edu.hk",
				"NSEARCH04_TC" : "http://www.tlmshkps.edu.hk",
				"NSEARCH05_EN" : "132047000123",
				"NSEARCH05_TC" : "132047000123",
				"NORTHING" : 815221,
				"EASTING" : 838046,
				"LATITUDE" : 22.2758445,
				"LONGITUDE" : 114.19412621,
				"LASTUPDATE" : "20260429123026"
			}
		},
		{
			"type" : "Feature",
			"geometry" : {
				"type" : "Point",
				"coordinates" : [ 114.1751225383, 22.3029806277 ]
			},
			"properties" : {
				"OBJECTID" : 9,
				"DATASET_EN" : "Private Primary Schools",
				"DATASET_TC" : "私立小學",
				"NAME_EN" : "HONGKONG LIMAI SCHOOL",
				"ADDRESS_EN" : "UNIT 2, UG/F., UNITS 201-206, 209, 210, 213, 214, 216-220, 2/F., AUSTIN TOWER (PHASE I), 22-26 AUSTIN AVENUE, TSIM SHA TSUI, KOWLOON",
				"NAME_TC" : "香港力邁學校",
				"ADDRESS_TC" : "九龍尖沙咀柯士甸路22-26號好兆年行(1期)高層地下2號舖，2樓201至206室，209室，210室，213室，214室，216-220室",
				"SEARCH01_EN" : "CO-ED",
				"SEARCH01_TC" : "男女",
				"SEARCH02_EN" : "WHOLE DAY",
				"SEARCH02_TC" : "全日",
				"SEARCH03_EN" : "YAU TSIM MONG",
				"SEARCH03_TC" : "油尖旺區",
				"SEARCH04_EN" : "PRIMARY",
				"SEARCH04_TC" : "小學",
				"SEARCH05_EN" : "PRIVATE",
				"SEARCH05_TC" : "私立",
				"NSEARCH01_EN" : "PROTESTANTISM / CHRISTIANITY",
				"NSEARCH01_TC" : "基督教",
				"NSEARCH02_EN" : "29552468",
				"NSEARCH02_TC" : "29552468",
				"NSEARCH03_EN" : "27111700",
				"NSEARCH03_TC" : "27111700",
				"NSEARCH04_EN" : "http://limai.com.hk",
				"NSEARCH04_TC" : "http://limai.com.hk",
				"NSEARCH05_EN" : "609781000123",
				"NSEARCH05_TC" : "609781000123",
				"NORTHING" : 818225.7981662,
				"EASTING" : 836087.49040896,
				"LATITUDE" : 22.30327516,
				"LONGITUDE" : 114.1751142,
				"LASTUPDATE" : "20260302133457"
			}
		},
		{
			"type" : "Feature",
			"geometry" : {
				"type" : "Point",
				"coordinates" : [ 114.1751192137, 22.3032790316 ]
			},
			"properties" : {
				"OBJECTID" : 10,
				"DATASET_EN" : "Private Primary Schools",
				"DATASET_TC" : "私立小學",
				"NAME_EN" : "HONGKONG LIMAI SCHOOL",
				"ADDRESS_EN" : "UNITS 228-231, SECOND FLOOR, AUSTIN TOWER (PHASE II), 152 AUSTIN ROAD, TSIM SHA TSUI, KOWLOON",
				"NAME_TC" : "香港力邁學校",
				"ADDRESS_TC" : "九龍柯士甸道152號好兆年行(2期)2樓228-231室",
				"SEARCH01_EN" : "CO-ED",
				"SEARCH01_TC" : "男女",
				"SEARCH02_EN" : "WHOLE DAY",
				"SEARCH02_TC" : "全日",
				"SEARCH03_EN" : "YAU TSIM MONG",
				"SEARCH03_TC" : "油尖旺區",
				"SEARCH04_EN" : "PRIMARY",
				"SEARCH04_TC" : "小學",
				"SEARCH05_EN" : "PRIVATE",
				"SEARCH05_TC" : "私立",
				"NSEARCH01_EN" : "PROTESTANTISM / CHRISTIANITY",
				"NSEARCH01_TC" : "基督教",
				"NSEARCH02_EN" : "29552468",
				"NSEARCH02_TC" : "29552468",
				"NSEARCH03_EN" : "27111700",
				"NSEARCH03_TC" : "27111700",
				"NSEARCH04_EN" : "http://limai.com.hk",
				"NSEARCH04_TC" : "http://limai.com.hk",
				"NSEARCH05_EN" : "609781000223",
				"NSEARCH05_TC" : "609781000223",
				"NORTHING" : 818258.84181106,
				"EASTING" : 836087.14823327,
				"LATITUDE" : 22.30327874,
				"LONGITUDE" : 114.17511921,
				"LASTUPDATE" : "20260302133449"
			}
		},
		{
			"type" : "Feature",
			"geometry" : {
				"type" : "Point",
				"coordinates" : [ 114.1874698731, 22.2744543549 ]
			},
			"properties" : {
				"OBJECTID" : 11,
				"DATASET_EN" : "Private Primary Schools",
				"DATASET_TC" : "私立小學",
				"NAME_EN" : "ACADEMY OF INNOVATION PRIMARY SCHOOL",
				"ADDRESS_EN" : "G/F. & 1/F. OF NEW WING BUILDING, CONFUCIUS HALL, BASKETBALL COURT, AND STAIRCASE AT G/F., & 1/F., OF NEW WING BUILDING (SHARED USED WITH ACADEMY OF INNOVATION (CONFUCIUS HALL)) AT 77 CAROLINE HILL ROAD, CAUSEWAY BAY, HONG KONG",
				"NAME_TC" : "禮仁小學",
				"ADDRESS_TC" : "香港銅鑼灣加路連山道七十七號(新翼地下及1樓、孔聖堂、籃球場、新翼地下樓梯及1樓樓梯(與孔聖堂禮仁書院共用))",
				"SEARCH01_EN" : "CO-ED",
				"SEARCH01_TC" : "男女",
				"SEARCH02_EN" : "WHOLE DAY",
				"SEARCH02_TC" : "全日",
				"SEARCH03_EN" : "WAN CHAI",
				"SEARCH03_TC" : "灣仔區",
				"SEARCH04_EN" : "PRIMARY",
				"SEARCH04_TC" : "小學",
				"SEARCH05_EN" : "PRIVATE",
				"SEARCH05_TC" : "私立",
				"NSEARCH01_EN" : "NOT APPLICABLE",
				"NSEARCH01_TC" : "不適用",
				"NSEARCH02_EN" : "98398113",
				"NSEARCH02_TC" : "98398113",
				"NSEARCH03_EN" : "25597162",
				"NSEARCH03_TC" : "25597162",
				"NSEARCH04_EN" : "https://guidepost.hk/locations/causeway-bay-primaryschool",
				"NSEARCH04_TC" : "https://guidepost.hk/locations/causeway-bay-primaryschool",
				"NSEARCH05_EN" : "606812000123",
				"NSEARCH05_TC" : "606812000123",
				"NORTHING" : 815067,
				"EASTING" : 837360,
				"LATITUDE" : 22.27445406,
				"LONGITUDE" : 114.18746987,
				"LASTUPDATE" : "20260302133309"
			}
		},
		{
			"type" : "Feature",
			"geometry" : {
				"type" : "Point",
				"coordinates" : [ 114.1399515833, 22.3386494895 ]
			},
			"properties" : {
				"OBJECTID" : 12,
				"DATASET_EN" : "Private Primary Schools",
				"DATASET_TC" : "私立小學",
				"NAME_EN" : "LINDEN SCHOOL",
				"ADDRESS_EN" : "T80-81, P/F, 6A HUMBERT STREET, MEI FOO SUN CHUEN, KOWLOON",
				"NAME_TC" : "博睿學校",
				"ADDRESS_TC" : "九龍美孚新邨第六期恆柏道6A平台T80-81",
				"SEARCH01_EN" : "CO-ED",
				"SEARCH01_TC" : "男女",
				"SEARCH02_EN" : "WHOLE DAY",
				"SEARCH02_TC" : "全日",
				"SEARCH03_EN" : "SHAM SHUI PO",
				"SEARCH03_TC" : "深水埗區",
				"SEARCH04_EN" : "PRIMARY",
				"SEARCH04_TC" : "小學",
				"SEARCH05_EN" : "PRIVATE",
				"SEARCH05_TC" : "私立",
				"NSEARCH01_EN" : "Not Applicable",
				"NSEARCH01_TC" : "不適用",
				"NSEARCH02_EN" : "53456706",
				"NSEARCH02_TC" : "53456706",
				"NSEARCH03_EN" : null,
				"NSEARCH03_TC" : null,
				"NSEARCH04_EN" : "https://www.lindenwaldorf.edu.hk",
				"NSEARCH04_TC" : "https://www.lindenwaldorf.edu.hk",
				"NSEARCH05_EN" : "626902000123",
				"NSEARCH05_TC" : "626902000123",
				"NORTHING" : 822176.04266533,
				"EASTING" : 832464.39020488,
				"LATITUDE" : 22.3386492,
				"LONGITUDE" : 114.13995158,
				"LASTUPDATE" : "20260302133221"
			}
		},
		{
			"type" : "Feature",
			"geometry" : {
				"type" : "Point",
				"coordinates" : [ 114.0021927161, 22.4544563451 ]
			},
			"properties" : {
				"OBJECTID" : 13,
				"DATASET_EN" : "Private Primary Schools",
				"DATASET_TC" : "私立小學",
				"NAME_EN" : "ZENITH ENGLISH PRIMARY SCHOOL",
				"ADDRESS_EN" : "1/F SHERWOOD COURT KINGSWOOD VILLAS LOT NO TSWTL 2 RP TIN SHUI WAI YUEN LONG NEW TERRITORIES",
				"NAME_TC" : "英藝英文小學",
				"ADDRESS_TC" : "新界元朗天水圍天水圍市地段第2號餘段嘉湖山莊賞湖居1樓",
				"SEARCH01_EN" : "CO-ED",
				"SEARCH01_TC" : "男女",
				"SEARCH02_EN" : "WHOLE DAY",
				"SEARCH02_TC" : "全日",
				"SEARCH03_EN" : "YUEN LONG",
				"SEARCH03_TC" : "元朗區",
				"SEARCH04_EN" : "PRIMARY",
				"SEARCH04_TC" : "小學",
				"SEARCH05_EN" : "PRIVATE",
				"SEARCH05_TC" : "私立",
				"NSEARCH01_EN" : "NOT APPLICABLE",
				"NSEARCH01_TC" : "不適用",
				"NSEARCH02_EN" : "26901828",
				"NSEARCH02_TC" : "26901828",
				"NSEARCH03_EN" : "26901028",
				"NSEARCH03_TC" : "26901028",
				"NSEARCH04_EN" : "https://zenithkindergarten.edu.hk",
				"NSEARCH04_TC" : "https://zenithkindergarten.edu.hk",
				"NSEARCH05_EN" : "598062000123",
				"NSEARCH05_TC" : "598062000123",
				"NORTHING" : 835010,
				"EASTING" : 818288,
				"LATITUDE" : 22.45445605,
				"LONGITUDE" : 114.00219271,
				"LASTUPDATE" : "20251231151027"
			}
		},
		{
			"type" : "Feature",
			"geometry" : {
				"type" : "Point",
				"coordinates" : [ 114.172322322, 22.3174674862 ]
			},
			"properties" : {
				"OBJECTID" : 14,
				"DATASET_EN" : "Private Primary Schools",
				"DATASET_TC" : "私立小學",
				"NAME_EN" : "VNSAA ST. HILARY'S SCHOOL",
				"ADDRESS_EN" : "KIL 6719, SAI YEE STREET, KOWLOON",
				"NAME_TC" : "漢師德萃學校",
				"ADDRESS_TC" : "九龍洗衣街九龍內地段6719號",
				"SEARCH01_EN" : "CO-ED",
				"SEARCH01_TC" : "男女",
				"SEARCH02_EN" : "WHOLE DAY",
				"SEARCH02_TC" : "全日",
				"SEARCH03_EN" : "YAU TSIM MONG",
				"SEARCH03_TC" : "油尖旺區",
				"SEARCH04_EN" : "PRIMARY",
				"SEARCH04_TC" : "小學",
				"SEARCH05_EN" : "PRIVATE",
				"SEARCH05_TC" : "私立",
				"NSEARCH01_EN" : "NOT APPLICABLE",
				"NSEARCH01_TC" : "不適用",
				"NSEARCH02_EN" : "23162108",
				"NSEARCH02_TC" : "23162108",
				"NSEARCH03_EN" : "23329557",
				"NSEARCH03_TC" : "23329557",
				"NSEARCH04_EN" : "http://www.vnsaasthilarys.edu.hk",
				"NSEARCH04_TC" : "http://www.vnsaasthilarys.edu.hk",
				"NSEARCH05_EN" : "130060000123",
				"NSEARCH05_TC" : "130060000123",
				"NORTHING" : 819830,
				"EASTING" : 835799,
				"LATITUDE" : 22.31746719,
				"LONGITUDE" : 114.17232232,
				"LASTUPDATE" : "20251215125548"
			}
		},
		{
			"type" : "Feature",
			"geometry" : {
				"type" : "Point",
				"coordinates" : [ 114.1676745295, 22.4458994189 ]
			},
			"properties" : {
				"OBJECTID" : 15,
				"DATASET_EN" : "Private Primary Schools",
				"DATASET_TC" : "私立小學",
				"NAME_EN" : "ST. HILARY'S PRIMARY SCHOOL",
				"ADDRESS_EN" : "BLOCK A, 760R.P., 6 WAN TAU STREET, TAIPO, NEW TERRITORIES",
				"NAME_TC" : "德萃小學",
				"ADDRESS_TC" : "新界大埔運頭街6號第760號餘段A座教學大樓",
				"SEARCH01_EN" : "CO-ED",
				"SEARCH01_TC" : "男女",
				"SEARCH02_EN" : "WHOLE DAY",
				"SEARCH02_TC" : "全日",
				"SEARCH03_EN" : "TAI PO",
				"SEARCH03_TC" : "大埔區",
				"SEARCH04_EN" : "PRIMARY",
				"SEARCH04_TC" : "小學",
				"SEARCH05_EN" : "PRIVATE",
				"SEARCH05_TC" : "私立",
				"NSEARCH01_EN" : "N.A.",
				"NSEARCH01_TC" : "N.A.",
				"NSEARCH02_EN" : "23387109",
				"NSEARCH02_TC" : "23387109",
				"NSEARCH03_EN" : "26382529",
				"NSEARCH03_TC" : "26382529",
				"NSEARCH04_EN" : "https://www.sthilarys.edu.hk/home-default",
				"NSEARCH04_TC" : "https://www.sthilarys.edu.hk/home-default",
				"NSEARCH05_EN" : "603600000123",
				"NSEARCH05_TC" : "603600000123",
				"NORTHING" : 834052,
				"EASTING" : 835321,
				"LATITUDE" : 22.44589912,
				"LONGITUDE" : 114.16767453,
				"LASTUPDATE" : "20251215124741"
			}
		},
		{
			"type" : "Feature",
			"geometry" : {
				"type" : "Point",
				"coordinates" : [ 114.1484016537, 22.3445658295 ]
			},
			"properties" : {
				"OBJECTID" : 16,
				"DATASET_EN" : "Private Primary Schools",
				"DATASET_TC" : "私立小學",
				"NAME_EN" : "PO LEUNG KUK CHOI KAI YAU SCHOOL",
				"ADDRESS_EN" : "NO. 6 CALDECOTT ROAD SHAMSHUIPO KOWLOON",
				"NAME_TC" : "保良局蔡繼有學校",
				"ADDRESS_TC" : "九龍深水埗郝德傑道6號",
				"SEARCH01_EN" : "CO-ED",
				"SEARCH01_TC" : "男女",
				"SEARCH02_EN" : "WHOLE DAY",
				"SEARCH02_TC" : "全日",
				"SEARCH03_EN" : "SHAM SHUI PO",
				"SEARCH03_TC" : "深水埗區",
				"SEARCH04_EN" : "PRIMARY",
				"SEARCH04_TC" : "小學",
				"SEARCH05_EN" : "PRIVATE INDEPENDENT SCH SCHEME",
				"SEARCH05_TC" : "私立獨立學校計劃",
				"NSEARCH01_EN" : "NOT APPLICABLE",
				"NSEARCH01_TC" : "不適用",
				"NSEARCH02_EN" : "21482052",
				"NSEARCH02_TC" : "21482052",
				"NSEARCH03_EN" : "29589797",
				"NSEARCH03_TC" : "29589797",
				"NSEARCH04_EN" : "http://www.cky.edu.hk",
				"NSEARCH04_TC" : "http://www.cky.edu.hk",
				"NSEARCH05_EN" : "543560000423",
				"NSEARCH05_TC" : "543560000423",
				"NORTHING" : 822831,
				"EASTING" : 833335,
				"LATITUDE" : 22.34456554,
				"LONGITUDE" : 114.14840165,
				"LASTUPDATE" : "20251215124236"
			}
		},
		{
			"type" : "Feature",
			"geometry" : {
				"type" : "Point",
				"coordinates" : [ 114.263159849, 22.3027156633 ]
			},
			"properties" : {
				"OBJECTID" : 17,
				"DATASET_EN" : "Private Primary Schools",
				"DATASET_TC" : "私立小學",
				"NAME_EN" : "INVICTUS SCHOOL",
				"ADDRESS_EN" : "SHOP G29, G/F. & SHOPS 123-132, 1/F., MONTEREY PLACE, 23 TONG CHUN STREET, TSEUNG KWAN O, NEW TERRITORIES",
				"NAME_TC" : "INVICTUS SCHOOL",
				"ADDRESS_TC" : "新界將軍澳唐俊街23號MONTEREY PLACE地下G29號舖及1樓123—132號舖",
				"SEARCH01_EN" : "CO-ED",
				"SEARCH01_TC" : "男女",
				"SEARCH02_EN" : "WHOLE DAY",
				"SEARCH02_TC" : "全日",
				"SEARCH03_EN" : "SAI KUNG",
				"SEARCH03_TC" : "西貢區",
				"SEARCH04_EN" : "PRIMARY",
				"SEARCH04_TC" : "小學",
				"SEARCH05_EN" : "PRIVATE",
				"SEARCH05_TC" : "私立",
				"NSEARCH01_EN" : "NOT APPLICABLE",
				"NSEARCH01_TC" : "不適用",
				"NSEARCH02_EN" : "36431868",
				"NSEARCH02_TC" : "36431868",
				"NSEARCH03_EN" : "N.A.",
				"NSEARCH03_TC" : "N.A.",
				"NSEARCH04_EN" : "http://www.invictus.edu.hk/tko",
				"NSEARCH04_TC" : "http://www.invictus.edu.hk/tko",
				"NSEARCH05_EN" : "615285000123",
				"NSEARCH05_TC" : "615285000123",
				"NORTHING" : 818199,
				"EASTING" : 845159,
				"LATITUDE" : 22.30271537,
				"LONGITUDE" : 114.26315984,
				"LASTUPDATE" : "20251215123756"
			}
		},
		{
			"type" : "Feature",
			"geometry" : {
				"type" : "Point",
				"coordinates" : [ 114.1826904246, 22.263937314 ]
			},
			"properties" : {
				"OBJECTID" : 18,
				"DATASET_EN" : "Private Primary Schools",
				"DATASET_TC" : "私立小學",
				"NAME_EN" : "DALTON SCHOOL HONG KONG",
				"ADDRESS_EN" : "PART OF LG/F., PART OF G/F. AND PART OF 2/F.-5/F., 41B STUBBS ROAD, WAN CHAI, HONG KONG",
				"NAME_TC" : "香港道爾頓學校",
				"ADDRESS_TC" : "香港灣仔司徒拔道41B號低層地下部分、地下部分及2至5樓部分",
				"SEARCH01_EN" : "CO-ED",
				"SEARCH01_TC" : "男女",
				"SEARCH02_EN" : "WHOLE DAY",
				"SEARCH02_TC" : "全日",
				"SEARCH03_EN" : "WAN CHAI",
				"SEARCH03_TC" : "灣仔區",
				"SEARCH04_EN" : "PRIMARY",
				"SEARCH04_TC" : "小學",
				"SEARCH05_EN" : "PRIVATE",
				"SEARCH05_TC" : "私立",
				"NSEARCH01_EN" : "NOT APPLICABLE",
				"NSEARCH01_TC" : "不適用",
				"NSEARCH02_EN" : "3612 4660",
				"NSEARCH02_TC" : "3612 4660",
				"NSEARCH03_EN" : "3612 4666",
				"NSEARCH03_TC" : "3612 4666",
				"NSEARCH04_EN" : "https://dshk.edu.hk",
				"NSEARCH04_TC" : "https://dshk.edu.hk",
				"NSEARCH05_EN" : "607371000223",
				"NSEARCH05_TC" : "607371000223",
				"NORTHING" : 813902.37907204,
				"EASTING" : 836867.46397486,
				"LATITUDE" : 22.26393702,
				"LONGITUDE" : 114.18269042,
				"LASTUPDATE" : "20251215123644"
			}
		},
		{
			"type" : "Feature",
			"geometry" : {
				"type" : "Point",
				"coordinates" : [ 114.1677307089, 22.3290806324 ]
			},
			"properties" : {
				"OBJECTID" : 19,
				"DATASET_EN" : "Private Primary Schools",
				"DATASET_TC" : "私立小學",
				"NAME_EN" : "TSUNG TSIN PRIMARY SCHOOL AND KINDERGARTEN",
				"ADDRESS_EN" : "EAST WING ACADEMIC BUILDING, 58 TAI PO ROAD, KOWLOON",
				"NAME_TC" : "崇真小學暨幼稚園",
				"ADDRESS_TC" : "九龍大埔道58號東翼教學大樓",
				"SEARCH01_EN" : "CO-ED",
				"SEARCH01_TC" : "男女",
				"SEARCH02_EN" : "WHOLE DAY",
				"SEARCH02_TC" : "全日",
				"SEARCH03_EN" : "SHAM SHUI PO",
				"SEARCH03_TC" : "深水埗區",
				"SEARCH04_EN" : "PRIMARY",
				"SEARCH04_TC" : "小學",
				"SEARCH05_EN" : "PRIVATE",
				"SEARCH05_TC" : "私立",
				"NSEARCH01_EN" : "PROTESTANTISM / CHRISTIANITY",
				"NSEARCH01_TC" : "基督教",
				"NSEARCH02_EN" : "27773679",
				"NSEARCH02_TC" : "27773679",
				"NSEARCH03_EN" : "27777256",
				"NSEARCH03_TC" : "27777256",
				"NSEARCH04_EN" : "http://www.ttpskg.edu.hk",
				"NSEARCH04_TC" : "http://www.ttpskg.edu.hk",
				"NSEARCH05_EN" : "514659000123",
				"NSEARCH05_TC" : "514659000123",
				"NORTHING" : 821116,
				"EASTING" : 835326,
				"LATITUDE" : 22.32908063,
				"LONGITUDE" : 114.16773071,
				"LASTUPDATE" : "20251215123311"
			}
		},
		{
			"type" : "Feature",
			"geometry" : {
				"type" : "Point",
				"coordinates" : [ 114.1759231832, 22.3180364739 ]
			},
			"properties" : {
				"OBJECTID" : 20,
				"DATASET_EN" : "Private Primary Schools",
				"DATASET_TC" : "私立小學",
				"NAME_EN" : "PUI CHING PRIMARY SCHOOL",
				"ADDRESS_EN" : "80 WATERLOO ROAD, B2-15/F. AND ROOF, BLOCK K, 5/F.-ROOF GARDEN, BLOCK A & KIL 3056, PUI CHING ROAD (EXCLUDING BLOCKS E & G) KOWLOON",
				"NAME_TC" : "香港培正小學",
				"ADDRESS_TC" : "九龍窩打老道80號K座地庫2層至15樓及A座5樓至天台花園及培正道九龍內地段3056(不包括E座及G座)",
				"SEARCH01_EN" : "CO-ED",
				"SEARCH01_TC" : "男女",
				"SEARCH02_EN" : "WHOLE DAY",
				"SEARCH02_TC" : "全日",
				"SEARCH03_EN" : "KOWLOON CITY",
				"SEARCH03_TC" : "九龍城區",
				"SEARCH04_EN" : "PRIMARY",
				"SEARCH04_TC" : "小學",
				"SEARCH05_EN" : "PRIVATE",
				"SEARCH05_TC" : "私立",
				"NSEARCH01_EN" : "PROTESTANTISM / CHRISTIANITY",
				"NSEARCH01_TC" : "基督教",
				"NSEARCH02_EN" : "27142562",
				"NSEARCH02_TC" : "27142562",
				"NSEARCH03_EN" : "27609717",
				"NSEARCH03_TC" : "27609717",
				"NSEARCH04_EN" : "http://www.pcps.edu.hk",
				"NSEARCH04_TC" : "http://www.pcps.edu.hk",
				"NSEARCH05_EN" : "513350000123",
				"NSEARCH05_TC" : "513350000123",
				"NORTHING" : 819893,
				"EASTING" : 836170,
				"LATITUDE" : 22.31803618,
				"LONGITUDE" : 114.17592318,
				"LASTUPDATE" : "20251215123158"
			}
		},
		{
			"type" : "Feature",
			"geometry" : {
				"type" : "Point",
				"coordinates" : [ 114.1665366745, 22.3306880047 ]
			},
			"properties" : {
				"OBJECTID" : 21,
				"DATASET_EN" : "Private Primary Schools",
				"DATASET_TC" : "私立小學",
				"NAME_EN" : "ST. FRANCIS OF ASSISI'S ENGLISH PRIMARY SCHOOL",
				"ADDRESS_EN" : "58 SHEK KIP MEI STREET, SHAM SHUI PO, KOWLOON",
				"NAME_TC" : "聖方濟各英文小學",
				"ADDRESS_TC" : "九龍石硤尾街58號",
				"SEARCH01_EN" : "CO-ED",
				"SEARCH01_TC" : "男女",
				"SEARCH02_EN" : "WHOLE DAY",
				"SEARCH02_TC" : "全日",
				"SEARCH03_EN" : "SHAM SHUI PO",
				"SEARCH03_TC" : "深水埗區",
				"SEARCH04_EN" : "PRIMARY",
				"SEARCH04_TC" : "小學",
				"SEARCH05_EN" : "PRIVATE",
				"SEARCH05_TC" : "私立",
				"NSEARCH01_EN" : "CATHOLICISM",
				"NSEARCH01_TC" : "天主教",
				"NSEARCH02_EN" : "27797654",
				"NSEARCH02_TC" : "27797654",
				"NSEARCH03_EN" : "27769710",
				"NSEARCH03_TC" : "27769710",
				"NSEARCH04_EN" : "http://www.sfaeps.edu.hk",
				"NSEARCH04_TC" : "http://www.sfaeps.edu.hk",
				"NSEARCH05_EN" : "133566000123",
				"NSEARCH05_TC" : "133566000123",
				"NORTHING" : 821294,
				"EASTING" : 835203,
				"LATITUDE" : 22.33068771,
				"LONGITUDE" : 114.16653667,
				"LASTUPDATE" : "20251126152232"
			}
		},
		{
			"type" : "Feature",
			"geometry" : {
				"type" : "Point",
				"coordinates" : [ 114.1492678514, 22.2838622903 ]
			},
			"properties" : {
				"OBJECTID" : 22,
				"DATASET_EN" : "Private Primary Schools",
				"DATASET_TC" : "私立小學",
				"NAME_EN" : "YMCA CHRISTIAN ACADEMY",
				"ADDRESS_EN" : "70 BRIDGES STREET, HONG KONG",
				"NAME_TC" : "中華基督教青年會基雋小學",
				"ADDRESS_TC" : "香港必列者士街70號",
				"SEARCH01_EN" : "CO-ED",
				"SEARCH01_TC" : "男女",
				"SEARCH02_EN" : "WHOLE DAY",
				"SEARCH02_TC" : "全日",
				"SEARCH03_EN" : "CENTRAL AND WESTERN",
				"SEARCH03_TC" : "中西區",
				"SEARCH04_EN" : "PRIMARY",
				"SEARCH04_TC" : "小學",
				"SEARCH05_EN" : "PRIVATE",
				"SEARCH05_TC" : "私立",
				"NSEARCH01_EN" : "PROTESTANTISM / CHRISTIANITY",
				"NSEARCH01_TC" : "基督教",
				"NSEARCH02_EN" : "25372552",
				"NSEARCH02_TC" : "25372552",
				"NSEARCH03_EN" : "28587271",
				"NSEARCH03_TC" : "28587271",
				"NSEARCH04_EN" : "https://yca.edu.hk",
				"NSEARCH04_TC" : "https://yca.edu.hk",
				"NSEARCH05_EN" : "589055000123",
				"NSEARCH05_TC" : "589055000123",
				"NORTHING" : 816109,
				"EASTING" : 833423,
				"LATITUDE" : 22.28386229,
				"LONGITUDE" : 114.14926785,
				"LASTUPDATE" : "20251031133902"
			}
		},
		{
			"type" : "Feature",
			"geometry" : {
				"type" : "Point",
				"coordinates" : [ 113.979434777, 22.3959399653 ]
			},
			"properties" : {
				"OBJECTID" : 23,
				"DATASET_EN" : "Private Primary Schools",
				"DATASET_TC" : "私立小學",
				"NAME_EN" : "R.T.C. GAIA SCHOOL",
				"ADDRESS_EN" : "DD 131, TSENG TAU SHEUNG TSUEN, SAN HUI, TUEN MUN, NEW TERRITORIIES",
				"NAME_TC" : "鄉師自然學校",
				"ADDRESS_TC" : "新界屯門新墟井頭上村131地段",
				"SEARCH01_EN" : "CO-ED",
				"SEARCH01_TC" : "男女",
				"SEARCH02_EN" : "WHOLE DAY",
				"SEARCH02_TC" : "全日",
				"SEARCH03_EN" : "TUEN MUN",
				"SEARCH03_TC" : "屯門區",
				"SEARCH04_EN" : "PRIMARY",
				"SEARCH04_TC" : "小學",
				"SEARCH05_EN" : "PRIVATE",
				"SEARCH05_TC" : "私立",
				"NSEARCH01_EN" : "NOT APPLICABLE",
				"NSEARCH01_TC" : "不適用",
				"NSEARCH02_EN" : "26500588",
				"NSEARCH02_TC" : "26500588",
				"NSEARCH03_EN" : "26509698",
				"NSEARCH03_TC" : "26509698",
				"NSEARCH04_EN" : "http://www.gaiaschool.edu.hk",
				"NSEARCH04_TC" : "http://www.gaiaschool.edu.hk",
				"NSEARCH05_EN" : "112720000123",
				"NSEARCH05_TC" : "112720000123",
				"NORTHING" : 828533,
				"EASTING" : 815937,
				"LATITUDE" : 22.39593997,
				"LONGITUDE" : 113.97943478,
				"LASTUPDATE" : "20250901112906"
			}
		},
		{
			"type" : "Feature",
			"geometry" : {
				"type" : "Point",
				"coordinates" : [ 114.2945622304, 22.3923602457 ]
			},
			"properties" : {
				"OBJECTID" : 24,
				"DATASET_EN" : "Private Primary Schools",
				"DATASET_TC" : "私立小學",
				"NAME_EN" : "FOREST HOUSE WALDORF SCHOOL",
				"ADDRESS_EN" : "COMMERCIAL DEVELOPMENT, FLORAL VILLAS, 18 TSO WO ROAD, SAI KUNG, NEW TERRITORIES",
				"NAME_TC" : "樹宏學校",
				"ADDRESS_TC" : "新界西貢早禾路18號早禾居商場",
				"SEARCH01_EN" : "CO-ED",
				"SEARCH01_TC" : "男女",
				"SEARCH02_EN" : "WHOLE DAY",
				"SEARCH02_TC" : "全日",
				"SEARCH03_EN" : "SAI KUNG",
				"SEARCH03_TC" : "西貢區",
				"SEARCH04_EN" : "PRIMARY",
				"SEARCH04_TC" : "小學",
				"SEARCH05_EN" : "PRIVATE",
				"SEARCH05_TC" : "私立",
				"NSEARCH01_EN" : "NOT APPLICABLE",
				"NSEARCH01_TC" : "不適用",
				"NSEARCH02_EN" : "27926055",
				"NSEARCH02_TC" : "27926055",
				"NSEARCH03_EN" : "N.A.",
				"NSEARCH03_TC" : "N.A.",
				"NSEARCH04_EN" : "http://www.foresthouse.edu.hk",
				"NSEARCH04_TC" : "http://www.foresthouse.edu.hk",
				"NSEARCH05_EN" : "596140000123",
				"NSEARCH05_TC" : "596140000123",
				"NORTHING" : 828128,
				"EASTING" : 848387,
				"LATITUDE" : 22.39235995,
				"LONGITUDE" : 114.29456223,
				"LASTUPDATE" : "20250815152034"
			}
		},
		{
			"type" : "Feature",
			"geometry" : {
				"type" : "Point",
				"coordinates" : [ 114.2710836063, 22.3240776359 ]
			},
			"properties" : {
				"OBJECTID" : 25,
				"DATASET_EN" : "Private Primary Schools",
				"DATASET_TC" : "私立小學",
				"NAME_EN" : "GARDEN HOUSE WALDORF SCHOOL",
				"ADDRESS_EN" : "PORTION OF 1/F., SILVERSTRAND SHOPPING CENTRE, 7 SILVERSTRAND BEACH ROAD, CLEARWATER BAY, NEW TERRITORIES",
				"NAME_TC" : "花園華德福學校",
				"ADDRESS_TC" : "新界清水灣銀線灣道7號銀線灣商場1樓部份",
				"SEARCH01_EN" : "CO-ED",
				"SEARCH01_TC" : "男女",
				"SEARCH02_EN" : "WHOLE DAY",
				"SEARCH02_TC" : "全日",
				"SEARCH03_EN" : "SAI KUNG",
				"SEARCH03_TC" : "西貢區",
				"SEARCH04_EN" : "PRIMARY",
				"SEARCH04_TC" : "小學",
				"SEARCH05_EN" : "PRIVATE",
				"SEARCH05_TC" : "私立",
				"NSEARCH01_EN" : "NOT APPLICABLE",
				"NSEARCH01_TC" : "不適用",
				"NSEARCH02_EN" : null,
				"NSEARCH02_TC" : null,
				"NSEARCH03_EN" : null,
				"NSEARCH03_TC" : null,
				"NSEARCH04_EN" : "http://www.gardenhouse.edu.hk",
				"NSEARCH04_TC" : "http://www.gardenhouse.edu.hk",
				"NSEARCH05_EN" : "620548000123",
				"NSEARCH05_TC" : "620548000123",
				"NORTHING" : 820565,
				"EASTING" : 845974,
				"LATITUDE" : 22.32407734,
				"LONGITUDE" : 114.2710836,
				"LASTUPDATE" : "20250328115741"
			}
		},
		{
			"type" : "Feature",
			"geometry" : {
				"type" : "Point",
				"coordinates" : [ 114.1863865365, 22.3242131201 ]
			},
			"properties" : {
				"OBJECTID" : 26,
				"DATASET_EN" : "Private Primary Schools",
				"DATASET_TC" : "私立小學",
				"NAME_EN" : "POOI TO PRIMARY SCHOOL",
				"ADDRESS_EN" : "3 FUK CHEUNG STREET, MA TAU CHUNG, KOWLOON (INCLUDING EXTENSION BLOCK ADJACENT TO THE EXISTING STAIRCASE NO 2 AND EXTENSION BLOCK (G/F-ROOF) AT OPEN PLAYGROUND K I L 8638 AND NEW SCHOOL BUILDING)",
				"NAME_TC" : "香港培道小學",
				"ADDRESS_TC" : "九龍馬頭涌福祥街3號(包括2號樓梯旁加建校舍及露天遊戲場內的加建校舍(地下至天台)九龍內段8638號及新教育大樓)",
				"SEARCH01_EN" : "CO-ED",
				"SEARCH01_TC" : "男女",
				"SEARCH02_EN" : "WHOLE DAY",
				"SEARCH02_TC" : "全日",
				"SEARCH03_EN" : "KOWLOON CITY",
				"SEARCH03_TC" : "九龍城區",
				"SEARCH04_EN" : "PRIMARY",
				"SEARCH04_TC" : "小學",
				"SEARCH05_EN" : "PRIVATE",
				"SEARCH05_TC" : "私立",
				"NSEARCH01_EN" : "PROTESTANTISM / CHRISTIANITY",
				"NSEARCH01_TC" : "基督教",
				"NSEARCH02_EN" : "27112933",
				"NSEARCH02_TC" : "27112933",
				"NSEARCH03_EN" : "27613568",
				"NSEARCH03_TC" : "27613568",
				"NSEARCH04_EN" : "http://www.ptps.edu.hk",
				"NSEARCH04_TC" : "http://www.ptps.edu.hk",
				"NSEARCH05_EN" : "324477000123",
				"NSEARCH05_TC" : "324477000123",
				"NORTHING" : 820577,
				"EASTING" : 837248,
				"LATITUDE" : 22.32421283,
				"LONGITUDE" : 114.18638653,
				"LASTUPDATE" : "20241025173402"
			}
		},
		{
			"type" : "Feature",
			"geometry" : {
				"type" : "Point",
				"coordinates" : [ 114.1959597811, 22.3449735704 ]
			},
			"properties" : {
				"OBJECTID" : 27,
				"DATASET_EN" : "Private Primary Schools",
				"DATASET_TC" : "私立小學",
				"NAME_EN" : "OUR LADY'S PRIMARY SCHOOL",
				"ADDRESS_EN" : "116 SHATIN PASS ROAD, WONG TAI SIN, KOWLOON",
				"NAME_TC" : "聖母小學",
				"ADDRESS_TC" : "九龍黃大仙沙田㘭道116號",
				"SEARCH01_EN" : "GIRLS",
				"SEARCH01_TC" : "女",
				"SEARCH02_EN" : "WHOLE DAY",
				"SEARCH02_TC" : "全日",
				"SEARCH03_EN" : "WONG TAI SIN",
				"SEARCH03_TC" : "黃大仙區",
				"SEARCH04_EN" : "PRIMARY",
				"SEARCH04_TC" : "小學",
				"SEARCH05_EN" : "PRIVATE",
				"SEARCH05_TC" : "私立",
				"NSEARCH01_EN" : "CATHOLICISM",
				"NSEARCH01_TC" : "天主教",
				"NSEARCH02_EN" : "23230938",
				"NSEARCH02_TC" : "23230938",
				"NSEARCH03_EN" : "27528493",
				"NSEARCH03_TC" : "27528493",
				"NSEARCH04_EN" : "http://www.olps.edu.hk",
				"NSEARCH04_TC" : "http://www.olps.edu.hk",
				"NSEARCH05_EN" : "528617000123",
				"NSEARCH05_TC" : "528617000123",
				"NORTHING" : 822876,
				"EASTING" : 838234,
				"LATITUDE" : 22.34497357,
				"LONGITUDE" : 114.19595978,
				"LASTUPDATE" : "20241025173017"
			}
		},
		{
			"type" : "Feature",
			"geometry" : {
				"type" : "Point",
				"coordinates" : [ 114.1859389913, 22.3079490387 ]
			},
			"properties" : {
				"OBJECTID" : 28,
				"DATASET_EN" : "Private Primary Schools",
				"DATASET_TC" : "私立小學",
				"NAME_EN" : "AOI PUI SCHOOL",
				"ADDRESS_EN" : "PLAYGROUND ON G/F., CLASSROOM F, STAFF ROOM & STAFF COMMON ROOM ON 1/F., PORTION OF 1/F.,CLASSROOM C-D & MUSIC/COMPUTER ROOM ON 2/F., PORTION OF 3/F. CLASSROOM A-B ON 3/F., MUSIC ROOM, REMEDIAL TEACHING ROOM 1 & 2 STORE ROOMS ON 4/F., PORTION OF 4/F.16 STATION LANE, HUNG HOM, KOWLOON",
				"NAME_TC" : "愛培學校",
				"ADDRESS_TC" : "九龍紅磡差館里16號地下操場，1樓課室F，教員室及教員休息室，1樓部分，2樓課室C-D及音樂／電腦室，2樓部分，3樓課室A-B，3樓部分，4樓音樂室，4樓部分，輔導教學室1及2間儲物室",
				"SEARCH01_EN" : "CO-ED",
				"SEARCH01_TC" : "男女",
				"SEARCH02_EN" : "WHOLE DAY",
				"SEARCH02_TC" : "全日",
				"SEARCH03_EN" : "KOWLOON CITY",
				"SEARCH03_TC" : "九龍城區",
				"SEARCH04_EN" : "PRIMARY",
				"SEARCH04_TC" : "小學",
				"SEARCH05_EN" : "PRIVATE",
				"SEARCH05_TC" : "私立",
				"NSEARCH01_EN" : "NOT APPLICABLE",
				"NSEARCH01_TC" : "不適用",
				"NSEARCH02_EN" : "36198379",
				"NSEARCH02_TC" : "36198379",
				"NSEARCH03_EN" : null,
				"NSEARCH03_TC" : null,
				"NSEARCH04_EN" : "https://aoipuischool.hk",
				"NSEARCH04_TC" : "https://aoipuischool.hk",
				"NSEARCH05_EN" : "571130000323",
				"NSEARCH05_TC" : "571130000323",
				"NORTHING" : 818776,
				"EASTING" : 837202,
				"LATITUDE" : 22.30794875,
				"LONGITUDE" : 114.18593899,
				"LASTUPDATE" : "20240909135215"
			}
		},
		{
			"type" : "Feature",
			"geometry" : {
				"type" : "Point",
				"coordinates" : [ 114.1646239327, 22.4477956119 ]
			},
			"properties" : {
				"OBJECTID" : 29,
				"DATASET_EN" : "Private Primary Schools",
				"DATASET_TC" : "私立小學",
				"NAME_EN" : "SPANISH SCHOOL OF HONG KONG",
				"ADDRESS_EN" : "NOS. 9 AND 11, SHUNG TAK STREET, TAI PO, NEW TERRITORIES",
				"NAME_TC" : "香港西班牙學校",
				"ADDRESS_TC" : "新界大埔祟德街9及11號",
				"SEARCH01_EN" : "CO-ED",
				"SEARCH01_TC" : "男女",
				"SEARCH02_EN" : "WHOLE DAY",
				"SEARCH02_TC" : "全日",
				"SEARCH03_EN" : "TAI PO",
				"SEARCH03_TC" : "大埔區",
				"SEARCH04_EN" : "PRIMARY",
				"SEARCH04_TC" : "小學",
				"SEARCH05_EN" : "PRIVATE",
				"SEARCH05_TC" : "私立",
				"NSEARCH01_EN" : null,
				"NSEARCH01_TC" : null,
				"NSEARCH02_EN" : "39551589",
				"NSEARCH02_TC" : "39551589",
				"NSEARCH03_EN" : "39569013",
				"NSEARCH03_TC" : "39569013",
				"NSEARCH04_EN" : "https://sshk.edu.hk",
				"NSEARCH04_TC" : "https://sshk.edu.hk",
				"NSEARCH05_EN" : "609498000223",
				"NSEARCH05_TC" : "609498000223",
				"NORTHING" : 834262,
				"EASTING" : 835007,
				"LATITUDE" : 22.44779532,
				"LONGITUDE" : 114.16462393,
				"LASTUPDATE" : "20240909125818"
			}
		},
		{
			"type" : "Feature",
			"geometry" : {
				"type" : "Point",
				"coordinates" : [ 114.2048968576, 22.3262338238 ]
			},
			"properties" : {
				"OBJECTID" : 30,
				"DATASET_EN" : "Private Primary Schools",
				"DATASET_TC" : "私立小學",
				"NAME_EN" : "AP SCHOOL",
				"ADDRESS_EN" : "UNIT 01 AND 02, 2/F., SKYLINE TOWER, 39 WANG KWONG ROAD, KOWLOON BAY, KOWLOON",
				"NAME_TC" : "奧柏學校",
				"ADDRESS_TC" : "九龍九龍灣宏光道39號宏天廣場二樓01及02室",
				"SEARCH01_EN" : "CO-ED",
				"SEARCH01_TC" : "男女",
				"SEARCH02_EN" : "WHOLE DAY",
				"SEARCH02_TC" : "全日",
				"SEARCH03_EN" : "KWUN TONG",
				"SEARCH03_TC" : "觀塘區",
				"SEARCH04_EN" : "PRIMARY",
				"SEARCH04_TC" : "小學",
				"SEARCH05_EN" : "PRIVATE",
				"SEARCH05_TC" : "私立",
				"NSEARCH01_EN" : "NOT APPLICABLE",
				"NSEARCH01_TC" : "不適用",
				"NSEARCH02_EN" : null,
				"NSEARCH02_TC" : null,
				"NSEARCH03_EN" : null,
				"NSEARCH03_TC" : null,
				"NSEARCH04_EN" : "http://www.apschoolhk.edu.hk",
				"NSEARCH04_TC" : "http://www.apschoolhk.edu.hk",
				"NSEARCH05_EN" : "619957000123",
				"NSEARCH05_TC" : "619957000123",
				"NORTHING" : 820801,
				"EASTING" : 839155,
				"LATITUDE" : 22.32623353,
				"LONGITUDE" : 114.20489685,
				"LASTUPDATE" : "20240531112716"
			}
		},
		{
			"type" : "Feature",
			"geometry" : {
				"type" : "Point",
				"coordinates" : [ 114.2065272129, 22.4619079264 ]
			},
			"properties" : {
				"OBJECTID" : 31,
				"DATASET_EN" : "Private Primary Schools",
				"DATASET_TC" : "私立小學",
				"NAME_EN" : "SPANISH SCHOOL OF HONG KONG",
				"ADDRESS_EN" : "PORTION OF DD 26, LOT 989, SHUEN WAN, TAI PO, NEW TERRITORIES",
				"NAME_TC" : "香港西班牙學校",
				"ADDRESS_TC" : "新界大埔船灣丈量約份第26約地段第989號部分",
				"SEARCH01_EN" : "CO-ED",
				"SEARCH01_TC" : "男女",
				"SEARCH02_EN" : "WHOLE DAY",
				"SEARCH02_TC" : "全日",
				"SEARCH03_EN" : "TAI PO",
				"SEARCH03_TC" : "大埔區",
				"SEARCH04_EN" : "PRIMARY",
				"SEARCH04_TC" : "小學",
				"SEARCH05_EN" : "PRIVATE",
				"SEARCH05_TC" : "私立",
				"NSEARCH01_EN" : "NOT APPLICABLE",
				"NSEARCH01_TC" : "不適用",
				"NSEARCH02_EN" : "39551589",
				"NSEARCH02_TC" : "39551589",
				"NSEARCH03_EN" : "39569013",
				"NSEARCH03_TC" : "39569013",
				"NSEARCH04_EN" : "https://sshk.edu.hk",
				"NSEARCH04_TC" : "https://sshk.edu.hk",
				"NSEARCH05_EN" : "609498000123",
				"NSEARCH05_TC" : "609498000123",
				"NORTHING" : 835825,
				"EASTING" : 839320,
				"LATITUDE" : 22.46190763,
				"LONGITUDE" : 114.20652721,
				"LASTUPDATE" : "20240125124508"
			}
		},
		{
			"type" : "Feature",
			"geometry" : {
				"type" : "Point",
				"coordinates" : [ 114.0506789637, 22.4469340322 ]
			},
			"properties" : {
				"OBJECTID" : 32,
				"DATASET_EN" : "Private Primary Schools",
				"DATASET_TC" : "私立小學",
				"NAME_EN" : "ANCHORS ACADEMY",
				"ADDRESS_EN" : "1 KO PO PATH, KAM TIN NORTH, YUEN LONG, NEW TERRITORIES (EXCLUDING 2/F., ACADEMIC BLOCK AND NATATORIUM)",
				"NAME_TC" : "安基司學校",
				"ADDRESS_TC" : "新界元朗錦田北高埔徑1號(教學大樓2樓及游泳館除外)",
				"SEARCH01_EN" : "CO-ED",
				"SEARCH01_TC" : "男女",
				"SEARCH02_EN" : "WHOLE DAY",
				"SEARCH02_TC" : "全日",
				"SEARCH03_EN" : "YUEN LONG",
				"SEARCH03_TC" : "元朗區",
				"SEARCH04_EN" : "PRIMARY",
				"SEARCH04_TC" : "小學",
				"SEARCH05_EN" : "PRIVATE",
				"SEARCH05_TC" : "私立",
				"NSEARCH01_EN" : "NOT APPLICABLE",
				"NSEARCH01_TC" : "不適用",
				"NSEARCH02_EN" : "38605605",
				"NSEARCH02_TC" : "38605605",
				"NSEARCH03_EN" : null,
				"NSEARCH03_TC" : null,
				"NSEARCH04_EN" : "http://www.anchorsacademy.edu.hk/en/index.php?",
				"NSEARCH04_TC" : "http://www.anchorsacademy.edu.hk/en/index.php?",
				"NSEARCH05_EN" : "622079000123",
				"NSEARCH05_TC" : "622079000123",
				"NORTHING" : 834172,
				"EASTING" : 823278,
				"LATITUDE" : 22.44693374,
				"LONGITUDE" : 114.05067896,
				"LASTUPDATE" : "20231128124037"
			}
		},
		{
			"type" : "Feature",
			"geometry" : {
				"type" : "Point",
				"coordinates" : [ 114.1988332644, 22.3449280528 ]
			},
			"properties" : {
				"OBJECTID" : 33,
				"DATASET_EN" : "Private Primary Schools",
				"DATASET_TC" : "私立小學",
				"NAME_EN" : "AOG ST. HILARY'S COLLEGE",
				"ADDRESS_EN" : "91 PO KONG VILLAGE ROAD 2/F TO 6/F NKIL 5175 KOWLOON",
				"NAME_TC" : "神召會德萃書院",
				"ADDRESS_TC" : "91 PO KONG VILLAGE ROAD 2/F TO 6/F NKIL 5175 KOWLOON",
				"SEARCH01_EN" : "CO-ED",
				"SEARCH01_TC" : "男女",
				"SEARCH02_EN" : "WHOLE DAY",
				"SEARCH02_TC" : "全日",
				"SEARCH03_EN" : "WONG TAI SIN",
				"SEARCH03_TC" : "黃大仙區",
				"SEARCH04_EN" : "PRIMARY",
				"SEARCH04_TC" : "小學",
				"SEARCH05_EN" : "PRIVATE",
				"SEARCH05_TC" : "私立",
				"NSEARCH01_EN" : "PROTESTANTISM / CHRISTIANITY",
				"NSEARCH01_TC" : "基督教",
				"NSEARCH02_EN" : "23380701",
				"NSEARCH02_TC" : "23380701",
				"NSEARCH03_EN" : "23446238",
				"NSEARCH03_TC" : "23446238",
				"NSEARCH04_EN" : "http://www.aogsthilarys.edu.hk",
				"NSEARCH04_TC" : "http://www.aogsthilarys.edu.hk",
				"NSEARCH05_EN" : "216224000123",
				"NSEARCH05_TC" : "216224000123",
				"NORTHING" : 822871,
				"EASTING" : 838530,
				"LATITUDE" : 22.34492776,
				"LONGITUDE" : 114.19883326,
				"LASTUPDATE" : "20231124150418"
			}
		},
		{
			"type" : "Feature",
			"geometry" : {
				"type" : "Point",
				"coordinates" : [ 114.1935838808, 22.284550093 ]
			},
			"properties" : {
				"OBJECTID" : 34,
				"DATASET_EN" : "Private Primary Schools",
				"DATASET_TC" : "私立小學",
				"NAME_EN" : "HKCA PO LEUNG KUK SCHOOL",
				"ADDRESS_EN" : "62 TIN HAU TEMPLE ROAD, HONG KONG",
				"NAME_TC" : "保良局建造商會學校",
				"ADDRESS_TC" : "香港天后廟道62號",
				"SEARCH01_EN" : "CO-ED",
				"SEARCH01_TC" : "男女",
				"SEARCH02_EN" : "WHOLE DAY",
				"SEARCH02_TC" : "全日",
				"SEARCH03_EN" : "WAN CHAI",
				"SEARCH03_TC" : "灣仔區",
				"SEARCH04_EN" : "PRIMARY",
				"SEARCH04_TC" : "小學",
				"SEARCH05_EN" : "PRIVATE",
				"SEARCH05_TC" : "私立",
				"NSEARCH01_EN" : "NOT APPLICABLE",
				"NSEARCH01_TC" : "不適用",
				"NSEARCH02_EN" : "28071770",
				"NSEARCH02_TC" : "28071770",
				"NSEARCH03_EN" : "34658410",
				"NSEARCH03_TC" : "34658410",
				"NSEARCH04_EN" : "http://plkis.edu.hk",
				"NSEARCH04_TC" : "http://plkis.edu.hk",
				"NSEARCH05_EN" : "607290000123",
				"NSEARCH05_TC" : "607290000123",
				"NORTHING" : 816185,
				"EASTING" : 837990,
				"LATITUDE" : 22.2845498,
				"LONGITUDE" : 114.19358388,
				"LASTUPDATE" : "20231124150418"
			}
		},
		{
			"type" : "Feature",
			"geometry" : {
				"type" : "Point",
				"coordinates" : [ 114.1375551144, 22.2860001391 ]
			},
			"properties" : {
				"OBJECTID" : 35,
				"DATASET_EN" : "Private Primary Schools",
				"DATASET_TC" : "私立小學",
				"NAME_EN" : "ST. LOUIS SCHOOL (PRIMARY SECTION)",
				"ADDRESS_EN" : "BLOCK C 179 THIRD STREET HONG KONG",
				"NAME_TC" : "聖類斯中學(小學部)",
				"ADDRESS_TC" : "香港第三街179號C座",
				"SEARCH01_EN" : "BOYS",
				"SEARCH01_TC" : "男",
				"SEARCH02_EN" : "WHOLE DAY",
				"SEARCH02_TC" : "全日",
				"SEARCH03_EN" : "CENTRAL AND WESTERN",
				"SEARCH03_TC" : "中西區",
				"SEARCH04_EN" : "PRIMARY",
				"SEARCH04_TC" : "小學",
				"SEARCH05_EN" : "PRIVATE",
				"SEARCH05_TC" : "私立",
				"NSEARCH01_EN" : "CATHOLICISM",
				"NSEARCH01_TC" : "天主教",
				"NSEARCH02_EN" : "25472306",
				"NSEARCH02_TC" : "25472306",
				"NSEARCH03_EN" : "37434571",
				"NSEARCH03_TC" : "37434571",
				"NSEARCH04_EN" : "http://stlouisps.edu.hk",
				"NSEARCH04_TC" : "http://stlouisps.edu.hk",
				"NSEARCH05_EN" : "591904000123",
				"NSEARCH05_TC" : "591904000123",
				"NORTHING" : 816346,
				"EASTING" : 832216,
				"LATITUDE" : 22.28599985,
				"LONGITUDE" : 114.13755511,
				"LASTUPDATE" : "20231124150417"
			}
		},
		{
			"type" : "Feature",
			"geometry" : {
				"type" : "Point",
				"coordinates" : [ 114.1789417273, 22.3191743177 ]
			},
			"properties" : {
				"OBJECTID" : 36,
				"DATASET_EN" : "Private Primary Schools",
				"DATASET_TC" : "私立小學",
				"NAME_EN" : "STAMFORD AMERICAN SCHOOL HONG KONG",
				"ADDRESS_EN" : "25 MAN FUK ROAD, HO MAN TIN, KOWLOON",
				"NAME_TC" : "STAMFORD AMERICAN SCHOOL HONG KONG",
				"ADDRESS_TC" : "九龍何文田文福道25號",
				"SEARCH01_EN" : "CO-ED",
				"SEARCH01_TC" : "男女",
				"SEARCH02_EN" : "WHOLE DAY",
				"SEARCH02_TC" : "全日",
				"SEARCH03_EN" : "KOWLOON CITY",
				"SEARCH03_TC" : "九龍城區",
				"SEARCH04_EN" : "PRIMARY",
				"SEARCH04_TC" : "小學",
				"SEARCH05_EN" : "PRIVATE",
				"SEARCH05_TC" : "私立",
				"NSEARCH01_EN" : "NOT APPLICABLE",
				"NSEARCH01_TC" : "不適用",
				"NSEARCH02_EN" : "25008688",
				"NSEARCH02_TC" : "25008688",
				"NSEARCH03_EN" : "34674570",
				"NSEARCH03_TC" : "34674570",
				"NSEARCH04_EN" : "http://www.sais.edu.hk",
				"NSEARCH04_TC" : "http://www.sais.edu.hk",
				"NSEARCH05_EN" : "605638000123",
				"NSEARCH05_TC" : "605638000123",
				"NORTHING" : 820019,
				"EASTING" : 836481,
				"LATITUDE" : 22.31917402,
				"LONGITUDE" : 114.17894172,
				"LASTUPDATE" : "20231124150417"
			}
		},
		{
			"type" : "Feature",
			"geometry" : {
				"type" : "Point",
				"coordinates" : [ 114.2215573383, 22.3090448616 ]
			},
			"properties" : {
				"OBJECTID" : 37,
				"DATASET_EN" : "Private Primary Schools",
				"DATASET_TC" : "私立小學",
				"NAME_EN" : "SHEMA ACADEMY",
				"ADDRESS_EN" : "ROOM 201B & 201C, 2/F., KWUN TONG HARBOUR PLAZA, 182 WAI YIP STREET, KWUN TONG, KOWLOON",
				"NAME_TC" : "示昕學校",
				"ADDRESS_TC" : "九龍觀塘偉業街182號觀塘碼頭廣場二樓201B及201C室",
				"SEARCH01_EN" : "CO-ED",
				"SEARCH01_TC" : "男女",
				"SEARCH02_EN" : "WHOLE DAY",
				"SEARCH02_TC" : "全日",
				"SEARCH03_EN" : "KWUN TONG",
				"SEARCH03_TC" : "觀塘區",
				"SEARCH04_EN" : "PRIMARY",
				"SEARCH04_TC" : "小學",
				"SEARCH05_EN" : "PRIVATE",
				"SEARCH05_TC" : "私立",
				"NSEARCH01_EN" : "PROTESTANTISM / CHRISTIANITY",
				"NSEARCH01_TC" : "基督教",
				"NSEARCH02_EN" : "35860107/94444622",
				"NSEARCH02_TC" : "35860107/94444622",
				"NSEARCH03_EN" : "35860191",
				"NSEARCH03_TC" : "35860191",
				"NSEARCH04_EN" : "http://shema.edu.hk",
				"NSEARCH04_TC" : "http://shema.edu.hk",
				"NSEARCH05_EN" : "608327000123",
				"NSEARCH05_TC" : "608327000123",
				"NORTHING" : 818898,
				"EASTING" : 840872,
				"LATITUDE" : 22.30904457,
				"LONGITUDE" : 114.22155733,
				"LASTUPDATE" : "20231124150417"
			}
		},
		{
			"type" : "Feature",
			"geometry" : {
				"type" : "Point",
				"coordinates" : [ 114.0006729571, 22.2647596209 ]
			},
			"properties" : {
				"OBJECTID" : 38,
				"DATASET_EN" : "Private Primary Schools",
				"DATASET_TC" : "私立小學",
				"NAME_EN" : "SILVERMINE BAY SCHOOL",
				"ADDRESS_EN" : "UNITS A AND B 1/F SILVER CENTRE BUILDING 10 MUI WO FERRY PIER ROAD MUI WO LANTAU ISLAND NEW TERRITORIES",
				"NAME_TC" : "銀礦灣學校",
				"ADDRESS_TC" : "新界大嶼山梅窩梅窩碼頭路10號銀礦中心大廈1樓A室及B室",
				"SEARCH01_EN" : "CO-ED",
				"SEARCH01_TC" : "男女",
				"SEARCH02_EN" : "WHOLE DAY",
				"SEARCH02_TC" : "全日",
				"SEARCH03_EN" : "ISLANDS",
				"SEARCH03_TC" : "離島區",
				"SEARCH04_EN" : "PRIMARY",
				"SEARCH04_TC" : "小學",
				"SEARCH05_EN" : "PRIVATE",
				"SEARCH05_TC" : "私立",
				"NSEARCH01_EN" : "NOT APPLICABLE",
				"NSEARCH01_TC" : "不適用",
				"NSEARCH02_EN" : "29840006",
				"NSEARCH02_TC" : "29840006",
				"NSEARCH03_EN" : "29841338",
				"NSEARCH03_TC" : "29841338",
				"NSEARCH04_EN" : "https://silverminebayschool.edu.hk",
				"NSEARCH04_TC" : "https://silverminebayschool.edu.hk",
				"NSEARCH05_EN" : "579009000123",
				"NSEARCH05_TC" : "579009000123",
				"NORTHING" : 814004,
				"EASTING" : 818107,
				"LATITUDE" : 22.26475933,
				"LONGITUDE" : 114.00067295,
				"LASTUPDATE" : "20231124150416"
			}
		},
		{
			"type" : "Feature",
			"geometry" : {
				"type" : "Point",
				"coordinates" : [ 114.1656598924, 22.2484911765 ]
			},
			"properties" : {
				"OBJECTID" : 39,
				"DATASET_EN" : "Private Primary Schools",
				"DATASET_TC" : "私立小學",
				"NAME_EN" : "HAN ACADEMY",
				"ADDRESS_EN" : "G/F. - 2/F., GENESIS, NOS. 33 - 35 WONG CHUK HANG ROAD, ABERDEEN, HONG KONG",
				"NAME_TC" : "漢鼎書院",
				"ADDRESS_TC" : "香港香港仔黃竹坑道３３－３５號創協坊地下至２字樓",
				"SEARCH01_EN" : "CO-ED",
				"SEARCH01_TC" : "男女",
				"SEARCH02_EN" : "WHOLE DAY",
				"SEARCH02_TC" : "全日",
				"SEARCH03_EN" : "SOUTHERN",
				"SEARCH03_TC" : "南區",
				"SEARCH04_EN" : "PRIMARY",
				"SEARCH04_TC" : "小學",
				"SEARCH05_EN" : "PRIVATE",
				"SEARCH05_TC" : "私立",
				"NSEARCH01_EN" : "NOT APPLICABLE",
				"NSEARCH01_TC" : "不適用",
				"NSEARCH02_EN" : "39986300",
				"NSEARCH02_TC" : "39986300",
				"NSEARCH03_EN" : "39986303",
				"NSEARCH03_TC" : "39986303",
				"NSEARCH04_EN" : "http://www.hanacademy.edu.hk",
				"NSEARCH04_TC" : "http://www.hanacademy.edu.hk",
				"NSEARCH05_EN" : "607819000123",
				"NSEARCH05_TC" : "607819000123",
				"NORTHING" : 812192,
				"EASTING" : 835112,
				"LATITUDE" : 22.24849089,
				"LONGITUDE" : 114.16565989,
				"LASTUPDATE" : "20231124150415"
			}
		},
		{
			"type" : "Feature",
			"geometry" : {
				"type" : "Point",
				"coordinates" : [ 114.1495944359, 22.2509546523 ]
			},
			"properties" : {
				"OBJECTID" : 40,
				"DATASET_EN" : "Private Primary Schools",
				"DATASET_TC" : "私立小學",
				"NAME_EN" : "WYCOMBE ABBEY SCHOOL HONG KONG",
				"ADDRESS_EN" : "SHOP R101 OF 1/F., WHOLE FLOOR OF 2/F., 3/F. & 4/F., TIN WAN SHOPPING CENTRE, TIN WAN ESTATE, 17 TIN WAN STREET, ABERDEEN, HONG KONG",
				"NAME_TC" : "香港威雅學校",
				"ADDRESS_TC" : "香港香港仔田灣街17號田灣邨田灣商場1樓R101號舖、2樓全層、3樓及4樓",
				"SEARCH01_EN" : "CO-ED",
				"SEARCH01_TC" : "男女",
				"SEARCH02_EN" : "WHOLE DAY",
				"SEARCH02_TC" : "全日",
				"SEARCH03_EN" : "SOUTHERN",
				"SEARCH03_TC" : "南區",
				"SEARCH04_EN" : "PRIMARY",
				"SEARCH04_TC" : "小學",
				"SEARCH05_EN" : "PRIVATE",
				"SEARCH05_TC" : "私立",
				"NSEARCH01_EN" : "NOT APPLICABLE",
				"NSEARCH01_TC" : "不適用",
				"NSEARCH02_EN" : "21297100",
				"NSEARCH02_TC" : "21297100",
				"NSEARCH03_EN" : "21297101",
				"NSEARCH03_TC" : "21297101",
				"NSEARCH04_EN" : "http://www.was.edu.hk",
				"NSEARCH04_TC" : "http://www.was.edu.hk",
				"NSEARCH05_EN" : "611751000123",
				"NSEARCH05_TC" : "611751000123",
				"NORTHING" : 812465,
				"EASTING" : 833456,
				"LATITUDE" : 22.25095436,
				"LONGITUDE" : 114.14959443,
				"LASTUPDATE" : "20231124150415"
			}
		},
		{
			"type" : "Feature",
			"geometry" : {
				"type" : "Point",
				"coordinates" : [ 114.1402922057, 22.2834631707 ]
			},
			"properties" : {
				"OBJECTID" : 41,
				"DATASET_EN" : "Private Primary Schools",
				"DATASET_TC" : "私立小學",
				"NAME_EN" : "ST. CLARE'S PRIMARY SCHOOL",
				"ADDRESS_EN" : "3-6 PROSPECT PLACE BONHAM ROAD HONG KONG",
				"NAME_TC" : "聖嘉勒小學",
				"ADDRESS_TC" : "香港般咸道光景台3-6號",
				"SEARCH01_EN" : "GIRLS",
				"SEARCH01_TC" : "女",
				"SEARCH02_EN" : "WHOLE DAY",
				"SEARCH02_TC" : "全日",
				"SEARCH03_EN" : "CENTRAL AND WESTERN",
				"SEARCH03_TC" : "中西區",
				"SEARCH04_EN" : "PRIMARY",
				"SEARCH04_TC" : "小學",
				"SEARCH05_EN" : "PRIVATE",
				"SEARCH05_TC" : "私立",
				"NSEARCH01_EN" : "CATHOLICISM",
				"NSEARCH01_TC" : "天主教",
				"NSEARCH02_EN" : "25472751",
				"NSEARCH02_TC" : "25472751",
				"NSEARCH03_EN" : "25594139",
				"NSEARCH03_TC" : "25594139",
				"NSEARCH04_EN" : "http://pri.scps.edu.hk",
				"NSEARCH04_TC" : "http://pri.scps.edu.hk",
				"NSEARCH05_EN" : "210021000123",
				"NSEARCH05_TC" : "210021000123",
				"NORTHING" : 816065,
				"EASTING" : 832498,
				"LATITUDE" : 22.28346288,
				"LONGITUDE" : 114.1402922,
				"LASTUPDATE" : "20231124150415"
			}
		},
		{
			"type" : "Feature",
			"geometry" : {
				"type" : "Point",
				"coordinates" : [ 114.1407932658, 22.3350099721 ]
			},
			"properties" : {
				"OBJECTID" : 42,
				"DATASET_EN" : "Private Primary Schools",
				"DATASET_TC" : "私立小學",
				"NAME_EN" : "DELIA ENGLISH PRIMARY SCHOOL & KINDERGARTEN",
				"ADDRESS_EN" : "1/F 2/F & PORTIONS OF G/F & 3/F OF TOWER T46 84-86 BROADWAY MEI FOO SUN CHUEN KOWLOON",
				"NAME_TC" : "地利亞英文小學暨幼稚園",
				"ADDRESS_TC" : "九龍美孚新邨百老匯街８４至８６號",
				"SEARCH01_EN" : "CO-ED",
				"SEARCH01_TC" : "男女",
				"SEARCH02_EN" : "WHOLE DAY",
				"SEARCH02_TC" : "全日",
				"SEARCH03_EN" : "SHAM SHUI PO",
				"SEARCH03_TC" : "深水埗區",
				"SEARCH04_EN" : "PRIMARY",
				"SEARCH04_TC" : "小學",
				"SEARCH05_EN" : "PRIVATE",
				"SEARCH05_TC" : "私立",
				"NSEARCH01_EN" : "NOT APPLICABLE",
				"NSEARCH01_TC" : "不適用",
				"NSEARCH02_EN" : "27422027,27416915",
				"NSEARCH02_TC" : "27422027,27416915",
				"NSEARCH03_EN" : "27441367",
				"NSEARCH03_TC" : "27441367",
				"NSEARCH04_EN" : "http://www.deliapri.edu.hk",
				"NSEARCH04_TC" : "http://www.deliapri.edu.hk",
				"NSEARCH05_EN" : "216208000123",
				"NSEARCH05_TC" : "216208000123",
				"NORTHING" : 821773,
				"EASTING" : 832551,
				"LATITUDE" : 22.33500968,
				"LONGITUDE" : 114.14079326,
				"LASTUPDATE" : "20231124150415"
			}
		},
		{
			"type" : "Feature",
			"geometry" : {
				"type" : "Point",
				"coordinates" : [ 114.1861444443, 22.3327289752 ]
			},
			"properties" : {
				"OBJECTID" : 43,
				"DATASET_EN" : "Private Primary Schools",
				"DATASET_TC" : "私立小學",
				"NAME_EN" : "MUNSANG COLLEGE PRIMARY SCHOOL",
				"ADDRESS_EN" : "3/F.- ROOF GARDEN AT BLOCK A, BLOCK B - C, C205-C206, C305-C306, C405 AND C505 AT BLOCK C, BLOCK E (EXCLUDING BASEMENT - G/F.), 3/F. - ROOF AT BLOCK F, G103 AT BLOCK G, SPORTS GROUND & TRANSFORMER ROOM, 8 DUMBARTON ROAD, KOWLOON",
				"NAME_TC" : "民生書院小學",
				"ADDRESS_TC" : "九龍東寶庭道8號A座四樓至天台花園B-C座、C座C205—C206、C305—C306、C405及C505、E座(地庫至地下除外)、F座四樓至天台、G座G103、運動場及火牛房",
				"SEARCH01_EN" : "CO-ED",
				"SEARCH01_TC" : "男女",
				"SEARCH02_EN" : "WHOLE DAY",
				"SEARCH02_TC" : "全日",
				"SEARCH03_EN" : "KOWLOON CITY",
				"SEARCH03_TC" : "九龍城區",
				"SEARCH04_EN" : "PRIMARY",
				"SEARCH04_TC" : "小學",
				"SEARCH05_EN" : "PRIVATE",
				"SEARCH05_TC" : "私立",
				"NSEARCH01_EN" : "PROTESTANTISM / CHRISTIANITY",
				"NSEARCH01_TC" : "基督教",
				"NSEARCH02_EN" : "36553400",
				"NSEARCH02_TC" : "36553400",
				"NSEARCH03_EN" : "23372041",
				"NSEARCH03_TC" : "23372041",
				"NSEARCH04_EN" : "https://primary.munsang.edu.hk/primary/php/webcms/public/mainpage/main.php3",
				"NSEARCH04_TC" : "https://primary.munsang.edu.hk/primary/php/webcms/public/mainpage/main.php3",
				"NSEARCH05_EN" : "575399000123",
				"NSEARCH05_TC" : "575399000123",
				"NORTHING" : 821520,
				"EASTING" : 837223,
				"LATITUDE" : 22.33272868,
				"LONGITUDE" : 114.18614444,
				"LASTUPDATE" : "20231124150414"
			}
		},
		{
			"type" : "Feature",
			"geometry" : {
				"type" : "Point",
				"coordinates" : [ 114.1347118288, 22.2863787127 ]
			},
			"properties" : {
				"OBJECTID" : 44,
				"DATASET_EN" : "Private Primary Schools",
				"DATASET_TC" : "私立小學",
				"NAME_EN" : "ISLAND WALDORF SCHOOL",
				"ADDRESS_EN" : "SHOPS 2 ON G/F. AND WHOLE FLOOR OF 1/F., DRAGONFAIR GARDEN, NOS. 455-485 QUEEN'S ROAD WEST, HONG KONG",
				"NAME_TC" : "香島華德福學校",
				"ADDRESS_TC" : "香港皇后大道西455—485號龍暉花園地下2號舖及1樓全層",
				"SEARCH01_EN" : "CO-ED",
				"SEARCH01_TC" : "男女",
				"SEARCH02_EN" : "WHOLE DAY",
				"SEARCH02_TC" : "全日",
				"SEARCH03_EN" : "CENTRAL AND WESTERN",
				"SEARCH03_TC" : "中西區",
				"SEARCH04_EN" : "PRIMARY",
				"SEARCH04_TC" : "小學",
				"SEARCH05_EN" : "PRIVATE",
				"SEARCH05_TC" : "私立",
				"NSEARCH01_EN" : "NOT APPLICABLE",
				"NSEARCH01_TC" : "不適用",
				"NSEARCH02_EN" : "51141451",
				"NSEARCH02_TC" : "51141451",
				"NSEARCH03_EN" : null,
				"NSEARCH03_TC" : null,
				"NSEARCH04_EN" : "https://iws.edu.hk/?gclid=EAIaIQobChMIx6P01ujS-wIVEdGWCh0h1AD1EAAYASAAEgJue_D_BwE",
				"NSEARCH04_TC" : "https://iws.edu.hk/?gclid=EAIaIQobChMIx6P01ujS-wIVEdGWCh0h1AD1EAAYASAAEgJue_D_BwE",
				"NSEARCH05_EN" : "608319000223",
				"NSEARCH05_TC" : "608319000223",
				"NORTHING" : 816388,
				"EASTING" : 831923,
				"LATITUDE" : 22.28637842,
				"LONGITUDE" : 114.13471182,
				"LASTUPDATE" : "20231124150414"
			}
		},
		{
			"type" : "Feature",
			"geometry" : {
				"type" : "Point",
				"coordinates" : [ 114.1650026067, 22.3354470152 ]
			},
			"properties" : {
				"OBJECTID" : 45,
				"DATASET_EN" : "Private Primary Schools",
				"DATASET_TC" : "私立小學",
				"NAME_EN" : "BLOOM KKCA ACADEMY",
				"ADDRESS_EN" : "7 PUI TAK STREET, SHAM SHUI PO, KOWLOON",
				"NAME_TC" : "百卉九江書院",
				"ADDRESS_TC" : "九龍深水埗培德街7號",
				"SEARCH01_EN" : "CO-ED",
				"SEARCH01_TC" : "男女",
				"SEARCH02_EN" : "WHOLE DAY",
				"SEARCH02_TC" : "全日",
				"SEARCH03_EN" : "SHAM SHUI PO",
				"SEARCH03_TC" : "深水埗區",
				"SEARCH04_EN" : "PRIMARY",
				"SEARCH04_TC" : "小學",
				"SEARCH05_EN" : "PRIVATE",
				"SEARCH05_TC" : "私立",
				"NSEARCH01_EN" : "NOT APPLICABLE",
				"NSEARCH01_TC" : "不適用",
				"NSEARCH02_EN" : "23112268",
				"NSEARCH02_TC" : "23112268",
				"NSEARCH03_EN" : "2311 2229",
				"NSEARCH03_TC" : "2311 2229",
				"NSEARCH04_EN" : "https://bloom.edu.hk",
				"NSEARCH04_TC" : "https://bloom.edu.hk",
				"NSEARCH05_EN" : "617393000123",
				"NSEARCH05_TC" : "617393000123",
				"NORTHING" : 821821,
				"EASTING" : 835045,
				"LATITUDE" : 22.33544672,
				"LONGITUDE" : 114.1650026,
				"LASTUPDATE" : "20231124150413"
			}
		},
		{
			"type" : "Feature",
			"geometry" : {
				"type" : "Point",
				"coordinates" : [ 114.1753115768, 22.3306251104 ]
			},
			"properties" : {
				"OBJECTID" : 46,
				"DATASET_EN" : "Private Primary Schools",
				"DATASET_TC" : "私立小學",
				"NAME_EN" : "TAK NGA PRIMARY SCHOOL",
				"ADDRESS_EN" : "20 TAT CHEE AVENUE YAU YAT CHUEN KOWLOON",
				"NAME_TC" : "德雅小學",
				"ADDRESS_TC" : "九龍達之路２０號",
				"SEARCH01_EN" : "CO-ED",
				"SEARCH01_TC" : "男女",
				"SEARCH02_EN" : "WHOLE DAY",
				"SEARCH02_TC" : "全日",
				"SEARCH03_EN" : "SHAM SHUI PO",
				"SEARCH03_TC" : "深水埗區",
				"SEARCH04_EN" : "PRIMARY",
				"SEARCH04_TC" : "小學",
				"SEARCH05_EN" : "PRIVATE",
				"SEARCH05_TC" : "私立",
				"NSEARCH01_EN" : "CATHOLICISM",
				"NSEARCH01_TC" : "天主教",
				"NSEARCH02_EN" : "23811948,23806581",
				"NSEARCH02_TC" : "23811948,23806581",
				"NSEARCH03_EN" : "27899354",
				"NSEARCH03_TC" : "27899354",
				"NSEARCH04_EN" : "http://www.tnps.edu.hk",
				"NSEARCH04_TC" : "http://www.tnps.edu.hk",
				"NSEARCH05_EN" : "324434000123",
				"NSEARCH05_TC" : "324434000123",
				"NORTHING" : 821287,
				"EASTING" : 836107,
				"LATITUDE" : 22.33062482,
				"LONGITUDE" : 114.17531157,
				"LASTUPDATE" : "20231124150412"
			}
		},
		{
			"type" : "Feature",
			"geometry" : {
				"type" : "Point",
				"coordinates" : [ 114.1725161405, 22.3271663465 ]
			},
			"properties" : {
				"OBJECTID" : 47,
				"DATASET_EN" : "Private Primary Schools",
				"DATASET_TC" : "私立小學",
				"NAME_EN" : "CHAN'S CREATIVE SCHOOL",
				"ADDRESS_EN" : "NEW WING 71 BOUNDARY STREET KOWLOON",
				"NAME_TC" : "啓基學校",
				"ADDRESS_TC" : "九龍界限街７１號新翼",
				"SEARCH01_EN" : "CO-ED",
				"SEARCH01_TC" : "男女",
				"SEARCH02_EN" : "WHOLE DAY",
				"SEARCH02_TC" : "全日",
				"SEARCH03_EN" : "SHAM SHUI PO",
				"SEARCH03_TC" : "深水埗區",
				"SEARCH04_EN" : "PRIMARY",
				"SEARCH04_TC" : "小學",
				"SEARCH05_EN" : "PRIVATE",
				"SEARCH05_TC" : "私立",
				"NSEARCH01_EN" : "NOT APPLICABLE",
				"NSEARCH01_TC" : "不適用",
				"NSEARCH02_EN" : "23972808,23816228",
				"NSEARCH02_TC" : "23972808,23816228",
				"NSEARCH03_EN" : "27890386",
				"NSEARCH03_TC" : "27890386",
				"NSEARCH04_EN" : "http://www.ccs.edu.hk",
				"NSEARCH04_TC" : "http://www.ccs.edu.hk",
				"NSEARCH05_EN" : "517100000223",
				"NSEARCH05_TC" : "517100000223",
				"NORTHING" : 820904,
				"EASTING" : 835819,
				"LATITUDE" : 22.32716605,
				"LONGITUDE" : 114.17251614,
				"LASTUPDATE" : "20231124150412"
			}
		},
		{
			"type" : "Feature",
			"geometry" : {
				"type" : "Point",
				"coordinates" : [ 114.1885414011, 22.32499864 ]
			},
			"properties" : {
				"OBJECTID" : 48,
				"DATASET_EN" : "Private Primary Schools",
				"DATASET_TC" : "私立小學",
				"NAME_EN" : "HOLY TRINITY PRIMARY SCHOOL",
				"ADDRESS_EN" : "57 FU NING STREET KOWLOON",
				"NAME_TC" : "聖三一堂小學",
				"ADDRESS_TC" : "九龍富寧街５７號",
				"SEARCH01_EN" : "CO-ED",
				"SEARCH01_TC" : "男女",
				"SEARCH02_EN" : "WHOLE DAY",
				"SEARCH02_TC" : "全日",
				"SEARCH03_EN" : "KOWLOON CITY",
				"SEARCH03_TC" : "九龍城區",
				"SEARCH04_EN" : "PRIMARY",
				"SEARCH04_TC" : "小學",
				"SEARCH05_EN" : "PRIVATE",
				"SEARCH05_TC" : "私立",
				"NSEARCH01_EN" : "PROTESTANTISM / CHRISTIANITY",
				"NSEARCH01_TC" : "基督教",
				"NSEARCH02_EN" : "27110928,27110605",
				"NSEARCH02_TC" : "27110928,27110605",
				"NSEARCH03_EN" : "27153760",
				"NSEARCH03_TC" : "27153760",
				"NSEARCH04_EN" : "http://www.htps.edu.hk",
				"NSEARCH04_TC" : "http://www.htps.edu.hk",
				"NSEARCH05_EN" : "131350000123",
				"NSEARCH05_TC" : "131350000123",
				"NORTHING" : 820664,
				"EASTING" : 837470,
				"LATITUDE" : 22.32499835,
				"LONGITUDE" : 114.1885414,
				"LASTUPDATE" : "20231124150411"
			}
		},
		{
			"type" : "Feature",
			"geometry" : {
				"type" : "Point",
				"coordinates" : [ 114.1758745836, 22.3283494077 ]
			},
			"properties" : {
				"OBJECTID" : 49,
				"DATASET_EN" : "Private Primary Schools",
				"DATASET_TC" : "私立小學",
				"NAME_EN" : "KOWLOON TONG SCHOOL",
				"ADDRESS_EN" : "NKIL 2721 SURREY LANE CUMBERLAND ROAD KOWLOON",
				"NAME_TC" : "九龍塘學校",
				"ADDRESS_TC" : "九龍第２７２１號地段金巴倫道舒梨里",
				"SEARCH01_EN" : "CO-ED",
				"SEARCH01_TC" : "男女",
				"SEARCH02_EN" : "WHOLE DAY",
				"SEARCH02_TC" : "全日",
				"SEARCH03_EN" : "KOWLOON CITY",
				"SEARCH03_TC" : "九龍城區",
				"SEARCH04_EN" : "PRIMARY",
				"SEARCH04_TC" : "小學",
				"SEARCH05_EN" : "PRIVATE",
				"SEARCH05_TC" : "私立",
				"NSEARCH01_EN" : "NOT APPLICABLE",
				"NSEARCH01_TC" : "不適用",
				"NSEARCH02_EN" : "23363802,23382448",
				"NSEARCH02_TC" : "23363802,23382448",
				"NSEARCH03_EN" : "23371692",
				"NSEARCH03_TC" : "23371692",
				"NSEARCH04_EN" : "http://www.ktsps.edu.hk",
				"NSEARCH04_TC" : "http://www.ktsps.edu.hk",
				"NSEARCH05_EN" : "512516000123",
				"NSEARCH05_TC" : "512516000123",
				"NORTHING" : 821035,
				"EASTING" : 836165,
				"LATITUDE" : 22.32834911,
				"LONGITUDE" : 114.17587458,
				"LASTUPDATE" : "20231124150411"
			}
		},
		{
			"type" : "Feature",
			"geometry" : {
				"type" : "Point",
				"coordinates" : [ 113.9426658127, 22.29269021 ]
			},
			"properties" : {
				"OBJECTID" : 50,
				"DATASET_EN" : "Private Primary Schools",
				"DATASET_TC" : "私立小學",
				"NAME_EN" : "DISCOVERY MIND PRIMARY SCHOOL",
				"ADDRESS_EN" : "SHOP A, B, C, D1 & D2, G/F., SEAVIEW CRESCENT, 8 TUNG CHUNG WATERFRONT ROAD, TUNG CHUNG, LANTAU ISLAND, NEW TERRITORIES",
				"NAME_TC" : "弘志學校",
				"ADDRESS_TC" : "新界大嶼山東涌東涌海濱路8號海堤灣畔商場地下A、B、C、D1及D2舖",
				"SEARCH01_EN" : "CO-ED",
				"SEARCH01_TC" : "男女",
				"SEARCH02_EN" : "WHOLE DAY",
				"SEARCH02_TC" : "全日",
				"SEARCH03_EN" : "ISLANDS",
				"SEARCH03_TC" : "離島區",
				"SEARCH04_EN" : "PRIMARY",
				"SEARCH04_TC" : "小學",
				"SEARCH05_EN" : "PRIVATE",
				"SEARCH05_TC" : "私立",
				"NSEARCH01_EN" : "NOT APPLICABLE",
				"NSEARCH01_TC" : "不適用",
				"NSEARCH02_EN" : "29150666",
				"NSEARCH02_TC" : "29150666",
				"NSEARCH03_EN" : "29150667",
				"NSEARCH03_TC" : "29150667",
				"NSEARCH04_EN" : "https://discoverymind.edu.hk/?lang=zh-hant",
				"NSEARCH04_TC" : "https://discoverymind.edu.hk/?lang=zh-hant",
				"NSEARCH05_EN" : "590371000223",
				"NSEARCH05_TC" : "590371000223",
				"NORTHING" : 817105,
				"EASTING" : 812133,
				"LATITUDE" : 22.29268992,
				"LONGITUDE" : 113.94266581,
				"LASTUPDATE" : "20231124150410"
			}
		},
		{
			"type" : "Feature",
			"geometry" : {
				"type" : "Point",
				"coordinates" : [ 114.1783109568, 22.330209704 ]
			},
			"properties" : {
				"OBJECTID" : 51,
				"DATASET_EN" : "Private Primary Schools",
				"DATASET_TC" : "私立小學",
				"NAME_EN" : "KOWLOON TRUE LIGHT SCHOOL (PRIMARY SECTION)",
				"ADDRESS_EN" : "115 WATERLOO ROAD, KOWLOON",
				"NAME_TC" : "九龍真光中學（小學部）",
				"ADDRESS_TC" : "九龍窩打老道１１５號",
				"SEARCH01_EN" : "CO-ED",
				"SEARCH01_TC" : "男女",
				"SEARCH02_EN" : "WHOLE DAY",
				"SEARCH02_TC" : "全日",
				"SEARCH03_EN" : "KOWLOON CITY",
				"SEARCH03_TC" : "九龍城區",
				"SEARCH04_EN" : "PRIMARY",
				"SEARCH04_TC" : "小學",
				"SEARCH05_EN" : "PRIVATE",
				"SEARCH05_TC" : "私立",
				"NSEARCH01_EN" : "PROTESTANTISM / CHRISTIANITY",
				"NSEARCH01_TC" : "基督教",
				"NSEARCH02_EN" : "23360662",
				"NSEARCH02_TC" : "23360662",
				"NSEARCH03_EN" : "23387794",
				"NSEARCH03_TC" : "23387794",
				"NSEARCH04_EN" : "http://www.ktlsps.edu.hk",
				"NSEARCH04_TC" : "http://www.ktlsps.edu.hk",
				"NSEARCH05_EN" : "594792000123",
				"NSEARCH05_TC" : "594792000123",
				"NORTHING" : 821241,
				"EASTING" : 836416,
				"LATITUDE" : 22.3302097,
				"LONGITUDE" : 114.17831096,
				"LASTUPDATE" : "20231124150409"
			}
		},
		{
			"type" : "Feature",
			"geometry" : {
				"type" : "Point",
				"coordinates" : [ 114.1728467324, 22.3070552155 ]
			},
			"properties" : {
				"OBJECTID" : 52,
				"DATASET_EN" : "Private Primary Schools",
				"DATASET_TC" : "私立小學",
				"NAME_EN" : "DIOCESAN GIRLS' JUNIOR SCHOOL",
				"ADDRESS_EN" : "1 JORDAN ROAD KOWLOON",
				"NAME_TC" : "拔萃女小學",
				"ADDRESS_TC" : "九龍佐敦道1號",
				"SEARCH01_EN" : "GIRLS",
				"SEARCH01_TC" : "女",
				"SEARCH02_EN" : "WHOLE DAY",
				"SEARCH02_TC" : "全日",
				"SEARCH03_EN" : "YAU TSIM MONG",
				"SEARCH03_TC" : "油尖旺區",
				"SEARCH04_EN" : "PRIMARY",
				"SEARCH04_TC" : "小學",
				"SEARCH05_EN" : "PRIVATE",
				"SEARCH05_TC" : "私立",
				"NSEARCH01_EN" : "PROTESTANTISM / CHRISTIANITY",
				"NSEARCH01_TC" : "基督教",
				"NSEARCH02_EN" : "22779200",
				"NSEARCH02_TC" : "22779200",
				"NSEARCH03_EN" : "23858121",
				"NSEARCH03_TC" : "23858121",
				"NSEARCH04_EN" : "http://www.dgjs.edu.hk",
				"NSEARCH04_TC" : "http://www.dgjs.edu.hk",
				"NSEARCH05_EN" : "210706000123",
				"NSEARCH05_TC" : "210706000123",
				"NORTHING" : 818677,
				"EASTING" : 835853,
				"LATITUDE" : 22.30705492,
				"LONGITUDE" : 114.17284673,
				"LASTUPDATE" : "20231124150409"
			}
		},
		{
			"type" : "Feature",
			"geometry" : {
				"type" : "Point",
				"coordinates" : [ 114.2251373639, 22.4181327975 ]
			},
			"properties" : {
				"OBJECTID" : 53,
				"DATASET_EN" : "Private Primary Schools",
				"DATASET_TC" : "私立小學",
				"NAME_EN" : "RENAISSANCE COLLEGE",
				"ADDRESS_EN" : "NO.5 HANG MING STREET, MA ON SHAN, SHATIN, NEW TERRITORIES",
				"NAME_TC" : "啓新書院",
				"ADDRESS_TC" : "新界沙田馬鞍山恆明街5號",
				"SEARCH01_EN" : "CO-ED",
				"SEARCH01_TC" : "男女",
				"SEARCH02_EN" : "WHOLE DAY",
				"SEARCH02_TC" : "全日",
				"SEARCH03_EN" : "SHA TIN",
				"SEARCH03_TC" : "沙田區",
				"SEARCH04_EN" : "PRIMARY",
				"SEARCH04_TC" : "小學",
				"SEARCH05_EN" : "PRIVATE INDEPENDENT SCH SCHEME",
				"SEARCH05_TC" : "私立獨立學校計劃",
				"NSEARCH01_EN" : "NOT APPLICABLE",
				"NSEARCH01_TC" : "不適用",
				"NSEARCH02_EN" : "35563556",
				"NSEARCH02_TC" : "35563556",
				"NSEARCH03_EN" : "35563446",
				"NSEARCH03_TC" : "35563446",
				"NSEARCH04_EN" : "https://www.rchk.edu.hk",
				"NSEARCH04_TC" : "https://www.rchk.edu.hk",
				"NSEARCH05_EN" : "567485000123",
				"NSEARCH05_TC" : "567485000123",
				"NORTHING" : 830978,
				"EASTING" : 841237,
				"LATITUDE" : 22.4181325,
				"LONGITUDE" : 114.22513736,
				"LASTUPDATE" : "20231124150409"
			}
		},
		{
			"type" : "Feature",
			"geometry" : {
				"type" : "Point",
				"coordinates" : [ 114.1871111741, 22.2786536265 ]
			},
			"properties" : {
				"OBJECTID" : 54,
				"DATASET_EN" : "Private Primary Schools",
				"DATASET_TC" : "私立小學",
				"NAME_EN" : "ST. PAUL'S CONVENT SCHOOL (PRIMARY SECTION)",
				"ADDRESS_EN" : "GR-6/F OF PRIMARY SCHOOL BUILDING 140 LEIGHTON ROAD CAUSEWAY BAY HONG KONG",
				"NAME_TC" : "聖保祿學校（小學部）",
				"ADDRESS_TC" : "香港銅鑼灣禮頓道１４０號小學校舍地下至６樓",
				"SEARCH01_EN" : "GIRLS",
				"SEARCH01_TC" : "女",
				"SEARCH02_EN" : "WHOLE DAY",
				"SEARCH02_TC" : "全日",
				"SEARCH03_EN" : "WAN CHAI",
				"SEARCH03_TC" : "灣仔區",
				"SEARCH04_EN" : "PRIMARY",
				"SEARCH04_TC" : "小學",
				"SEARCH05_EN" : "PRIVATE",
				"SEARCH05_TC" : "私立",
				"NSEARCH01_EN" : "CATHOLICISM",
				"NSEARCH01_TC" : "天主教",
				"NSEARCH02_EN" : "25760601",
				"NSEARCH02_TC" : "25760601",
				"NSEARCH03_EN" : "25778433",
				"NSEARCH03_TC" : "25778433",
				"NSEARCH04_EN" : "http://www.spcspr.edu.hk",
				"NSEARCH04_TC" : "http://www.spcspr.edu.hk",
				"NSEARCH05_EN" : "212326000123",
				"NSEARCH05_TC" : "212326000123",
				"NORTHING" : 815532,
				"EASTING" : 837323,
				"LATITUDE" : 22.27865363,
				"LONGITUDE" : 114.18711117,
				"LASTUPDATE" : "20231124150408"
			}
		},
		{
			"type" : "Feature",
			"geometry" : {
				"type" : "Point",
				"coordinates" : [ 114.0240619938, 22.4454932573 ]
			},
			"properties" : {
				"OBJECTID" : 55,
				"DATASET_EN" : "Private Primary Schools",
				"DATASET_TC" : "私立小學",
				"NAME_EN" : "ELCHK LUTHERAN SCHOOL",
				"ADDRESS_EN" : "LOT 3797 IN DD 120 ON SHUN STREET YUEN LONG NEW TERRITORIES",
				"NAME_TC" : "基督教香港信義會啟信學校",
				"ADDRESS_TC" : "新界元朗安信街丈量約分第120約地段第3797號",
				"SEARCH01_EN" : "CO-ED",
				"SEARCH01_TC" : "男女",
				"SEARCH02_EN" : "WHOLE DAY",
				"SEARCH02_TC" : "全日",
				"SEARCH03_EN" : "YUEN LONG",
				"SEARCH03_TC" : "元朗區",
				"SEARCH04_EN" : "PRIMARY",
				"SEARCH04_TC" : "小學",
				"SEARCH05_EN" : "PRIVATE",
				"SEARCH05_TC" : "私立",
				"NSEARCH01_EN" : "PROTESTANTISM / CHRISTIANITY",
				"NSEARCH01_TC" : "基督教",
				"NSEARCH02_EN" : "24791830",
				"NSEARCH02_TC" : "24791830",
				"NSEARCH03_EN" : "24702007",
				"NSEARCH03_TC" : "24702007",
				"NSEARCH04_EN" : "http://elchkls.edu.hk",
				"NSEARCH04_TC" : "http://elchkls.edu.hk",
				"NSEARCH05_EN" : "151262000123",
				"NSEARCH05_TC" : "151262000123",
				"NORTHING" : 834015,
				"EASTING" : 820538,
				"LATITUDE" : 22.44549296,
				"LONGITUDE" : 114.02406199,
				"LASTUPDATE" : "20231124150407"
			}
		},
		{
			"type" : "Feature",
			"geometry" : {
				"type" : "Point",
				"coordinates" : [ 114.2102303764, 22.3866110859 ]
			},
			"properties" : {
				"OBJECTID" : 56,
				"DATASET_EN" : "Private Primary Schools",
				"DATASET_TC" : "私立小學",
				"NAME_EN" : "INTERNATIONAL CHRISTIAN SCHOOL",
				"ADDRESS_EN" : "1 ON MUK LANE SHATIN NEW TERRITORIES",
				"NAME_TC" : "基督教國際學校",
				"ADDRESS_TC" : "新界沙田安睦里１號",
				"SEARCH01_EN" : "CO-ED",
				"SEARCH01_TC" : "男女",
				"SEARCH02_EN" : "WHOLE DAY",
				"SEARCH02_TC" : "全日",
				"SEARCH03_EN" : "SHA TIN",
				"SEARCH03_TC" : "沙田區",
				"SEARCH04_EN" : "PRIMARY",
				"SEARCH04_TC" : "小學",
				"SEARCH05_EN" : "PRIVATE INDEPENDENT SCH SCHEME",
				"SEARCH05_TC" : "私立獨立學校計劃",
				"NSEARCH01_EN" : "PROTESTANTISM / CHRISTIANITY",
				"NSEARCH01_TC" : "基督教",
				"NSEARCH02_EN" : "39200000",
				"NSEARCH02_TC" : "39200000",
				"NSEARCH03_EN" : "23366114",
				"NSEARCH03_TC" : "23366114",
				"NSEARCH04_EN" : "http://www.ics.edu.hk",
				"NSEARCH04_TC" : "http://www.ics.edu.hk",
				"NSEARCH05_EN" : "569836000123",
				"NSEARCH05_TC" : "569836000123",
				"NORTHING" : 827487,
				"EASTING" : 839703,
				"LATITUDE" : 22.38661109,
				"LONGITUDE" : 114.21023038,
				"LASTUPDATE" : "20231124150407"
			}
		},
		{
			"type" : "Feature",
			"geometry" : {
				"type" : "Point",
				"coordinates" : [ 114.014016575, 22.3039483126 ]
			},
			"properties" : {
				"OBJECTID" : 57,
				"DATASET_EN" : "Private Primary Schools",
				"DATASET_TC" : "私立小學",
				"NAME_EN" : "DISCOVERY COLLEGE",
				"ADDRESS_EN" : "38 SIENA AVENUE DISCOVERY BAY LANTAU ISLAND NEW TERRITORIES",
				"NAME_TC" : "智新書院",
				"ADDRESS_TC" : "新界大嶼山愉景灣海澄湖畔路３８號",
				"SEARCH01_EN" : "CO-ED",
				"SEARCH01_TC" : "男女",
				"SEARCH02_EN" : "WHOLE DAY",
				"SEARCH02_TC" : "全日",
				"SEARCH03_EN" : "ISLANDS",
				"SEARCH03_TC" : "離島區",
				"SEARCH04_EN" : "PRIMARY",
				"SEARCH04_TC" : "小學",
				"SEARCH05_EN" : "PRIVATE INDEPENDENT SCH SCHEME",
				"SEARCH05_TC" : "私立獨立學校計劃",
				"NSEARCH01_EN" : "NOT APPLICABLE",
				"NSEARCH01_TC" : "不適用",
				"NSEARCH02_EN" : "39691000",
				"NSEARCH02_TC" : "39691000",
				"NSEARCH03_EN" : "29878115",
				"NSEARCH03_TC" : "29878115",
				"NSEARCH04_EN" : "http://www.discovery.edu.hk",
				"NSEARCH04_TC" : "http://www.discovery.edu.hk",
				"NSEARCH05_EN" : "569747000223",
				"NSEARCH05_TC" : "569747000223",
				"NORTHING" : 818342,
				"EASTING" : 819487,
				"LATITUDE" : 22.30394802,
				"LONGITUDE" : 114.01401657,
				"LASTUPDATE" : "20231124150407"
			}
		},
		{
			"type" : "Feature",
			"geometry" : {
				"type" : "Point",
				"coordinates" : [ 114.0052649637, 22.4605551684 ]
			},
			"properties" : {
				"OBJECTID" : 58,
				"DATASET_EN" : "Private Primary Schools",
				"DATASET_TC" : "私立小學",
				"NAME_EN" : "GIGAMIND ENGLISH PRIMARY SCHOOL",
				"ADDRESS_EN" : "KINDERGARTEN A MAYWOOD COURT KINGSWOOD VILLAS 9 TIN LUNG ROAD TIN SHUI WAI YUEN LONG NEW TERRITORIES",
				"NAME_TC" : "激活英文小學",
				"ADDRESS_TC" : "新界元朗天水圍天龍路九號嘉湖山莊美湖居幼稚園Ａ座",
				"SEARCH01_EN" : "CO-ED",
				"SEARCH01_TC" : "男女",
				"SEARCH02_EN" : "WHOLE DAY",
				"SEARCH02_TC" : "全日",
				"SEARCH03_EN" : "YUEN LONG",
				"SEARCH03_TC" : "元朗區",
				"SEARCH04_EN" : "PRIMARY",
				"SEARCH04_TC" : "小學",
				"SEARCH05_EN" : "PRIVATE",
				"SEARCH05_TC" : "私立",
				"NSEARCH01_EN" : "PROTESTANTISM / CHRISTIANITY",
				"NSEARCH01_TC" : "基督教",
				"NSEARCH02_EN" : "24469883",
				"NSEARCH02_TC" : "24469883",
				"NSEARCH03_EN" : "24469583",
				"NSEARCH03_TC" : "24469583",
				"NSEARCH04_EN" : "http://www.gigamind.edu.hk",
				"NSEARCH04_TC" : "http://www.gigamind.edu.hk",
				"NSEARCH05_EN" : "534285000123",
				"NSEARCH05_TC" : "534285000123",
				"NORTHING" : 835685,
				"EASTING" : 818605,
				"LATITUDE" : 22.46055487,
				"LONGITUDE" : 114.00526496,
				"LASTUPDATE" : "20231124150406"
			}
		},
		{
			"type" : "Feature",
			"geometry" : {
				"type" : "Point",
				"coordinates" : [ 114.1998536221, 22.2921260221 ]
			},
			"properties" : {
				"OBJECTID" : 59,
				"DATASET_EN" : "Private Primary Schools",
				"DATASET_TC" : "私立小學",
				"NAME_EN" : "GRACE CHRISTIAN ACADEMY",
				"ADDRESS_EN" : "UNIT 1 & 2 1/F JAVA ROAD 108 COMMERCIAL CENTRE 108 JAVA ROAD HONG KONG",
				"NAME_TC" : "培生學校",
				"ADDRESS_TC" : "香港渣華道１０８號渣華道１０８商業中心１樓１及２室",
				"SEARCH01_EN" : "CO-ED",
				"SEARCH01_TC" : "男女",
				"SEARCH02_EN" : "WHOLE DAY",
				"SEARCH02_TC" : "全日",
				"SEARCH03_EN" : "EASTERN",
				"SEARCH03_TC" : "東區",
				"SEARCH04_EN" : "PRIMARY",
				"SEARCH04_TC" : "小學",
				"SEARCH05_EN" : "PRIVATE",
				"SEARCH05_TC" : "私立",
				"NSEARCH01_EN" : "PROTESTANTISM / CHRISTIANITY",
				"NSEARCH01_TC" : "基督教",
				"NSEARCH02_EN" : "25613900",
				"NSEARCH02_TC" : "25613900",
				"NSEARCH03_EN" : "25613700",
				"NSEARCH03_TC" : "25613700",
				"NSEARCH04_EN" : "http://www.gca.edu.hk",
				"NSEARCH04_TC" : "http://www.gca.edu.hk",
				"NSEARCH05_EN" : "581259000123",
				"NSEARCH05_TC" : "581259000123",
				"NORTHING" : 817024,
				"EASTING" : 838636,
				"LATITUDE" : 22.29212573,
				"LONGITUDE" : 114.19985362,
				"LASTUPDATE" : "20231124150406"
			}
		},
		{
			"type" : "Feature",
			"geometry" : {
				"type" : "Point",
				"coordinates" : [ 114.205463708, 22.3452250253 ]
			},
			"properties" : {
				"OBJECTID" : 60,
				"DATASET_EN" : "Private Primary Schools",
				"DATASET_TC" : "私立小學",
				"NAME_EN" : "INTERNATIONAL CHRISTIAN QUALITY MUSIC SECONDARY AND PRIMARY SCHOOL",
				"ADDRESS_EN" : "182 PO KONG VILLAGE ROAD DIAMOND HILL KOWLOON (INCLUDING 6/F)",
				"NAME_TC" : "國際基督教優質音樂中學暨小學",
				"ADDRESS_TC" : "九龍鑽石山蒲崗村道１８２號（包括６樓）",
				"SEARCH01_EN" : "CO-ED",
				"SEARCH01_TC" : "男女",
				"SEARCH02_EN" : "WHOLE DAY",
				"SEARCH02_TC" : "全日",
				"SEARCH03_EN" : "WONG TAI SIN",
				"SEARCH03_TC" : "黃大仙區",
				"SEARCH04_EN" : "PRIMARY",
				"SEARCH04_TC" : "小學",
				"SEARCH05_EN" : "PRIVATE INDEPENDENT SCH SCHEME",
				"SEARCH05_TC" : "私立獨立學校計劃",
				"NSEARCH01_EN" : "PROTESTANTISM / CHRISTIANITY",
				"NSEARCH01_TC" : "基督教",
				"NSEARCH02_EN" : "27773828",
				"NSEARCH02_TC" : "27773828",
				"NSEARCH03_EN" : "27773899",
				"NSEARCH03_TC" : "27773899",
				"NSEARCH04_EN" : "http://www.icqm.edu.hk",
				"NSEARCH04_TC" : "http://www.icqm.edu.hk",
				"NSEARCH05_EN" : "553867000323",
				"NSEARCH05_TC" : "553867000323",
				"NORTHING" : 822904,
				"EASTING" : 839213,
				"LATITUDE" : 22.34522473,
				"LONGITUDE" : 114.2054637,
				"LASTUPDATE" : "20231124150406"
			}
		},
		{
			"type" : "Feature",
			"geometry" : {
				"type" : "Point",
				"coordinates" : [ 114.1592844968, 22.340566832 ]
			},
			"properties" : {
				"OBJECTID" : 61,
				"DATASET_EN" : "Private Primary Schools",
				"DATASET_TC" : "私立小學",
				"NAME_EN" : "SAN WUI COMMERCIAL SOCIETY YMCA OF HONG KONG CHRISTIAN SCHOOL",
				"ADDRESS_EN" : "5 KWONG LEE ROAD, SHAM SHUI PO, KOWLOON",
				"NAME_TC" : "新會商會港青基信學校",
				"ADDRESS_TC" : "九龍深水埗廣利道五號",
				"SEARCH01_EN" : "CO-ED",
				"SEARCH01_TC" : "男女",
				"SEARCH02_EN" : "WHOLE DAY",
				"SEARCH02_TC" : "全日",
				"SEARCH03_EN" : "SHAM SHUI PO",
				"SEARCH03_TC" : "深水埗區",
				"SEARCH04_EN" : "PRIMARY",
				"SEARCH04_TC" : "小學",
				"SEARCH05_EN" : "PRIVATE",
				"SEARCH05_TC" : "私立",
				"NSEARCH01_EN" : "PROTESTANTISM / CHRISTIANITY",
				"NSEARCH01_TC" : "基督教",
				"NSEARCH02_EN" : "23613383",
				"NSEARCH02_TC" : "23613383",
				"NSEARCH03_EN" : "23613962",
				"NSEARCH03_TC" : "23613962",
				"NSEARCH04_EN" : "http://www.cs.edu.hk",
				"NSEARCH04_TC" : "http://www.cs.edu.hk",
				"NSEARCH05_EN" : "592188000123",
				"NSEARCH05_TC" : "592188000123",
				"NORTHING" : 822388,
				"EASTING" : 834456,
				"LATITUDE" : 22.34056654,
				"LONGITUDE" : 114.15928449,
				"LASTUPDATE" : "20231124150405"
			}
		},
		{
			"type" : "Feature",
			"geometry" : {
				"type" : "Point",
				"coordinates" : [ 114.2859115013, 22.3073346588 ]
			},
			"properties" : {
				"OBJECTID" : 62,
				"DATASET_EN" : "Private Primary Schools",
				"DATASET_TC" : "私立小學",
				"NAME_EN" : "HONG KONG ADVENTIST ACADEMY",
				"ADDRESS_EN" : "1111 CLEAR WATER BAY ROAD, SAI KUNG, NEW TERRITORIES (INCLUDING ROOMS G02, CG01-CG08, G/F., ROOMS 101-105, C101-C110, 1/F., ROOMS 202-203, C201-C210, 2/F., ACADEMY BUILDING & 3/F., STUDENT DORMITORY BUILDING)",
				"NAME_TC" : "香港復臨學校",
				"ADDRESS_TC" : "新界西貢清水灣道１１１１號（包括教學大樓地下，Ｇ０２，ＣＧ０１－ＣＧ０８，１樓１０１－１０５及Ｃ１０１－Ｃ１１０，２樓２０２－２０３，Ｃ２０１－Ｃ２１０及學生宿舍大樓３樓）",
				"SEARCH01_EN" : "CO-ED",
				"SEARCH01_TC" : "男女",
				"SEARCH02_EN" : "WHOLE DAY",
				"SEARCH02_TC" : "全日",
				"SEARCH03_EN" : "SAI KUNG",
				"SEARCH03_TC" : "西貢區",
				"SEARCH04_EN" : "PRIMARY",
				"SEARCH04_TC" : "小學",
				"SEARCH05_EN" : "PRIVATE",
				"SEARCH05_TC" : "私立",
				"NSEARCH01_EN" : "PROTESTANTISM / CHRISTIANITY",
				"NSEARCH01_TC" : "基督教",
				"NSEARCH02_EN" : "26230034",
				"NSEARCH02_TC" : "26230034",
				"NSEARCH03_EN" : "26230431",
				"NSEARCH03_TC" : "26230431",
				"NSEARCH04_EN" : "http://www.hkaa.edu.hk",
				"NSEARCH04_TC" : "http://www.hkaa.edu.hk",
				"NSEARCH05_EN" : "513725000123",
				"NSEARCH05_TC" : "513725000123",
				"NORTHING" : 818712,
				"EASTING" : 847503,
				"LATITUDE" : 22.30733437,
				"LONGITUDE" : 114.2859115,
				"LASTUPDATE" : "20231124150405"
			}
		},
		{
			"type" : "Feature",
			"geometry" : {
				"type" : "Point",
				"coordinates" : [ 114.2157462773, 22.2123912258 ]
			},
			"properties" : {
				"OBJECTID" : 63,
				"DATASET_EN" : "Private Primary Schools",
				"DATASET_TC" : "私立小學",
				"NAME_EN" : "ST. STEPHEN'S COLLEGE PREPARATORY SCHOOL",
				"ADDRESS_EN" : "BLOCK A BLOCK B BLOCK E AND MINOR STAFF QUARTER 30-32 WONG MA KOK ROAD STANLEY RBL 432 HONG KONG",
				"NAME_TC" : "聖士提反書院附屬小學",
				"ADDRESS_TC" : "香港赤柱黃麻角道３０－３２號Ａ座、Ｂ座、Ｅ座及校役宿舍",
				"SEARCH01_EN" : "CO-ED",
				"SEARCH01_TC" : "男女",
				"SEARCH02_EN" : "WHOLE DAY",
				"SEARCH02_TC" : "全日",
				"SEARCH03_EN" : "SOUTHERN",
				"SEARCH03_TC" : "南區",
				"SEARCH04_EN" : "PRIMARY",
				"SEARCH04_TC" : "小學",
				"SEARCH05_EN" : "PRIVATE",
				"SEARCH05_TC" : "私立",
				"NSEARCH01_EN" : "PROTESTANTISM / CHRISTIANITY",
				"NSEARCH01_TC" : "基督教",
				"NSEARCH02_EN" : "28130272",
				"NSEARCH02_TC" : "28130272",
				"NSEARCH03_EN" : "28137401",
				"NSEARCH03_TC" : "28137401",
				"NSEARCH04_EN" : "http://www.sscps.edu.hk",
				"NSEARCH04_TC" : "http://www.sscps.edu.hk",
				"NSEARCH05_EN" : "517372000123",
				"NSEARCH05_TC" : "517372000123",
				"NORTHING" : 808195,
				"EASTING" : 840276,
				"LATITUDE" : 22.21239094,
				"LONGITUDE" : 114.21574627,
				"LASTUPDATE" : "20231124150404"
			}
		},
		{
			"type" : "Feature",
			"geometry" : {
				"type" : "Point",
				"coordinates" : [ 114.1762921772, 22.2732897496 ]
			},
			"properties" : {
				"OBJECTID" : 64,
				"DATASET_EN" : "Private Primary Schools",
				"DATASET_TC" : "私立小學",
				"NAME_EN" : "RAIMONDI COLLEGE PRIMARY SECTION",
				"ADDRESS_EN" : "1E, SHIU FAI TERRACE, STUBBS ROAD, WAN CHAI, HONG KONG",
				"NAME_TC" : "高主教書院小學部",
				"ADDRESS_TC" : "香港灣仔司徒拔道肇輝臺１號Ｅ",
				"SEARCH01_EN" : "CO-ED",
				"SEARCH01_TC" : "男女",
				"SEARCH02_EN" : "WHOLE DAY",
				"SEARCH02_TC" : "全日",
				"SEARCH03_EN" : "WAN CHAI",
				"SEARCH03_TC" : "灣仔區",
				"SEARCH04_EN" : "PRIMARY",
				"SEARCH04_TC" : "小學",
				"SEARCH05_EN" : "PRIVATE",
				"SEARCH05_TC" : "私立",
				"NSEARCH01_EN" : "CATHOLICISM",
				"NSEARCH01_TC" : "天主教",
				"NSEARCH02_EN" : "25221826",
				"NSEARCH02_TC" : "25221826",
				"NSEARCH03_EN" : "25217652",
				"NSEARCH03_TC" : "25217652",
				"NSEARCH04_EN" : "http://rcps.raimondi.edu.hk",
				"NSEARCH04_TC" : "http://rcps.raimondi.edu.hk",
				"NSEARCH05_EN" : "575240000123",
				"NSEARCH05_TC" : "575240000123",
				"NORTHING" : 814938,
				"EASTING" : 836208,
				"LATITUDE" : 22.27328975,
				"LONGITUDE" : 114.17629218,
				"LASTUPDATE" : "20231124150403"
			}
		},
		{
			"type" : "Feature",
			"geometry" : {
				"type" : "Point",
				"coordinates" : [ 114.1411067914, 22.2854591216 ]
			},
			"properties" : {
				"OBJECTID" : 65,
				"DATASET_EN" : "Private Primary Schools",
				"DATASET_TC" : "私立小學",
				"NAME_EN" : "KAU YAN SCHOOL",
				"ADDRESS_EN" : "ASSEMBLY HALL 1/F 97A HIGH STREET 2ND LOWER G/F TO 4/F 5/F & 6/F & PLAY AREA AT 1LG FLOOR 97B HIGH STREET SAI YING PUN HONG KONG.",
				"NAME_TC" : "救恩學校",
				"ADDRESS_TC" : "香港西營盤高街97號A1字樓禮堂及高街97號B地下第二層至4字樓5字樓及6字樓及地下第一層遊戲場",
				"SEARCH01_EN" : "CO-ED",
				"SEARCH01_TC" : "男女",
				"SEARCH02_EN" : "WHOLE DAY",
				"SEARCH02_TC" : "全日",
				"SEARCH03_EN" : "CENTRAL AND WESTERN",
				"SEARCH03_TC" : "中西區",
				"SEARCH04_EN" : "PRIMARY",
				"SEARCH04_TC" : "小學",
				"SEARCH05_EN" : "PRIVATE",
				"SEARCH05_TC" : "私立",
				"NSEARCH01_EN" : "PROTESTANTISM / CHRISTIANITY",
				"NSEARCH01_TC" : "基督教",
				"NSEARCH02_EN" : "21166198",
				"NSEARCH02_TC" : "21166198",
				"NSEARCH03_EN" : "25232835",
				"NSEARCH03_TC" : "25232835",
				"NSEARCH04_EN" : "http://www.kauyan.edu.hk",
				"NSEARCH04_TC" : "http://www.kauyan.edu.hk",
				"NSEARCH05_EN" : "512273000223",
				"NSEARCH05_TC" : "512273000223",
				"NORTHING" : 816286,
				"EASTING" : 832582,
				"LATITUDE" : 22.28545883,
				"LONGITUDE" : 114.14110679,
				"LASTUPDATE" : "20231124150403"
			}
		},
		{
			"type" : "Feature",
			"geometry" : {
				"type" : "Point",
				"coordinates" : [ 114.218730913, 22.3341958107 ]
			},
			"properties" : {
				"OBJECTID" : 66,
				"DATASET_EN" : "Private Primary Schools",
				"DATASET_TC" : "私立小學",
				"NAME_EN" : "GOOD HOPE PRIMARY SCHOOL CUM KINDERGARTEN",
				"ADDRESS_EN" : "381-383 JAT'S INCLINE KOWLOON",
				"NAME_TC" : "德望小學暨幼稚園",
				"ADDRESS_TC" : "九龍扎山道３８１－３８３號",
				"SEARCH01_EN" : "GIRLS",
				"SEARCH01_TC" : "女",
				"SEARCH02_EN" : "WHOLE DAY",
				"SEARCH02_TC" : "全日",
				"SEARCH03_EN" : "WONG TAI SIN",
				"SEARCH03_TC" : "黃大仙區",
				"SEARCH04_EN" : "PRIMARY",
				"SEARCH04_TC" : "小學",
				"SEARCH05_EN" : "PRIVATE",
				"SEARCH05_TC" : "私立",
				"NSEARCH01_EN" : "CATHOLICISM",
				"NSEARCH01_TC" : "天主教",
				"NSEARCH02_EN" : "23275294",
				"NSEARCH02_TC" : "23275294",
				"NSEARCH03_EN" : "23296403",
				"NSEARCH03_TC" : "23296403",
				"NSEARCH04_EN" : "http://www.ghs.edu.hk/pri",
				"NSEARCH04_TC" : "http://www.ghs.edu.hk/pri",
				"NSEARCH05_EN" : "588130000123",
				"NSEARCH05_TC" : "588130000123",
				"NORTHING" : 821683,
				"EASTING" : 840580,
				"LATITUDE" : 22.33419581,
				"LONGITUDE" : 114.21873091,
				"LASTUPDATE" : "20231124150403"
			}
		},
		{
			"type" : "Feature",
			"geometry" : {
				"type" : "Point",
				"coordinates" : [ 114.1665237946, 22.2415647045 ]
			},
			"properties" : {
				"OBJECTID" : 67,
				"DATASET_EN" : "Private Primary Schools",
				"DATASET_TC" : "私立小學",
				"NAME_EN" : "VICTORIA SHANGHAI ACADEMY",
				"ADDRESS_EN" : "19 SHUM WAN ROAD ABERDEEN HONG KONG",
				"NAME_TC" : "滬江維多利亞學校",
				"ADDRESS_TC" : "香港香港仔深灣道１９號",
				"SEARCH01_EN" : "CO-ED",
				"SEARCH01_TC" : "男女",
				"SEARCH02_EN" : "WHOLE DAY",
				"SEARCH02_TC" : "全日",
				"SEARCH03_EN" : "SOUTHERN",
				"SEARCH03_TC" : "南區",
				"SEARCH04_EN" : "PRIMARY",
				"SEARCH04_TC" : "小學",
				"SEARCH05_EN" : "PRIVATE INDEPENDENT SCH SCHEME",
				"SEARCH05_TC" : "私立獨立學校計劃",
				"NSEARCH01_EN" : "NOT APPLICABLE",
				"NSEARCH01_TC" : "不適用",
				"NSEARCH02_EN" : "34021100",
				"NSEARCH02_TC" : "34021100",
				"NSEARCH03_EN" : "34021099",
				"NSEARCH03_TC" : "34021099",
				"NSEARCH04_EN" : "http://www.vsa.edu.hk",
				"NSEARCH04_TC" : "http://www.vsa.edu.hk",
				"NSEARCH05_EN" : "560138000223",
				"NSEARCH05_TC" : "560138000223",
				"NORTHING" : 811425,
				"EASTING" : 835201,
				"LATITUDE" : 22.24156471,
				"LONGITUDE" : 114.1665238,
				"LASTUPDATE" : "20231124150403"
			}
		},
		{
			"type" : "Feature",
			"geometry" : {
				"type" : "Point",
				"coordinates" : [ 114.1811646924, 22.3289453712 ]
			},
			"properties" : {
				"OBJECTID" : 68,
				"DATASET_EN" : "Private Primary Schools",
				"DATASET_TC" : "私立小學",
				"NAME_EN" : "CREATIVE PRIMARY SCHOOL",
				"ADDRESS_EN" : "2A OXFORD ROAD KOWLOON TONG KOWLOON (EXCLUDING THE AREA EXCLUSIVELY USED BY CREATIVE PRIMARY SCHOOL'S KINDERGARTEN)",
				"NAME_TC" : "啓思小學",
				"ADDRESS_TC" : "九龍牛津道２Ａ號（啓思小學附屬幼稚園專用範圍除外）",
				"SEARCH01_EN" : "CO-ED",
				"SEARCH01_TC" : "男女",
				"SEARCH02_EN" : "WHOLE DAY",
				"SEARCH02_TC" : "全日",
				"SEARCH03_EN" : "KOWLOON CITY",
				"SEARCH03_TC" : "九龍城區",
				"SEARCH04_EN" : "PRIMARY",
				"SEARCH04_TC" : "小學",
				"SEARCH05_EN" : "PRIVATE",
				"SEARCH05_TC" : "私立",
				"NSEARCH01_EN" : "PROTESTANTISM / CHRISTIANITY",
				"NSEARCH01_TC" : "基督教",
				"NSEARCH02_EN" : "23360266",
				"NSEARCH02_TC" : "23360266",
				"NSEARCH03_EN" : "23382924",
				"NSEARCH03_TC" : "23382924",
				"NSEARCH04_EN" : "http://www.creativeprisch.edu.hk",
				"NSEARCH04_TC" : "http://www.creativeprisch.edu.hk",
				"NSEARCH05_EN" : "325279000123",
				"NSEARCH05_TC" : "325279000123",
				"NORTHING" : 821101,
				"EASTING" : 836710,
				"LATITUDE" : 22.32894537,
				"LONGITUDE" : 114.18116469,
				"LASTUPDATE" : "20231124150402"
			}
		},
		{
			"type" : "Feature",
			"geometry" : {
				"type" : "Point",
				"coordinates" : [ 114.129945303, 22.2633131477 ]
			},
			"properties" : {
				"OBJECTID" : 69,
				"DATASET_EN" : "Private Primary Schools",
				"DATASET_TC" : "私立小學",
				"NAME_EN" : "THE INDEPENDENT SCHOOLS FOUNDATION ACADEMY",
				"ADDRESS_EN" : "1 KONG SIN WAN ROAD POKFULAM HONG KONG",
				"NAME_TC" : "弘立書院",
				"ADDRESS_TC" : "香港薄扶林鋼綫灣道１號",
				"SEARCH01_EN" : "CO-ED",
				"SEARCH01_TC" : "男女",
				"SEARCH02_EN" : "WHOLE DAY",
				"SEARCH02_TC" : "全日",
				"SEARCH03_EN" : "SOUTHERN",
				"SEARCH03_TC" : "南區",
				"SEARCH04_EN" : "PRIMARY",
				"SEARCH04_TC" : "小學",
				"SEARCH05_EN" : "PRIVATE INDEPENDENT SCH SCHEME",
				"SEARCH05_TC" : "私立獨立學校計劃",
				"NSEARCH01_EN" : "NOT APPLICABLE",
				"NSEARCH01_TC" : "不適用",
				"NSEARCH02_EN" : "22022000",
				"NSEARCH02_TC" : "22022000",
				"NSEARCH03_EN" : "22022099",
				"NSEARCH03_TC" : "22022099",
				"NSEARCH04_EN" : "http://www.isf.edu.hk",
				"NSEARCH04_TC" : "http://www.isf.edu.hk",
				"NSEARCH05_EN" : "553190000323",
				"NSEARCH05_TC" : "553190000323",
				"NORTHING" : 813834,
				"EASTING" : 831431,
				"LATITUDE" : 22.26331315,
				"LONGITUDE" : 114.1299453,
				"LASTUPDATE" : "20231124150402"
			}
		},
		{
			"type" : "Feature",
			"geometry" : {
				"type" : "Point",
				"coordinates" : [ 114.1761366672, 22.3271934941 ]
			},
			"properties" : {
				"OBJECTID" : 70,
				"DATASET_EN" : "Private Primary Schools",
				"DATASET_TC" : "私立小學",
				"NAME_EN" : "KLT FUNFUL ENGLISH PRIMARY SCHOOL",
				"ADDRESS_EN" : "G/F & 1/F 1 CUMBERLAND ROAD KOWLOON TONG KOWLOON",
				"NAME_TC" : "九龍塘方方樂趣英文小學",
				"ADDRESS_TC" : "九龍金巴倫道一號地下及一樓",
				"SEARCH01_EN" : "CO-ED",
				"SEARCH01_TC" : "男女",
				"SEARCH02_EN" : "WHOLE DAY",
				"SEARCH02_TC" : "全日",
				"SEARCH03_EN" : "KOWLOON CITY",
				"SEARCH03_TC" : "九龍城區",
				"SEARCH04_EN" : "PRIMARY",
				"SEARCH04_TC" : "小學",
				"SEARCH05_EN" : "PRIVATE",
				"SEARCH05_TC" : "私立",
				"NSEARCH01_EN" : "PROTESTANTISM / CHRISTIANITY",
				"NSEARCH01_TC" : "基督教",
				"NSEARCH02_EN" : "23378422",
				"NSEARCH02_TC" : "23378422",
				"NSEARCH03_EN" : "23377533",
				"NSEARCH03_TC" : "23377533",
				"NSEARCH04_EN" : "http://www.funful.hk",
				"NSEARCH04_TC" : "http://www.funful.hk",
				"NSEARCH05_EN" : "216232000123",
				"NSEARCH05_TC" : "216232000123",
				"NORTHING" : 820907,
				"EASTING" : 836192,
				"LATITUDE" : 22.32719349,
				"LONGITUDE" : 114.17613667,
				"LASTUPDATE" : "20231124150402"
			}
		},
		{
			"type" : "Feature",
			"geometry" : {
				"type" : "Point",
				"coordinates" : [ 114.1784760133, 22.3338219346 ]
			},
			"properties" : {
				"OBJECTID" : 71,
				"DATASET_EN" : "Private Primary Schools",
				"DATASET_TC" : "私立小學",
				"NAME_EN" : "ST. JOHANNES COLLEGE",
				"ADDRESS_EN" : "G/F - 1/F., 109 WATERLOO ROAD AND 143 WATERLOO ROAD, KOWLOON TONG, KOWLOON",
				"NAME_TC" : "聖若望英文書院",
				"ADDRESS_TC" : "九龍九龍塘窩打老道１０９號地下至一樓及１４３號",
				"SEARCH01_EN" : "CO-ED",
				"SEARCH01_TC" : "男女",
				"SEARCH02_EN" : "WHOLE DAY",
				"SEARCH02_TC" : "全日",
				"SEARCH03_EN" : "KOWLOON CITY",
				"SEARCH03_TC" : "九龍城區",
				"SEARCH04_EN" : "PRIMARY",
				"SEARCH04_TC" : "小學",
				"SEARCH05_EN" : "PRIVATE",
				"SEARCH05_TC" : "私立",
				"NSEARCH01_EN" : "CATHOLICISM",
				"NSEARCH01_TC" : "天主教",
				"NSEARCH02_EN" : "23362933",
				"NSEARCH02_TC" : "23362933",
				"NSEARCH03_EN" : "23362097",
				"NSEARCH03_TC" : "23362097",
				"NSEARCH04_EN" : "http://www.st-johannes.edu.hk",
				"NSEARCH04_TC" : "http://www.st-johannes.edu.hk",
				"NSEARCH05_EN" : "212466000423",
				"NSEARCH05_TC" : "212466000423",
				"NORTHING" : 821641,
				"EASTING" : 836433,
				"LATITUDE" : 22.33382194,
				"LONGITUDE" : 114.17847601,
				"LASTUPDATE" : "20231124150401"
			}
		},
		{
			"type" : "Feature",
			"geometry" : {
				"type" : "Point",
				"coordinates" : [ 114.1535185918, 22.2802326409 ]
			},
			"properties" : {
				"OBJECTID" : 72,
				"DATASET_EN" : "Private Primary Schools",
				"DATASET_TC" : "私立小學",
				"NAME_EN" : "SACRED HEART CANOSSIAN SCHOOL, PRIVATE SECTION",
				"ADDRESS_EN" : "UPPER GROUND FLOOR AND 1/F TO 6/F 34 CAINE ROAD HONG KONG",
				"NAME_TC" : "嘉諾撒聖心學校私立部",
				"ADDRESS_TC" : "香港堅道３４號高層地下及１樓至６樓",
				"SEARCH01_EN" : "GIRLS",
				"SEARCH01_TC" : "女",
				"SEARCH02_EN" : "A.M.",
				"SEARCH02_TC" : "上午",
				"SEARCH03_EN" : "CENTRAL AND WESTERN",
				"SEARCH03_TC" : "中西區",
				"SEARCH04_EN" : "PRIMARY",
				"SEARCH04_TC" : "小學",
				"SEARCH05_EN" : "PRIVATE",
				"SEARCH05_TC" : "私立",
				"NSEARCH01_EN" : "CATHOLICISM",
				"NSEARCH01_TC" : "天主教",
				"NSEARCH02_EN" : "25248301",
				"NSEARCH02_TC" : "25248301",
				"NSEARCH03_EN" : "25371028",
				"NSEARCH03_TC" : "25371028",
				"NSEARCH04_EN" : "http://www.shcsps.edu.hk",
				"NSEARCH04_TC" : "http://www.shcsps.edu.hk",
				"NSEARCH05_EN" : "210315000121",
				"NSEARCH05_TC" : "210315000121",
				"NORTHING" : 815707,
				"EASTING" : 833861,
				"LATITUDE" : 22.28023264,
				"LONGITUDE" : 114.15351859,
				"LASTUPDATE" : "20231124150401"
			}
		},
		{
			"type" : "Feature",
			"geometry" : {
				"type" : "Point",
				"coordinates" : [ 114.2105762676, 22.3309828278 ]
			},
			"properties" : {
				"OBJECTID" : 73,
				"DATASET_EN" : "Private Primary Schools",
				"DATASET_TC" : "私立小學",
				"NAME_EN" : "ST. JOSEPH'S ANGLO-CHINESE PRIMARY SCHOOL",
				"ADDRESS_EN" : "57 KWUN TONG ROAD KOWLOON",
				"NAME_TC" : "聖若瑟英文小學",
				"ADDRESS_TC" : "九龍觀塘觀塘道５７號",
				"SEARCH01_EN" : "BOYS",
				"SEARCH01_TC" : "男",
				"SEARCH02_EN" : "WHOLE DAY",
				"SEARCH02_TC" : "全日",
				"SEARCH03_EN" : "KWUN TONG",
				"SEARCH03_TC" : "觀塘區",
				"SEARCH04_EN" : "PRIMARY",
				"SEARCH04_TC" : "小學",
				"SEARCH05_EN" : "PRIVATE",
				"SEARCH05_TC" : "私立",
				"NSEARCH01_EN" : "CATHOLICISM",
				"NSEARCH01_TC" : "天主教",
				"NSEARCH02_EN" : "23255851",
				"NSEARCH02_TC" : "23255851",
				"NSEARCH03_EN" : "23227466",
				"NSEARCH03_TC" : "23227466",
				"NSEARCH04_EN" : "http://www.sjacps.edu.hk",
				"NSEARCH04_TC" : "http://www.sjacps.edu.hk",
				"NSEARCH05_EN" : "211303000123",
				"NSEARCH05_TC" : "211303000123",
				"NORTHING" : 821327,
				"EASTING" : 839740,
				"LATITUDE" : 22.33098283,
				"LONGITUDE" : 114.21057627,
				"LASTUPDATE" : "20231124150401"
			}
		},
		{
			"type" : "Feature",
			"geometry" : {
				"type" : "Point",
				"coordinates" : [ 114.1755348408, 22.3296678706 ]
			},
			"properties" : {
				"OBJECTID" : 74,
				"DATASET_EN" : "Private Primary Schools",
				"DATASET_TC" : "私立小學",
				"NAME_EN" : "KOWLOON RHENISH SCHOOL",
				"ADDRESS_EN" : "2A DIANTHUS ROAD YAU YAT CHUEN KOWLOON",
				"NAME_TC" : "九龍禮賢學校",
				"ADDRESS_TC" : "九龍又一村石竹路2A號",
				"SEARCH01_EN" : "CO-ED",
				"SEARCH01_TC" : "男女",
				"SEARCH02_EN" : "WHOLE DAY",
				"SEARCH02_TC" : "全日",
				"SEARCH03_EN" : "SHAM SHUI PO",
				"SEARCH03_TC" : "深水埗區",
				"SEARCH04_EN" : "PRIMARY",
				"SEARCH04_TC" : "小學",
				"SEARCH05_EN" : "PRIVATE",
				"SEARCH05_TC" : "私立",
				"NSEARCH01_EN" : "PROTESTANTISM / CHRISTIANITY",
				"NSEARCH01_TC" : "基督教",
				"NSEARCH02_EN" : "23806011",
				"NSEARCH02_TC" : "23806011",
				"NSEARCH03_EN" : "27877901",
				"NSEARCH03_TC" : "27877901",
				"NSEARCH04_EN" : "http://www.krs.edu.hk",
				"NSEARCH04_TC" : "http://www.krs.edu.hk",
				"NSEARCH05_EN" : "138177000123",
				"NSEARCH05_TC" : "138177000123",
				"NORTHING" : 821181,
				"EASTING" : 836130,
				"LATITUDE" : 22.32966787,
				"LONGITUDE" : 114.17553484,
				"LASTUPDATE" : "20231124150400"
			}
		},
		{
			"type" : "Feature",
			"geometry" : {
				"type" : "Point",
				"coordinates" : [ 114.1706724734, 22.3141983554 ]
			},
			"properties" : {
				"OBJECTID" : 75,
				"DATASET_EN" : "Private Primary Schools",
				"DATASET_TC" : "私立小學",
				"NAME_EN" : "CALIFORNIA SCHOOL",
				"ADDRESS_EN" : "FRONT BLOCK UNIT 550 3/F LUNG MA BUILDING 550 NATHAN ROAD YAUMATEI KOWLOON",
				"NAME_TC" : "CALIFORNIA SCHOOL",
				"ADDRESS_TC" : "九龍油麻地彌敦道550號龍馬大廈3樓550室前座",
				"SEARCH01_EN" : "CO-ED",
				"SEARCH01_TC" : "男女",
				"SEARCH02_EN" : "WHOLE DAY",
				"SEARCH02_TC" : "全日",
				"SEARCH03_EN" : "YAU TSIM MONG",
				"SEARCH03_TC" : "油尖旺區",
				"SEARCH04_EN" : "PRIMARY",
				"SEARCH04_TC" : "小學",
				"SEARCH05_EN" : "PRIVATE",
				"SEARCH05_TC" : "私立",
				"NSEARCH01_EN" : "NOT APPLICABLE",
				"NSEARCH01_TC" : "不適用",
				"NSEARCH02_EN" : "23889844/98227549",
				"NSEARCH02_TC" : "23889844/98227549",
				"NSEARCH03_EN" : "2780 1709",
				"NSEARCH03_TC" : "2780 1709",
				"NSEARCH04_EN" : "https://www.californiaschool.edu.hk",
				"NSEARCH04_TC" : "https://www.californiaschool.edu.hk",
				"NSEARCH05_EN" : "289515000123",
				"NSEARCH05_TC" : "289515000123",
				"NORTHING" : 819468,
				"EASTING" : 835629,
				"LATITUDE" : 22.31419806,
				"LONGITUDE" : 114.17067247,
				"LASTUPDATE" : "20231124150359"
			}
		},
		{
			"type" : "Feature",
			"geometry" : {
				"type" : "Point",
				"coordinates" : [ 114.0165836344, 22.3080959063 ]
			},
			"properties" : {
				"OBJECTID" : 76,
				"DATASET_EN" : "Private Primary Schools",
				"DATASET_TC" : "私立小學",
				"NAME_EN" : "DISCOVERY MONTESSORI ACADEMY",
				"ADDRESS_EN" : "BLOCK 1 DISCOVERY BAY NORTH DISCOVERY BAY CITY LANTAU ISLAND NEW TERRITORIES",
				"NAME_TC" : "DISCOVERY MONTESSORI ACADEMY",
				"ADDRESS_TC" : "新界大嶼山愉景灣北1座",
				"SEARCH01_EN" : "CO-ED",
				"SEARCH01_TC" : "男女",
				"SEARCH02_EN" : "WHOLE DAY",
				"SEARCH02_TC" : "全日",
				"SEARCH03_EN" : "ISLANDS",
				"SEARCH03_TC" : "離島區",
				"SEARCH04_EN" : "PRIMARY",
				"SEARCH04_TC" : "小學",
				"SEARCH05_EN" : "PRIVATE",
				"SEARCH05_TC" : "私立",
				"NSEARCH01_EN" : "NOT APPLICABLE",
				"NSEARCH01_TC" : "不適用",
				"NSEARCH02_EN" : "28129668",
				"NSEARCH02_TC" : "28129668",
				"NSEARCH03_EN" : "28129905",
				"NSEARCH03_TC" : "28129905",
				"NSEARCH04_EN" : "https://www.montessori-ami.edu.hk",
				"NSEARCH04_TC" : "https://www.montessori-ami.edu.hk",
				"NSEARCH05_EN" : "600814000123",
				"NSEARCH05_TC" : "600814000123",
				"NORTHING" : 818801,
				"EASTING" : 819752,
				"LATITUDE" : 22.30809561,
				"LONGITUDE" : 114.01658363,
				"LASTUPDATE" : "20231124150358"
			}
		}
	]
}