{
  "type": "FeatureCollection",
  "features": [
    {
      "type": "Feature",
      "id": "PF-001",
      "geometry": {
        "type": "Point",
        "coordinates": [
          114.098,
          22.222
        ]
      },
      "properties": {
        "name": "Public Facility 001",
        "facility_id": "PF-001",
        "type": "community_centre",
        "capacity": 57
      }
    },
    {
      "type": "Feature",
      "id": "PF-002",
      "geometry": {
        "type": "Point",
        "coordinates": [
          114.116,
          22.244
        ]
      },
      "properties": {
        "name": "Public Facility 002",
        "facility_id": "PF-002",
        "type": "sports_hall",
        "capacity": 64
      }
    },
    {
      "type": "Feature",
      "id": "PF-003",
      "geometry": {
        "type": "Point",
        "coordinates": [
          114.134,
          22.266
        ]
      },
      "properties": {
        "name": "Public Facility 003",
        "facility_id": "PF-003",
        "type": "clinic",
        "capacity": 71
      }
    },
    {
      "type": "Feature",
      "id": "PF-004",
      "geometry": {
        "type": "Point",
        "coordinates": [
          114.152,
          22.288
        ]
      },
      "properties": {
        "name": "Public Facility 004",
        "facility_id": "PF-004",
        "type": "library",
        "capacity": 78
      }
    },
    {
      "type": "Feature",
      "id": "PF-005",
      "geometry": {
        "type": "Point",
        "coordinates": [
          114.17,
          22.31
        ]
      },
      "properties": {
        "name": "Public Facility 005",
        "facility_id": "PF-005",
        "type": "community_centre",
        "capacity": 85
      }
    },
    {
      "type": "Feature",
      "id": "PF-006",
      "geometry": {
        "type": "Point",
        "coordinates": [
          114.188,
          22.332
        ]
      },
      "properties": {
        "name": "Public Facility 006",
        "facility_id": "PF-006",
        "type": "sports_hall",
        "capacity": 92
      }
    },
    {
      "type": "Feature",
      "id": "PF-007",
      "geometry": {
        "type": "Point",
        "coordinates": [
          114.206,
          22.354
        ]
      },
      "properties": {
        "name": "Public Facility 007",
        "facility_id": "PF-007",
        "type": "clinic",
        "capacity": 99
      }
    },
    {
      "type": "Feature",
      "id": "PF-008",
      "geometry": {
        "type": "Point",
        "coordinates": [
          114.08,
          22.376
        ]
      },
      "properties": {
        "name": "Public Facility 008",
        "facility_id": "PF-008",
        "type": "library",
        "capacity": 106
      }
    },
    {
      "type": "Feature",
      "id": "PF-009",
      "geometry": {
        "type": "Point",
        "coordinates": [
          114.098,
          22.398
        ]
      },
      "properties": {
        "name": "Public Facility 009",
        "facility_id": "PF-009",
        "type": "community_centre",
        "capacity": 113
      }
    },
    {
      "type": "Feature",
      "id": "PF-010",
      "geometry": {
        "type": "Point",
        "coordinates": [
          114.116,
          22.42
        ]
      },
      "properties": {
        "name": "Public Facility 010",
        "facility_id": "PF-010",
        "type": "sports_hall",
        "capacity": 120
      }
    },
    {
      "type": "Feature",
      "id": "PF-011",
      "geometry": {
        "type": "Point",
        "coordinates": [
          114.134,
          22.442
        ]
      },
      "properties": {
        "name": "Public Facility 011",
        "facility_id": "PF-011",
        "type": "clinic",
        "capacity": 127
      }
    },
    {
      "type": "Feature",
      "id": "PF-012",
      "geometry": {
        "type": "Point",
        "coordinates": [
          114.152,
          22.464
        ]
      },
      "properties": {
        "name": "Public Facility 012",
        "facility_id": "PF-012",
        "type": "library",
        "capacity": 134
      }
    },
    {
      "type": "Feature",
      "id": "PF-013",
      "geometry": {
        "type": "Point",
        "coordinates": [
          114.17,
          22.486
        ]
      },
      "properties": {
        "name": "Public Facility 013",
        "facility_id": "PF-013",
        "type": "community_centre",
        "capacity": 141
      }
    },
    {
      "type": "Feature",
      "id": "PF-014",
      "geometry": {
        "type": "Point",
        "coordinates": [
          114.188,
          22.508
        ]
      },
      "properties": {
        "name": "Public Facility 014",
        "facility_id": "PF-014",
        "type": "sports_hall",
        "capacity": 148
      }
    },
    {
      "type": "Feature",
      "id": "PF-015",
      "geometry": {
        "type": "Point",
        "coordinates": [
          114.206,
          22.53
        ]
      },
      "properties": {
        "name": "Public Facility 015",
        "facility_id": "PF-015",
        "type": "clinic",
        "capacity": 155
      }
    },
    {
      "type": "Feature",
      "id": "PF-016",
      "geometry": {
        "type": "Point",
        "coordinates": [
          114.08,
          22.552
        ]
      },
      "properties": {
        "name": "Public Facility 016",
        "facility_id": "PF-016",
        "type": "library",
        "capacity": 162
      }
    }
  ]
}
